{
	"version": 0.6,
	"generator": "Overpass API 0.7.55.7 8b86ff77",
	"osm3s": {
		"timestamp_osm_base": "2019-11-06T06:38:02Z",
		"copyright": "The data included in this document is from www.openstreetmap.org. The data is made available under ODbL."
	},
	"elements": [
		{
			"type": "node",
			"id": 26036352,
			"lat": 12.7503486,
			"lon": 122.7312101,
			"tags": {
				"name:vo": "Filipuäns"
			}
		},
		{
			"type": "node",
			"id": 26347360,
			"lat": 42.6384261,
			"lon": 12.674297,
			"tags": {
				"name:vo": "Litaliyän"
			}
		},
		{
			"type": "node",
			"id": 26847706,
			"lat": 33.7680065,
			"lon": 66.2385139,
			"tags": {
				"name:vo": "Lafganistän"
			}
		},
		{
			"type": "node",
			"id": 26847709,
			"lat": 47.2000338,
			"lon": 13.199959,
			"tags": {
				"name:vo": "Lösterän"
			}
		},
		{
			"type": "node",
			"id": 148332300,
			"lat": 39.3262345,
			"lon": -4.8380649,
			"tags": {
				"name:vo": "Spanyän"
			}
		},
		{
			"type": "node",
			"id": 148874198,
			"lat": 42.5407167,
			"lon": 1.5732033,
			"tags": {
				"name:vo": "Landorän"
			}
		},
		{
			"type": "node",
			"id": 208592566,
			"lat": 45.8133113,
			"lon": 14.4808369,
			"tags": {
				"name:vo": "Sloveniyän"
			}
		},
		{
			"type": "node",
			"id": 246422158,
			"lat": 19.0974031,
			"lon": -70.3028026,
			"tags": {
				"name:vo": "Sandominän"
			}
		},
		{
			"type": "node",
			"id": 248120384,
			"lat": -41.5000831,
			"lon": 172.8344077,
			"tags": {
				"name:vo": "Nula-Seleäns"
			}
		},
		{
			"type": "node",
			"id": 249399277,
			"lat": 40.7696272,
			"lon": 44.6736646,
			"tags": {
				"name:vo": "Larmeniyän"
			}
		},
		{
			"type": "node",
			"id": 249399280,
			"lat": -34.9964963,
			"lon": -64.9672817,
			"tags": {
				"name:vo": "Largäntän"
			}
		},
		{
			"type": "node",
			"id": 249399285,
			"lat": 13.1500331,
			"lon": -59.5250305,
			"tags": {
				"name:vo": "Barbadeän"
			}
		},
		{
			"type": "node",
			"id": 249399288,
			"lat": 12.0753083,
			"lon": -1.6880314,
			"tags": {
				"name:vo": "Burkinän"
			}
		},
		{
			"type": "node",
			"id": 249399296,
			"lat": 24.7736546,
			"lon": -78.0000547,
			"tags": {
				"name:vo": "Bahamuäns"
			}
		},
		{
			"type": "node",
			"id": 249399300,
			"lat": 53.4250605,
			"lon": 27.6971358,
			"tags": {
				"name:vo": "Belarusän"
			}
		},
		{
			"type": "node",
			"id": 249399313,
			"lat": 23.0131338,
			"lon": -80.8328748,
			"tags": {
				"name:vo": "Kubeän"
			}
		},
		{
			"type": "node",
			"id": 249399347,
			"lat": 47.1817585,
			"lon": 19.5060937,
			"tags": {
				"name:vo": "Macarän"
			}
		},
		{
			"type": "node",
			"id": 249399360,
			"lat": -12.2045176,
			"lon": 44.2832964,
			"tags": {
				"name:vo": "Komoruäns"
			}
		},
		{
			"type": "node",
			"id": 249399361,
			"lat": 40.3736611,
			"lon": 127.0870417,
			"tags": {
				"name:vo": "Nolüda-Koreyän"
			}
		},
		{
			"type": "node",
			"id": 249399362,
			"lat": 36.5581914,
			"lon": 127.9408564,
			"tags": {
				"name:vo": "Sulüda-Koreyän"
			}
		},
		{
			"type": "node",
			"id": 249399394,
			"lat": 4.5693754,
			"lon": 102.2656823,
			"tags": {
				"name:vo": "Malaysiyän"
			}
		},
		{
			"type": "node",
			"id": 249399402,
			"lat": 28.1083929,
			"lon": 84.0917139,
			"tags": {
				"name:vo": "Nepalän"
			}
		},
		{
			"type": "node",
			"id": 249399406,
			"lat": -6.8699697,
			"lon": -75.0458515,
			"tags": {
				"name:vo": "Peruvän"
			}
		},
		{
			"type": "node",
			"id": 249399419,
			"lat": 25.6242618,
			"lon": 42.3528328,
			"tags": {
				"name:vo": "Sauda-Larabän"
			}
		},
		{
			"type": "node",
			"id": 249399429,
			"lat": 0.8875498,
			"lon": 6.9648718,
			"tags": {
				"name:vo": "Saluda-Tomeän e Prinsipeän"
			}
		},
		{
			"type": "node",
			"id": 249399440,
			"lat": 39.3763807,
			"lon": 59.3924609,
			"tags": {
				"name:vo": "Turkmenän"
			}
		},
		{
			"type": "node",
			"id": 249399444,
			"lat": 10.8677845,
			"lon": -60.9821067,
			"tags": {
				"name:vo": "Trinidadeän e Tobageäns"
			}
		},
		{
			"type": "node",
			"id": 249399459,
			"lat": 16.3471243,
			"lon": 47.8915271,
			"tags": {
				"name:vo": "Yämän"
			}
		},
		{
			"type": "node",
			"id": 332779764,
			"lat": 16.8259793,
			"lon": -88.7600927,
			"tags": {
				"name:vo": "Belisän"
			}
		},
		{
			"type": "node",
			"id": 369137525,
			"lat": 44.1534121,
			"lon": 20.55144,
			"tags": {
				"name:vo": "Särbän"
			}
		},
		{
			"type": "node",
			"id": 424297198,
			"lat": 60.5000209,
			"lon": 9.0999715,
			"tags": {
				"name:vo": "Norgän"
			}
		},
		{
			"type": "node",
			"id": 424297207,
			"lat": 26.1551249,
			"lon": 50.5344606,
			"tags": {
				"name:vo": "Bahruäns"
			}
		},
		{
			"type": "node",
			"id": 424297217,
			"lat": 52.5001698,
			"lon": 5.7480821,
			"tags": {
				"name:vo": "Nedän"
			}
		},
		{
			"type": "node",
			"id": 424297281,
			"lat": 19.1399952,
			"lon": -72.3570972,
			"tags": {
				"name:vo": "Haitiyän"
			}
		},
		{
			"type": "node",
			"id": 424297384,
			"lat": 9.5293472,
			"lon": 2.2584408,
			"tags": {
				"name:vo": "Beninän"
			}
		},
		{
			"type": "node",
			"id": 424297465,
			"lat": 10.2735633,
			"lon": -84.0739102,
			"tags": {
				"name:vo": "Kostarikän"
			}
		},
		{
			"type": "node",
			"id": 424297496,
			"lat": 15.4113138,
			"lon": -61.3653618,
			"tags": {
				"name:vo": "Dominikeän"
			}
		},
		{
			"type": "node",
			"id": 424297579,
			"lat": 13.470062,
			"lon": -15.4900464,
			"tags": {
				"name:vo": "Gambiyän"
			}
		},
		{
			"type": "node",
			"id": 424297586,
			"lat": 10.7226226,
			"lon": -10.7083587,
			"tags": {
				"name:vo": "Gineyän"
			}
		},
		{
			"type": "node",
			"id": 424297609,
			"lat": 12.100035,
			"lon": -14.9000214,
			"tags": {
				"name:vo": "Gineyän-Bisauän"
			}
		},
		{
			"type": "node",
			"id": 424297629,
			"lat": 15.2572432,
			"lon": -86.0755145,
			"tags": {
				"name:vo": "Hondurän"
			}
		},
		{
			"type": "node",
			"id": 424297647,
			"lat": 31.5313113,
			"lon": 34.8667654,
			"tags": {
				"name:vo": "Yisraelän"
			}
		},
		{
			"type": "node",
			"id": 424297742,
			"lat": 33.8750629,
			"lon": 35.843409,
			"tags": {
				"name:vo": "Libanän"
			}
		},
		{
			"type": "node",
			"id": 424297773,
			"lat": 55.3500003,
			"lon": 23.7499997,
			"tags": {
				"name:vo": "Lietuvän"
			}
		},
		{
			"type": "node",
			"id": 424297810,
			"lat": 41.6171214,
			"lon": 21.7168387,
			"tags": {
				"name:vo": "Makedoniyän"
			}
		},
		{
			"type": "node",
			"id": 424297816,
			"lat": 16.3700359,
			"lon": -2.2900239,
			"tags": {
				"name:vo": "Maliyän"
			}
		},
		{
			"type": "node",
			"id": 424297917,
			"lat": -0.5252306,
			"lon": 166.9324426,
			"tags": {
				"name:vo": "Naureän"
			}
		},
		{
			"type": "node",
			"id": 424297931,
			"lat": -5.6816069,
			"lon": 144.2489081,
			"tags": {
				"name:vo": "Papuveän Nula-Gineyän"
			}
		},
		{
			"type": "node",
			"id": 424297973,
			"lat": 14.5844444,
			"lon": 29.4917691,
			"tags": {
				"name:vo": "Sudän"
			}
		},
		{
			"type": "node",
			"id": 424298019,
			"lat": 49.8158683,
			"lon": 6.1296751,
			"tags": {
				"name:vo": "Luxämburgän"
			}
		},
		{
			"type": "node",
			"id": 424298076,
			"lat": 15.6134137,
			"lon": 19.0156172,
			"tags": {
				"name:vo": "Tjadän"
			}
		},
		{
			"type": "node",
			"id": 424298150,
			"lat": 13.2904027,
			"lon": 108.4265113,
			"tags": {
				"name:vo": "Vietnamän"
			}
		},
		{
			"type": "node",
			"id": 424298167,
			"lat": -28.8166236,
			"lon": 24.991639,
			"tags": {
				"name:vo": "Sulüdafrikän"
			}
		},
		{
			"type": "node",
			"id": 424298227,
			"lat": -1.3397668,
			"lon": -79.3666965,
			"tags": {
				"name:vo": "Lekvadorän"
			}
		},
		{
			"type": "node",
			"id": 424298277,
			"lat": -4.6574977,
			"lon": 55.4540146,
			"tags": {
				"name:vo": "Säceluäns"
			}
		},
		{
			"type": "node",
			"id": 424298311,
			"lat": 32.6475314,
			"lon": 54.5643516,
			"tags": {
				"name:vo": "Lirän"
			}
		},
		{
			"type": "node",
			"id": 424298326,
			"lat": 38.9597594,
			"lon": 34.9249653,
			"tags": {
				"name:vo": "Türkän"
			}
		},
		{
			"type": "node",
			"id": 424310601,
			"lat": 41.000028,
			"lon": 19.9999619,
			"tags": {
				"name:vo": "Lalbanän"
			}
		},
		{
			"type": "node",
			"id": 424310680,
			"lat": -26.5624806,
			"lon": 31.3991317,
			"tags": {
				"name:vo": "Svasiyän"
			}
		},
		{
			"type": "node",
			"id": 424310703,
			"lat": 24.0002488,
			"lon": 53.9994829,
			"tags": {
				"name:vo": "Lemiräns Larabik Pebalöl"
			}
		},
		{
			"type": "node",
			"id": 424310758,
			"lat": 17.250512,
			"lon": -62.6725973,
			"tags": {
				"name:vo": "Sankiteän e Neviseän"
			}
		},
		{
			"type": "node",
			"id": 424310875,
			"lat": -11.8775768,
			"lon": 17.5691241,
			"tags": {
				"name:vo": "Langolän"
			}
		},
		{
			"type": "node",
			"id": 424310982,
			"lat": -3.3634357,
			"lon": 29.8870575,
			"tags": {
				"name:vo": "Rundiyän"
			}
		},
		{
			"type": "node",
			"id": 424311028,
			"lat": 27.549511,
			"lon": 90.5119273,
			"tags": {
				"name:vo": "Butän"
			}
		},
		{
			"type": "node",
			"id": 424311104,
			"lat": -31.7613365,
			"lon": -71.3187697,
			"tags": {
				"name:vo": "Cilän"
			}
		},
		{
			"type": "node",
			"id": 424311151,
			"lat": 16.0000552,
			"lon": -24.0083947,
			"tags": {
				"name:vo": "Kabovärduäns"
			}
		},
		{
			"type": "node",
			"id": 424311244,
			"lat": 5.5600565,
			"lon": 150.1982846,
			"tags": {
				"name:vo": "Smala-Seanuäns"
			}
		},
		{
			"type": "node",
			"id": 424311252,
			"lat": -0.8999695,
			"lon": 11.6899699,
			"tags": {
				"name:vo": "Gabunän"
			}
		},
		{
			"type": "node",
			"id": 424311328,
			"lat": 4.8417097,
			"lon": -58.6416891,
			"tags": {
				"name:vo": "Gvayän"
			}
		},
		{
			"type": "node",
			"id": 424311353,
			"lat": 45.5643442,
			"lon": 17.0118954,
			"tags": {
				"name:vo": "Kroasän"
			}
		},
		{
			"type": "node",
			"id": 424311521,
			"lat": 47.2286086,
			"lon": 65.2093197,
			"tags": {
				"name:vo": "Kazakistän"
			}
		},
		{
			"type": "node",
			"id": 424311573,
			"lat": 5.7499721,
			"lon": -9.3658524,
			"tags": {
				"name:vo": "Liberän"
			}
		},
		{
			"type": "node",
			"id": 424311641,
			"lat": 4.7064352,
			"lon": 73.3287853,
			"tags": {
				"name:vo": "Maldivuäns"
			}
		},
		{
			"type": "node",
			"id": 424311645,
			"lat": -13.2687204,
			"lon": 33.9301963,
			"tags": {
				"name:vo": "Malaviyän"
			}
		},
		{
			"type": "node",
			"id": 424311658,
			"lat": -19.302233,
			"lon": 34.9144977,
			"tags": {
				"name:vo": "Mozambikän"
			}
		},
		{
			"type": "node",
			"id": 424311662,
			"lat": -23.2335499,
			"lon": 17.3231107,
			"tags": {
				"name:vo": "Namibiyän"
			}
		},
		{
			"type": "node",
			"id": 424311675,
			"lat": 17.7356214,
			"lon": 9.3238432,
			"tags": {
				"name:vo": "Nigerän"
			}
		},
		{
			"type": "node",
			"id": 424311738,
			"lat": -1.9646631,
			"lon": 30.0644358,
			"tags": {
				"name:vo": "Ruandän"
			}
		},
		{
			"type": "node",
			"id": 424311802,
			"lat": 13.8000382,
			"lon": -88.9140683,
			"tags": {
				"name:vo": "Salvadorän"
			}
		},
		{
			"type": "node",
			"id": 424311806,
			"lat": 34.6401861,
			"lon": 39.0494106,
			"tags": {
				"name:vo": "Süriyän"
			}
		},
		{
			"type": "node",
			"id": 424311827,
			"lat": 8.7800265,
			"lon": 1.0199765,
			"tags": {
				"name:vo": "Togoän"
			}
		},
		{
			"type": "node",
			"id": 424311848,
			"lat": -19.9160819,
			"lon": -175.2026424,
			"tags": {
				"name:vo": "Tonguäns"
			}
		},
		{
			"type": "node",
			"id": 424311890,
			"lat": 8.0018709,
			"lon": -66.1109318,
			"tags": {
				"name:vo": "Venesolän"
			}
		},
		{
			"type": "node",
			"id": 424311955,
			"lat": 6.9518742,
			"lon": 170.9985095,
			"tags": {
				"name:vo": "Marjaluäns"
			}
		},
		{
			"type": "node",
			"id": 424312026,
			"lat": 77.6192349,
			"lon": -42.8125967,
			"tags": {
				"name:vo": "Gröneän"
			}
		},
		{
			"type": "node",
			"id": 424313277,
			"lat": 59.6749712,
			"lon": 14.5208584,
			"tags": {
				"name:vo": "Svedän"
			}
		},
		{
			"type": "node",
			"id": 424313406,
			"lat": 34.9823018,
			"lon": 33.1451285,
			"tags": {
				"name:vo": "Sipreän"
			}
		},
		{
			"type": "node",
			"id": 424313428,
			"lat": 1.357107,
			"lon": 103.8194992,
			"tags": {
				"name:vo": "Singapurän"
			}
		},
		{
			"type": "node",
			"id": 424313451,
			"lat": 36.5748441,
			"lon": 139.2394179,
			"tags": {
				"name:vo": "Yapän"
			}
		},
		{
			"type": "node",
			"id": 424313466,
			"lat": -16.5255069,
			"lon": 168.1069154,
			"tags": {
				"name:vo": "Vanuatuäns"
			}
		},
		{
			"type": "node",
			"id": 424313582,
			"lat": 35.000074,
			"lon": 104.999927,
			"tags": {
				"name:vo": "Tsyinän"
			}
		},
		{
			"type": "node",
			"id": 424313591,
			"lat": 18.1850507,
			"lon": -77.3947693,
			"tags": {
				"name:vo": "Camekeän"
			}
		},
		{
			"type": "node",
			"id": 424313675,
			"lat": 40.3936294,
			"lon": 47.7872508,
			"tags": {
				"name:vo": "Lasärbäcän"
			}
		},
		{
			"type": "node",
			"id": 424313730,
			"lat": -17.0568696,
			"lon": -64.9912286,
			"tags": {
				"name:vo": "Bolivän"
			}
		},
		{
			"type": "node",
			"id": 424313734,
			"lat": -10.3333333,
			"lon": -53.2,
			"tags": {
				"name:vo": "Brasilän"
			}
		},
		{
			"type": "node",
			"id": 424313751,
			"lat": -23.1681782,
			"lon": 24.5928742,
			"tags": {
				"name:vo": "Zvanän"
			}
		},
		{
			"type": "node",
			"id": 424313760,
			"lat": 61.0666922,
			"lon": -107.9917071,
			"tags": {
				"name:vo": "Kanadän"
			}
		},
		{
			"type": "node",
			"id": 424313803,
			"lat": 49.8167003,
			"lon": 15.4749544,
			"tags": {
				"name:vo": "Tsyegän"
			}
		},
		{
			"type": "node",
			"id": 424313823,
			"lat": -18.1239696,
			"lon": 179.0122737,
			"tags": {
				"name:vo": "Ficiyuäns"
			}
		},
		{
			"type": "node",
			"id": 424313832,
			"lat": 58.7523778,
			"lon": 25.3319078,
			"tags": {
				"name:vo": "Lestiyän"
			}
		},
		{
			"type": "node",
			"id": 424313836,
			"lat": 8.0300284,
			"lon": -1.0800271,
			"tags": {
				"name:vo": "Ganän"
			}
		},
		{
			"type": "node",
			"id": 424313853,
			"lat": 1.613172,
			"lon": 10.5170357,
			"tags": {
				"name:vo": "Kveatora-Gineyän"
			}
		},
		{
			"type": "node",
			"id": 424313903,
			"lat": 1.4419683,
			"lon": 38.4313975,
			"tags": {
				"name:vo": "Kenyän"
			}
		},
		{
			"type": "node",
			"id": 424313936,
			"lat": 29.2733964,
			"lon": 47.4979476,
			"tags": {
				"name:vo": "Kovätän"
			}
		},
		{
			"type": "node",
			"id": 424314088,
			"lat": 30.3308401,
			"lon": 71.247499,
			"tags": {
				"name:vo": "Pakistän"
			}
		},
		{
			"type": "node",
			"id": 424314123,
			"lat": 8.6400349,
			"lon": -11.8400269,
			"tags": {
				"name:vo": "Sieraleonän"
			}
		},
		{
			"type": "node",
			"id": 424314145,
			"lat": 22.3511148,
			"lon": 78.6677428,
			"tags": {
				"name:vo": "Lindän"
			}
		},
		{
			"type": "node",
			"id": 424314276,
			"lat": 38.6281733,
			"lon": 70.8156541,
			"tags": {
				"name:vo": "Tacikistän"
			}
		},
		{
			"type": "node",
			"id": 424314335,
			"lat": -6.5247123,
			"lon": 35.7878438,
			"tags": {
				"name:vo": "Tansanän"
			}
		},
		{
			"type": "node",
			"id": 424314631,
			"lat": 2.8894434,
			"lon": -73.783892,
			"tags": {
				"name:vo": "Kolumbän"
			}
		},
		{
			"type": "node",
			"id": 424314691,
			"lat": 7.9897371,
			"lon": -5.5679458,
			"tags": {
				"name:vo": "Viorajolän"
			}
		},
		{
			"type": "node",
			"id": 424314784,
			"lat": 64.9841821,
			"lon": -18.1059013,
			"tags": {
				"name:vo": "Lisladeän"
			}
		},
		{
			"type": "node",
			"id": 424314830,
			"lat": 64.6863136,
			"lon": 97.7453061,
			"tags": {
				"name:vo": "Rusän"
			}
		},
		{
			"type": "node",
			"id": 424315291,
			"lat": 21.0000287,
			"lon": 57.0036901,
			"tags": {
				"name:vo": "Lomän"
			}
		},
		{
			"type": "node",
			"id": 424315584,
			"lat": -24.7761086,
			"lon": 134.755,
			"tags": {
				"name:vo": "Laustralän"
			}
		},
		{
			"type": "node",
			"id": 424315709,
			"lat": 42.6073975,
			"lon": 25.4856617,
			"tags": {
				"name:vo": "Bulgarän"
			}
		},
		{
			"type": "node",
			"id": 424315932,
			"lat": 4.6125522,
			"lon": 13.1535811,
			"tags": {
				"name:vo": "Kamerunän"
			}
		},
		{
			"type": "node",
			"id": 424316018,
			"lat": 26.2540493,
			"lon": 29.2675469,
			"tags": {
				"name:vo": "Lägüptän"
			}
		},
		{
			"type": "node",
			"id": 424316022,
			"lat": 15.9500319,
			"lon": 37.9999668,
			"tags": {
				"name:vo": "Lerüträn"
			}
		},
		{
			"type": "node",
			"id": 424316074,
			"lat": 12.1360374,
			"lon": -61.6904045,
			"tags": {
				"name:vo": "Grenadeän"
			}
		},
		{
			"type": "node",
			"id": 424316205,
			"lat": 33.0955793,
			"lon": 44.1749775,
			"tags": {
				"name:vo": "Lirakän"
			}
		},
		{
			"type": "node",
			"id": 424316216,
			"lat": 31.1667049,
			"lon": 36.941628,
			"tags": {
				"name:vo": "Yordän"
			}
		},
		{
			"type": "node",
			"id": 424316307,
			"lat": 20.0171109,
			"lon": 103.378253,
			"tags": {
				"name:vo": "Laosän"
			}
		},
		{
			"type": "node",
			"id": 424316319,
			"lat": 13.8250489,
			"lon": -60.975036,
			"tags": {
				"name:vo": "Sanlusiyän"
			}
		},
		{
			"type": "node",
			"id": 424316417,
			"lat": 47.2879608,
			"lon": 28.5670941,
			"tags": {
				"name:vo": "Moldovän"
			}
		},
		{
			"type": "node",
			"id": 424316478,
			"lat": 17.1750495,
			"lon": 95.9999652,
			"tags": {
				"name:vo": "Mianmarän"
			}
		},
		{
			"type": "node",
			"id": 424316493,
			"lat": 20.2540382,
			"lon": -9.2399263,
			"tags": {
				"name:vo": "Moritän"
			}
		},
		{
			"type": "node",
			"id": 424316663,
			"lat": 9.6000359,
			"lon": 7.9999721,
			"tags": {
				"name:vo": "Nigeriyän"
			}
		},
		{
			"type": "node",
			"id": 424316671,
			"lat": 12.6090157,
			"lon": -85.2936911,
			"tags": {
				"name:vo": "Nikaraguvän"
			}
		},
		{
			"type": "node",
			"id": 424316758,
			"lat": 8.559559,
			"lon": -81.1308434,
			"tags": {
				"name:vo": "Panamän"
			}
		},
		{
			"type": "node",
			"id": 424317025,
			"lat": 43.9458623,
			"lon": 12.458306,
			"tags": {
				"name:vo": "Sanmarinän"
			}
		},
		{
			"type": "node",
			"id": 424317039,
			"lat": 8.3676771,
			"lon": 49.083416,
			"tags": {
				"name:vo": "Somalän"
			}
		},
		{
			"type": "node",
			"id": 424317315,
			"lat": 33.8439408,
			"lon": 9.400138,
			"tags": {
				"name:vo": "Tunisän"
			}
		},
		{
			"type": "node",
			"id": 424317372,
			"lat": -7.768959,
			"lon": 178.1167698,
			"tags": {
				"name:vo": "Tuvaluäns"
			}
		},
		{
			"type": "node",
			"id": 424317406,
			"lat": 1.5333554,
			"lon": 32.2166578,
			"tags": {
				"name:vo": "Lugandayän"
			}
		},
		{
			"type": "node",
			"id": 424317428,
			"lat": 41.32373,
			"lon": 63.9528098,
			"tags": {
				"name:vo": "Lusbekän"
			}
		},
		{
			"type": "node",
			"id": 424317935,
			"lat": 39.7837304,
			"lon": -100.4458825,
			"tags": {
				"name:vo": "Lamerikän"
			}
		},
		{
			"type": "node",
			"id": 432424926,
			"lat": 28.0000272,
			"lon": 2.9999825,
			"tags": {
				"name:vo": "Laljerän"
			}
		},
		{
			"type": "node",
			"id": 432424929,
			"lat": 17.2234721,
			"lon": -61.9554608,
			"tags": {
				"name:vo": "Lantigeän e Barbudeän"
			}
		},
		{
			"type": "node",
			"id": 432424937,
			"lat": 24.4768783,
			"lon": 90.2932426,
			"tags": {
				"name:vo": "Bangladejän"
			}
		},
		{
			"type": "node",
			"id": 432424952,
			"lat": 13.5066394,
			"lon": 104.869423,
			"tags": {
				"name:vo": "Kambocän"
			}
		},
		{
			"type": "node",
			"id": 432424956,
			"lat": 7.0323598,
			"lon": 19.9981227,
			"tags": {
				"name:vo": "Zänoda-Frikop"
			}
		},
		{
			"type": "node",
			"id": 432424968,
			"lat": 55.670249,
			"lon": 10.3333283,
			"tags": {
				"name:vo": "Danän"
			}
		},
		{
			"type": "node",
			"id": 432424972,
			"lat": -8.5151979,
			"lon": 125.8375756,
			"tags": {
				"name:vo": "Lofüda-Timoreän"
			}
		},
		{
			"type": "node",
			"id": 432424981,
			"lat": 63.2467777,
			"lon": 25.9209164,
			"tags": {
				"name:vo": "Suomiyän"
			}
		},
		{
			"type": "node",
			"id": 432424985,
			"lat": 41.6809707,
			"lon": 44.0287382,
			"tags": {
				"name:vo": "Grusiyän"
			}
		},
		{
			"type": "node",
			"id": 432424989,
			"lat": 38.9953683,
			"lon": 21.9877132,
			"tags": {
				"name:vo": "Grikän"
			}
		},
		{
			"type": "node",
			"id": 432425015,
			"lat": 0.4483283,
			"lon": -171.6645388,
			"tags": {
				"name:vo": "Kiribatuäns"
			}
		},
		{
			"type": "node",
			"id": 432425019,
			"lat": 56.8406494,
			"lon": 24.7537645,
			"tags": {
				"name:vo": "Latviyän"
			}
		},
		{
			"type": "node",
			"id": 432425023,
			"lat": 26.8234472,
			"lon": 18.1236723,
			"tags": {
				"name:vo": "Lübän"
			}
		},
		{
			"type": "node",
			"id": 432425028,
			"lat": -18.9249604,
			"lon": 46.4416422,
			"tags": {
				"name:vo": "Malagaseän"
			}
		},
		{
			"type": "node",
			"id": 432425036,
			"lat": 22.5000485,
			"lon": -100.0000375,
			"tags": {
				"name:vo": "Mäxikän"
			}
		},
		{
			"type": "node",
			"id": 432425040,
			"lat": 46.8250388,
			"lon": 103.8499736,
			"tags": {
				"name:vo": "Mongolän"
			}
		},
		{
			"type": "node",
			"id": 432425041,
			"lat": 31.1728205,
			"lon": -7.3362482,
			"tags": {
				"name:vo": "Marokän"
			}
		},
		{
			"type": "node",
			"id": 432425060,
			"lat": 52.215933,
			"lon": 19.134422,
			"tags": {
				"name:vo": "Polän"
			}
		},
		{
			"type": "node",
			"id": 432425062,
			"lat": 25.3336984,
			"lon": 51.2295295,
			"tags": {
				"name:vo": "Katarän"
			}
		},
		{
			"type": "node",
			"id": 432425063,
			"lat": -0.7264327,
			"lon": 15.6419155,
			"tags": {
				"name:vo": "Kongoän (Repüblikän)"
			}
		},
		{
			"type": "node",
			"id": 432425064,
			"lat": 45.9852129,
			"lon": 24.6859225,
			"tags": {
				"name:vo": "Rumän"
			}
		},
		{
			"type": "node",
			"id": 432425070,
			"lat": 12.90447,
			"lon": -61.2765569,
			"tags": {
				"name:vo": "Saluda-Vinsenteän e Grenadineäns"
			}
		},
		{
			"type": "node",
			"id": 432425075,
			"lat": 14.4750607,
			"lon": -14.4529612,
			"tags": {
				"name:vo": "Senegalän"
			}
		},
		{
			"type": "node",
			"id": 432425079,
			"lat": 48.7411522,
			"lon": 19.4528646,
			"tags": {
				"name:vo": "Slovakiyän"
			}
		},
		{
			"type": "node",
			"id": 432425087,
			"lat": 4.1413025,
			"lon": -56.0771187,
			"tags": {
				"name:vo": "Surinän"
			}
		},
		{
			"type": "node",
			"id": 432425099,
			"lat": 23.9739374,
			"lon": 120.9820179,
			"tags": {
				"name:vo": "Tayvän"
			}
		},
		{
			"type": "node",
			"id": 432425116,
			"lat": -32.8755548,
			"lon": -56.0201525,
			"tags": {
				"name:vo": "Luruguyän"
			}
		},
		{
			"type": "node",
			"id": 432425123,
			"lat": -14.5186239,
			"lon": 27.5599164,
			"tags": {
				"name:vo": "Zambiyän"
			}
		},
		{
			"type": "node",
			"id": 435981993,
			"lat": -2.9814344,
			"lon": 23.8222636,
			"tags": {
				"name:vo": "Kongoän (Repüblikän Demokratik)"
			}
		},
		{
			"type": "node",
			"id": 437146363,
			"lat": 14.8971921,
			"lon": 100.83273,
			"tags": {
				"name:vo": "Tayän"
			}
		},
		{
			"type": "node",
			"id": 445970763,
			"lat": 42.951668,
			"lon": 19.2532042,
			"tags": {
				"name:vo": "Montenegrän"
			}
		},
		{
			"type": "node",
			"id": 466507355,
			"lat": 43.1500226,
			"lon": 41.2299786,
			"tags": {
				"name:vo": "Labkasän"
			}
		},
		{
			"type": "node",
			"id": 823750101,
			"lat": -9.7354344,
			"lon": 162.8288542,
			"tags": {
				"name:vo": "Solomonuäns"
			}
		},
		{
			"type": "node",
			"id": 838090640,
			"lat": 54.7023545,
			"lon": -3.2765753,
			"tags": {
				"name:vo": "Regän Pebalöl"
			}
		},
		{
			"type": "node",
			"id": 1356260631,
			"lat": 7.8699431,
			"lon": 29.6667897,
			"tags": {
				"name:vo": "Sulüda-Sudän"
			}
		},
		{
			"type": "node",
			"id": 1363947712,
			"lat": 46.603354,
			"lon": 1.8883335,
			"tags": {
				"name:vo": "Fransän"
			}
		},
		{
			"type": "node",
			"id": 1420871007,
			"lat": 52.865196,
			"lon": -7.9794599,
			"tags": {
				"name:vo": "Lireyän"
			}
		},
		{
			"type": "node",
			"id": 1504546320,
			"lat": 46.7985624,
			"lon": 8.2319736,
			"tags": {
				"name:vo": "Jveizän"
			}
		},
		{
			"type": "node",
			"id": 1511934680,
			"lat": 6.097367,
			"lon": 133.313631,
			"tags": {
				"name:vo": "Palauäns"
			}
		},
		{
			"type": "node",
			"id": 1529444079,
			"lat": -13.7693895,
			"lon": -172.1200508,
			"tags": {
				"name:vo": "Samovuäns"
			}
		},
		{
			"type": "node",
			"id": 1602889766,
			"lat": 54.1936805,
			"lon": -4.5591148,
			"tags": {
				"name:vo": "Mäneän"
			}
		},
		{
			"type": "node",
			"id": 1640880787,
			"lat": -18.4554963,
			"lon": 29.7468414,
			"tags": {
				"name:vo": "Zimbabiyän"
			}
		},
		{
			"type": "node",
			"id": 1644732479,
			"lat": 15.6356088,
			"lon": -89.8988087,
			"tags": {
				"name:vo": "Gvatemän"
			}
		},
		{
			"type": "node",
			"id": 1644764586,
			"lat": -23.3165935,
			"lon": -58.1693445,
			"tags": {
				"name:vo": "Paragvän"
			}
		},
		{
			"type": "node",
			"id": 1648342273,
			"lat": 49.4871968,
			"lon": 31.2718321,
			"tags": {
				"name:vo": "Lukrayän"
			}
		},
		{
			"type": "node",
			"id": 1683325355,
			"lat": 51.0834196,
			"lon": 10.4234469,
			"tags": {
				"name:vo": "Deutän"
			}
		},
		{
			"type": "node",
			"id": 1684793666,
			"lat": 50.6402809,
			"lon": 4.6667145,
			"tags": {
				"name:vo": "Belgän"
			}
		},
		{
			"type": "node",
			"id": 1694010854,
			"lat": 4.4137155,
			"lon": 114.5653908,
			"tags": {
				"name:vo": "Brunän"
			}
		},
		{
			"type": "node",
			"id": 1696850886,
			"lat": 42.3476344,
			"lon": 44.0979465,
			"tags": {
				"name:vo": "Sulüda-Losetän"
			}
		},
		{
			"type": "node",
			"id": 1696874354,
			"lat": 35.2245313,
			"lon": 33.6252379,
			"tags": {
				"name:vo": "Nolüda-Sipreän"
			}
		},
		{
			"type": "node",
			"id": 1700777271,
			"lat": 41.5089324,
			"lon": 74.724091,
			"tags": {
				"name:vo": "Kirgistän"
			}
		},
		{
			"type": "node",
			"id": 1708980402,
			"lat": -20.2759451,
			"lon": 57.5703566,
			"tags": {
				"name:vo": "Moriseän"
			}
		},
		{
			"type": "node",
			"id": 1983711862,
			"lat": 44.3053476,
			"lon": 17.5961467,
			"tags": {
				"name:vo": "Bosnän e Härzegovän"
			}
		},
		{
			"type": "node",
			"id": 2163914205,
			"lat": 10.2116702,
			"lon": 38.6521203,
			"tags": {
				"name:vo": "Lätiopän"
			}
		},
		{
			"type": "node",
			"id": 2377028247,
			"lat": 40.0332629,
			"lon": -7.8896263,
			"tags": {
				"name:vo": "Portugän"
			}
		},
		{
			"type": "node",
			"id": 3491215388,
			"lat": -29.6039267,
			"lon": 28.3350193,
			"tags": {
				"name:vo": "Lesotän",
				"alt_name:vo": "Sutuvän"
			}
		},
		{
			"type": "node",
			"id": 3696525426,
			"lat": 47.1416307,
			"lon": 9.5531527,
			"tags": {
				"name:vo": "Ligtänstän"
			}
		},
		{
			"type": "node",
			"id": 4076524861,
			"lat": 35.8885993,
			"lon": 14.4476911,
			"tags": {
				"name:vo": "Malteän"
			}
		},
		{
			"type": "node",
			"id": 4366234392,
			"lat": 42.5869578,
			"lon": 20.9021231,
			"tags": {
				"name:vo": "Kosovän"
			}
		},
		{
			"type": "node",
			"id": 5980117507,
			"lat": 7.5554942,
			"lon": 80.7137847,
			"tags": {
				"name:vo": "Sri-Lankän"
			}
		}
	]
}