{
	"version": 0.6,
	"generator": "Overpass API",
	"osm3s": {
		"timestamp_osm_base": "2017-03-27T07:30:02Z",
		"copyright": "The data included in this document is from www.openstreetmap.org. The data is made available under ODbL."
	},
	"elements": [
		{
			"type": "node",
			"id": 304951004,
			"lat": -31.8759835,
			"lon": 147.2869493,
			"tags": {
				"name:vo": "Nula-Sulüda-Velsän"
			}
		},
		{
			"type": "node",
			"id": 304951005,
			"lat": -25.2303005,
			"lon": 121.0187246,
			"tags": {
				"name:vo": "Vesüda-Laustralän"
			}
		},
		{
			"type": "node",
			"id": 304951007,
			"lat": -30.5343665,
			"lon": 135.6301212,
			"tags": {
				"name:vo": "Sulüda-Laustralän"
			}
		},
		{
			"type": "node",
			"id": 304951008,
			"lat": -42.035067,
			"lon": 146.6366887,
			"tags": {
				"name:vo": "Tasmaneän"
			}
		},
		{
			"type": "node",
			"id": 470649732,
			"lat": 56.7861112,
			"lon": -4.1140518,
			"tags": {
				"name:vo": "Skotän"
			}
		},
		{
			"type": "node",
			"id": 473831430,
			"lat": 50.9295798,
			"lon": 13.4585052,
			"tags": {
				"name:vo": "Saxän"
			}
		},
		{
			"type": "node",
			"id": 473848012,
			"lat": 48.9467562,
			"lon": 11.4038717,
			"tags": {
				"name:vo": "Bayän"
			}
		},
		{
			"type": "node",
			"id": 473857781,
			"lat": 53.7735234,
			"lon": 12.5755746,
			"tags": {
				"name:vo": "Mäklänburgän-Vesudapomerän"
			}
		},
		{
			"type": "node",
			"id": 473862587,
			"lat": 52.8455492,
			"lon": 13.2461296,
			"tags": {
				"name:vo": "Brandänburgän"
			}
		},
		{
			"type": "node",
			"id": 473883922,
			"lat": 50.7333163,
			"lon": 11.0747905,
			"tags": {
				"name:vo": "Türinän"
			}
		},
		{
			"type": "node",
			"id": 473890961,
			"lat": 54.1853998,
			"lon": 9.8220089,
			"tags": {
				"name:vo": "Jlesvigän-Holstän"
			}
		},
		{
			"type": "node",
			"id": 519425071,
			"lat": 51.4785568,
			"lon": 7.5533645,
			"tags": {
				"name:vo": "Nolüdarinän-Vesfalän"
			}
		},
		{
			"type": "node",
			"id": 519436857,
			"lat": 49.7497346,
			"lon": 7.4396553,
			"tags": {
				"name:vo": "Rinän-Palzän"
			}
		},
		{
			"type": "node",
			"id": 565666205,
			"lat": 49.4173988,
			"lon": 6.9805789,
			"tags": {
				"name:vo": "Saarlän"
			}
		},
		{
			"type": "node",
			"id": 565666206,
			"lat": 48.6296972,
			"lon": 9.1949534,
			"tags": {
				"name:vo": "Badän-Vürtän"
			}
		},
		{
			"type": "node",
			"id": 1673514242,
			"lat": 52.8398531,
			"lon": 9.075962,
			"tags": {
				"name:vo": "Dona-Saxän"
			}
		},
		{
			"type": "node",
			"id": 1807621457,
			"lat": 51.908526,
			"lon": 11.4939134,
			"tags": {
				"name:vo": "Saxän-Lanhaltän"
			}
		},
		{
			"type": "node",
			"id": 1971329414,
			"lat": -21.9182856,
			"lon": 144.4588889,
			"tags": {
				"name:vo": "Kvinslän"
			}
		},
		{
			"type": "node",
			"id": 2000314677,
			"lat": 24.1797324,
			"lon": -13.7667848,
			"tags": {
				"name:vo": "Vesüda-Saharän"
			}
		},
		{
			"type": "node",
			"id": 2497852043,
			"lat": 50.6118537,
			"lon": 9.1909725,
			"tags": {
				"name:vo": "Hesän"
			}
		},
		{
			"type": "node",
			"id": 2642288017,
			"lat": 52.2928116,
			"lon": -3.73893,
			"tags": {
				"name:vo": "Velsän"
			}
		},
		{
			"type": "node",
			"id": 2811123364,
			"lat": 5.4091179,
			"lon": -4.0422099,
			"tags": {
				"name:vo": "Abidjan"
			}
		}
	]
}