{
	"version": 0.6,
	"generator": "Overpass API",
	"osm3s": {
		"timestamp_osm_base": "2017-01-30T12:38:02Z",
		"copyright": "The data included in this document is from www.openstreetmap.org. The data is made available under ODbL."
	},
	"elements": [
		{
			"type": "node",
			"id": 26036352,
			"lat": 12.7503486,
			"lon": 122.7312101,
			"tags": {
				"name:eo": "Filipinoj"
			}
		},
		{
			"type": "node",
			"id": 26347360,
			"lat": 42.6384261,
			"lon": 12.674297,
			"tags": {
				"name:eo": "Italio"
			}
		},
		{
			"type": "node",
			"id": 26847706,
			"lat": 33.7680065,
			"lon": 66.2385139,
			"tags": {
				"name:eo": "Afganio"
			}
		},
		{
			"type": "node",
			"id": 26847709,
			"lat": 47.2000338,
			"lon": 13.199959,
			"tags": {
				"name:eo": "Aŭstrio"
			}
		},
		{
			"type": "node",
			"id": 148332300,
			"lat": 40.0028028,
			"lon": -4.003104,
			"tags": {
				"name:eo": "Hispanio"
			}
		},
		{
			"type": "node",
			"id": 148874198,
			"lat": 42.5407167,
			"lon": 1.5732033,
			"tags": {
				"name:eo": "Andoro"
			}
		},
		{
			"type": "node",
			"id": 208592566,
			"lat": 45.8133113,
			"lon": 14.4808369,
			"tags": {
				"name:eo": "Slovenio"
			}
		},
		{
			"type": "node",
			"id": 246422158,
			"lat": 19.0974031,
			"lon": -70.3028026,
			"tags": {
				"name:eo": "Domingo"
			}
		},
		{
			"type": "node",
			"id": 248120384,
			"lat": -41.5000831,
			"lon": 172.8344077,
			"tags": {
				"name:eo": "Nov-Zelando"
			}
		},
		{
			"type": "node",
			"id": 249399277,
			"lat": 40.7696272,
			"lon": 44.6736646,
			"tags": {
				"name:eo": "Armenio"
			}
		},
		{
			"type": "node",
			"id": 249399280,
			"lat": -34.9964963,
			"lon": -64.9672817,
			"tags": {
				"name:eo": "Argentino"
			}
		},
		{
			"type": "node",
			"id": 249399285,
			"lat": 13.1500331,
			"lon": -59.5250305,
			"tags": {
				"name:eo": "Barbado"
			}
		},
		{
			"type": "node",
			"id": 249399288,
			"lat": 12.0753083,
			"lon": -1.6880314,
			"tags": {
				"name:eo": "Burkino"
			}
		},
		{
			"type": "node",
			"id": 249399296,
			"lat": 24.7736546,
			"lon": -78.0000547,
			"tags": {
				"name:eo": "Bahamoj"
			}
		},
		{
			"type": "node",
			"id": 249399300,
			"lat": 53.4250605,
			"lon": 27.6971358,
			"tags": {
				"name:eo": "Belorusio"
			}
		},
		{
			"type": "node",
			"id": 249399308,
			"lat": -16.0492781,
			"lon": -160.3554851,
			"tags": {
				"name:eo": "Kukinsuloj"
			}
		},
		{
			"type": "node",
			"id": 249399313,
			"lat": 23.0131338,
			"lon": -80.8328748,
			"tags": {
				"name:eo": "Kubo"
			}
		},
		{
			"type": "node",
			"id": 249399339,
			"lat": -54.8432857,
			"lon": -35.8090698,
			"tags": {
				"name:eo": "Sud-Georgio kaj Sud-Sandviĉinsuloj"
			}
		},
		{
			"type": "node",
			"id": 249399347,
			"lat": 47.1817585,
			"lon": 19.5060937,
			"tags": {
				"name:eo": "Hungario"
			}
		},
		{
			"type": "node",
			"id": 249399360,
			"lat": -12.2045176,
			"lon": 44.2832964,
			"tags": {
				"name:eo": "Komoroj"
			}
		},
		{
			"type": "node",
			"id": 249399361,
			"lat": 40.3123959,
			"lon": 127.399971,
			"tags": {
				"name:eo": "Nord-Koreio"
			}
		},
		{
			"type": "node",
			"id": 249399362,
			"lat": 35.3985008,
			"lon": 127.937111,
			"tags": {
				"name:eo": "Sud-Koreio"
			}
		},
		{
			"type": "node",
			"id": 249399364,
			"lat": 19.5417212,
			"lon": -80.5667132,
			"tags": {
				"name:eo": "Kajmaninsuloj"
			}
		},
		{
			"type": "node",
			"id": 249399394,
			"lat": 4.5693754,
			"lon": 102.2656823,
			"tags": {
				"name:eo": "Malajzio"
			}
		},
		{
			"type": "node",
			"id": 249399402,
			"lat": 28.1082107,
			"lon": 84.0917515,
			"tags": {
				"name:eo": "Nepalo"
			}
		},
		{
			"type": "node",
			"id": 249399406,
			"lat": -6.8699697,
			"lon": -75.0458515,
			"tags": {
				"name:eo": "Peruo"
			}
		},
		{
			"type": "node",
			"id": 249399419,
			"lat": 25.6242618,
			"lon": 42.3528328,
			"tags": {
				"name:eo": "Saŭda Arabio"
			}
		},
		{
			"type": "node",
			"id": 249399429,
			"lat": 0.8875498,
			"lon": 6.9648718,
			"tags": {
				"name:eo": "Sao-Tomeo kaj Principeo"
			}
		},
		{
			"type": "node",
			"id": 249399440,
			"lat": 39.3763807,
			"lon": 59.3924609,
			"tags": {
				"name:eo": "Turkmenio"
			}
		},
		{
			"type": "node",
			"id": 249399444,
			"lat": 10.8677845,
			"lon": -60.9821067,
			"tags": {
				"name:eo": "Trinidado kaj Tobago"
			}
		},
		{
			"type": "node",
			"id": 249399459,
			"lat": 16.3471243,
			"lon": 47.8915271,
			"tags": {
				"name:eo": "Jemeno"
			}
		},
		{
			"type": "node",
			"id": 332779764,
			"lat": 16.8259793,
			"lon": -88.7600927,
			"tags": {
				"name:eo": "Belizo"
			}
		},
		{
			"type": "node",
			"id": 369137525,
			"lat": 44.1534121,
			"lon": 20.55144,
			"tags": {
				"name:eo": "Serbio"
			}
		},
		{
			"type": "node",
			"id": 424297198,
			"lat": 60.5000209,
			"lon": 9.0999715,
			"tags": {
				"name:eo": "Norvegio"
			}
		},
		{
			"type": "node",
			"id": 424297207,
			"lat": 26.1551249,
			"lon": 50.5344606,
			"tags": {
				"name:eo": "Barejno"
			}
		},
		{
			"type": "node",
			"id": 424297217,
			"lat": 52.5001698,
			"lon": 5.7480821,
			"tags": {
				"name:eo": "Nederlando"
			}
		},
		{
			"type": "node",
			"id": 424297281,
			"lat": 19.1399952,
			"lon": -72.3570972,
			"tags": {
				"name:eo": "Haitio"
			}
		},
		{
			"type": "node",
			"id": 424297384,
			"lat": 9.5293472,
			"lon": 2.2584408,
			"tags": {
				"name:eo": "Benino"
			}
		},
		{
			"type": "node",
			"id": 424297465,
			"lat": 10.2735633,
			"lon": -84.0739102,
			"tags": {
				"name:eo": "Kostariko"
			}
		},
		{
			"type": "node",
			"id": 424297496,
			"lat": 15.4113138,
			"lon": -61.3653618,
			"tags": {
				"name:eo": "Dominiko"
			}
		},
		{
			"type": "node",
			"id": 424297579,
			"lat": 13.470062,
			"lon": -15.4900464,
			"tags": {
				"name:eo": "Gambio"
			}
		},
		{
			"type": "node",
			"id": 424297586,
			"lat": 10.7226226,
			"lon": -10.7083587,
			"tags": {
				"name:eo": "Gvineo"
			}
		},
		{
			"type": "node",
			"id": 424297609,
			"lat": 12.100035,
			"lon": -14.9000214,
			"tags": {
				"name:eo": "Gvineo Bisaŭa"
			}
		},
		{
			"type": "node",
			"id": 424297629,
			"lat": 15.0610686,
			"lon": -84.5978534,
			"tags": {
				"name:eo": "Honduro"
			}
		},
		{
			"type": "node",
			"id": 424297647,
			"lat": 30.8760272,
			"lon": 35.0015196,
			"tags": {
				"name:eo": "Israelo"
			}
		},
		{
			"type": "node",
			"id": 424297742,
			"lat": 33.8750629,
			"lon": 35.843409,
			"tags": {
				"name:eo": "Libano"
			}
		},
		{
			"type": "node",
			"id": 424297773,
			"lat": 55.3500003,
			"lon": 23.7499997,
			"tags": {
				"name:eo": "Litovio"
			}
		},
		{
			"type": "node",
			"id": 424297810,
			"lat": 41.6171214,
			"lon": 21.7168387,
			"tags": {
				"name:eo": "Makedonio"
			}
		},
		{
			"type": "node",
			"id": 424297816,
			"lat": 16.3700359,
			"lon": -2.2900239,
			"tags": {
				"name:eo": "Malio"
			}
		},
		{
			"type": "node",
			"id": 424297917,
			"lat": -0.5249624,
			"lon": 166.9333009,
			"tags": {
				"name:eo": "Nauro"
			}
		},
		{
			"type": "node",
			"id": 424297931,
			"lat": -5.6816069,
			"lon": 144.2489081,
			"tags": {
				"name:eo": "Papuo-Nov-Gvineo"
			}
		},
		{
			"type": "node",
			"id": 424297973,
			"lat": 14.5844444,
			"lon": 29.4917691,
			"tags": {
				"name:eo": "Sudano"
			}
		},
		{
			"type": "node",
			"id": 424298019,
			"lat": 49.8158683,
			"lon": 6.1296751,
			"tags": {
				"name:eo": "Luksemburgio"
			}
		},
		{
			"type": "node",
			"id": 424298076,
			"lat": 15.6134137,
			"lon": 19.0156172,
			"tags": {
				"name:eo": "Ĉado"
			}
		},
		{
			"type": "node",
			"id": 424298150,
			"lat": 13.2904027,
			"lon": 108.4265113,
			"tags": {
				"name:eo": "Vjetnamio"
			}
		},
		{
			"type": "node",
			"id": 424298167,
			"lat": -28.8166236,
			"lon": 24.991639,
			"tags": {
				"name:eo": "Sudafriko"
			}
		},
		{
			"type": "node",
			"id": 424298227,
			"lat": -1.3397668,
			"lon": -79.3666965,
			"tags": {
				"name:eo": "Ekvadoro"
			}
		},
		{
			"type": "node",
			"id": 424298277,
			"lat": -4.6574977,
			"lon": 55.4540146,
			"tags": {
				"name:eo": "Sejŝeloj"
			}
		},
		{
			"type": "node",
			"id": 424298311,
			"lat": 32.9407496,
			"lon": 52.9471344,
			"tags": {
				"name:eo": "Irano"
			}
		},
		{
			"type": "node",
			"id": 424298326,
			"lat": 38.9597594,
			"lon": 34.9249653,
			"tags": {
				"name:eo": "Turkio"
			}
		},
		{
			"type": "node",
			"id": 424310601,
			"lat": 41.000028,
			"lon": 19.9999619,
			"tags": {
				"name:eo": "Albanio"
			}
		},
		{
			"type": "node",
			"id": 424310680,
			"lat": -26.5624806,
			"lon": 31.3991317,
			"tags": {
				"name:eo": "Svazilando"
			}
		},
		{
			"type": "node",
			"id": 424310703,
			"lat": 24.0002488,
			"lon": 53.9994829,
			"tags": {
				"name:eo": "Unuiĝintaj Arabaj Emirlandoj"
			}
		},
		{
			"type": "node",
			"id": 424310758,
			"lat": 17.3462278,
			"lon": -62.7687277,
			"tags": {
				"name:eo": "Sankta-Kito kaj Neviso"
			}
		},
		{
			"type": "node",
			"id": 424310875,
			"lat": -11.8775768,
			"lon": 17.5691241,
			"tags": {
				"name:eo": "Angolo"
			}
		},
		{
			"type": "node",
			"id": 424310982,
			"lat": -3.3634357,
			"lon": 29.8870575,
			"tags": {
				"name:eo": "Burundo"
			}
		},
		{
			"type": "node",
			"id": 424311028,
			"lat": 27.549511,
			"lon": 90.5119273,
			"tags": {
				"name:eo": "Butano"
			}
		},
		{
			"type": "node",
			"id": 424311104,
			"lat": -31.7613365,
			"lon": -71.3187697,
			"tags": {
				"name:eo": "Ĉilio"
			}
		},
		{
			"type": "node",
			"id": 424311151,
			"lat": 16.0000552,
			"lon": -24.0083947,
			"tags": {
				"name:eo": "Kabo-Verdo"
			}
		},
		{
			"type": "node",
			"id": 424311237,
			"lat": -51.9666424,
			"lon": -59.5500387,
			"tags": {
				"name:eo": "Insuloj Falklandoj"
			}
		},
		{
			"type": "node",
			"id": 424311244,
			"lat": 5.5600565,
			"lon": 150.1982846,
			"tags": {
				"name:eo": "Mikronezio"
			}
		},
		{
			"type": "node",
			"id": 424311252,
			"lat": -0.8999695,
			"lon": 11.6899699,
			"tags": {
				"name:eo": "Gabono"
			}
		},
		{
			"type": "node",
			"id": 424311328,
			"lat": 4.8417097,
			"lon": -58.6416891,
			"tags": {
				"name:eo": "Gujano"
			}
		},
		{
			"type": "node",
			"id": 424311353,
			"lat": 45.5643442,
			"lon": 17.0118954,
			"tags": {
				"name:eo": "Kroatio"
			}
		},
		{
			"type": "node",
			"id": 424311521,
			"lat": 47.2286086,
			"lon": 65.2093197,
			"tags": {
				"name:eo": "Kazaĥio"
			}
		},
		{
			"type": "node",
			"id": 424311573,
			"lat": 5.7499721,
			"lon": -9.3658524,
			"tags": {
				"name:eo": "Liberio"
			}
		},
		{
			"type": "node",
			"id": 424311641,
			"lat": 4.7064352,
			"lon": 73.3287853,
			"tags": {
				"name:eo": "Maldivoj"
			}
		},
		{
			"type": "node",
			"id": 424311645,
			"lat": -13.2687204,
			"lon": 33.9301963,
			"tags": {
				"name:eo": "Malavio"
			}
		},
		{
			"type": "node",
			"id": 424311658,
			"lat": -19.302233,
			"lon": 34.9144977,
			"tags": {
				"name:eo": "Mozambiko"
			}
		},
		{
			"type": "node",
			"id": 424311662,
			"lat": -23.2335499,
			"lon": 17.3231107,
			"tags": {
				"name:eo": "Namibio"
			}
		},
		{
			"type": "node",
			"id": 424311675,
			"lat": 17.7356214,
			"lon": 9.3238432,
			"tags": {
				"name:eo": "Niĝero"
			}
		},
		{
			"type": "node",
			"id": 424311679,
			"lat": -29.0328038,
			"lon": 167.9483137,
			"tags": {
				"name:eo": "Norfolkinsulo"
			}
		},
		{
			"type": "node",
			"id": 424311738,
			"lat": -1.9646631,
			"lon": 30.0644358,
			"tags": {
				"name:eo": "Ruando"
			}
		},
		{
			"type": "node",
			"id": 424311802,
			"lat": 13.8000382,
			"lon": -88.9140683,
			"tags": {
				"name:eo": "Salvadoro"
			}
		},
		{
			"type": "node",
			"id": 424311806,
			"lat": 34.6401861,
			"lon": 39.0494106,
			"tags": {
				"name:eo": "Sirio"
			}
		},
		{
			"type": "node",
			"id": 424311814,
			"lat": 21.7214683,
			"lon": -71.6201783,
			"tags": {
				"name:eo": "Turkoj kaj Kajkoj"
			}
		},
		{
			"type": "node",
			"id": 424311827,
			"lat": 8.7800265,
			"lon": 1.0199765,
			"tags": {
				"name:eo": "Togolando"
			}
		},
		{
			"type": "node",
			"id": 424311848,
			"lat": -19.9160819,
			"lon": -175.2026424,
			"tags": {
				"name:eo": "Tongo"
			}
		},
		{
			"type": "node",
			"id": 424311890,
			"lat": 8.0018709,
			"lon": -66.1109318,
			"tags": {
				"name:eo": "Venezuelo"
			}
		},
		{
			"type": "node",
			"id": 424311891,
			"lat": 18.4024395,
			"lon": -64.5661642,
			"tags": {
				"name:eo": "Britaj Virgulininsuloj"
			}
		},
		{
			"type": "node",
			"id": 424311942,
			"lat": -4.7993356,
			"lon": 114.5632032,
			"tags": {
				"name:eo": "Indonezio"
			}
		},
		{
			"type": "node",
			"id": 424311955,
			"lat": 6.9518742,
			"lon": 170.9985095,
			"tags": {
				"name:eo": "Marŝala Insularo"
			}
		},
		{
			"type": "node",
			"id": 424312026,
			"lat": 77.6192349,
			"lon": -42.8125967,
			"tags": {
				"name:eo": "Gronlando"
			}
		},
		{
			"type": "node",
			"id": 424312044,
			"lat": 62.0448724,
			"lon": -7.0322972,
			"tags": {
				"name:eo": "Ferooj"
			}
		},
		{
			"type": "node",
			"id": 424313277,
			"lat": 59.6749712,
			"lon": 14.5208584,
			"tags": {
				"name:eo": "Svedio"
			}
		},
		{
			"type": "node",
			"id": 424313406,
			"lat": 34.9823018,
			"lon": 33.1451285,
			"tags": {
				"name:eo": "Kipro"
			}
		},
		{
			"type": "node",
			"id": 424313428,
			"lat": 1.357107,
			"lon": 103.8194992,
			"tags": {
				"name:eo": "Singapuro"
			}
		},
		{
			"type": "node",
			"id": 424313451,
			"lat": 36.5748441,
			"lon": 139.2394179,
			"tags": {
				"name:eo": "Japanio"
			}
		},
		{
			"type": "node",
			"id": 424313466,
			"lat": -16.5255069,
			"lon": 168.1069154,
			"tags": {
				"name:eo": "Vanuatuo"
			}
		},
		{
			"type": "node",
			"id": 424313582,
			"lat": 35.000074,
			"lon": 104.999927,
			"tags": {
				"name:eo": "Ĉinio"
			}
		},
		{
			"type": "node",
			"id": 424313591,
			"lat": 18.1850507,
			"lon": -77.3947693,
			"tags": {
				"name:eo": "Jamajko"
			}
		},
		{
			"type": "node",
			"id": 424313675,
			"lat": 40.3936294,
			"lon": 47.7872508,
			"tags": {
				"name:eo": "Azerbajĝano"
			}
		},
		{
			"type": "node",
			"id": 424313730,
			"lat": -17.0568696,
			"lon": -64.9912286,
			"tags": {
				"name:eo": "Bolivio"
			}
		},
		{
			"type": "node",
			"id": 424313734,
			"lat": -10.3333333,
			"lon": -53.2,
			"tags": {
				"name:eo": "Brazilo"
			}
		},
		{
			"type": "node",
			"id": 424313751,
			"lat": -23.1681782,
			"lon": 24.5928742,
			"tags": {
				"name:eo": "Bocvano"
			}
		},
		{
			"type": "node",
			"id": 424313760,
			"lat": 61.0666922,
			"lon": -107.9917071,
			"tags": {
				"name:eo": "Kanado"
			}
		},
		{
			"type": "node",
			"id": 424313803,
			"lat": 49.8167003,
			"lon": 15.4749544,
			"tags": {
				"name:eo": "Ĉeĥio"
			}
		},
		{
			"type": "node",
			"id": 424313823,
			"lat": -18.1239696,
			"lon": 179.0122737,
			"tags": {
				"name:eo": "Fiĝioj"
			}
		},
		{
			"type": "node",
			"id": 424313832,
			"lat": 58.7523778,
			"lon": 25.3319078,
			"tags": {
				"name:eo": "Estonio"
			}
		},
		{
			"type": "node",
			"id": 424313836,
			"lat": 8.0300284,
			"lon": -1.0800271,
			"tags": {
				"name:eo": "Ganao"
			}
		},
		{
			"type": "node",
			"id": 424313853,
			"lat": 1.613172,
			"lon": 10.5170357,
			"tags": {
				"name:eo": "Ekvatora Gvineo"
			}
		},
		{
			"type": "node",
			"id": 424313891,
			"lat": -6.4157192,
			"lon": 72.1173961,
			"tags": {
				"name:eo": "Brita Hindoceana Teritorio"
			}
		},
		{
			"type": "node",
			"id": 424313903,
			"lat": 1.4419683,
			"lon": 38.4313975,
			"tags": {
				"name:eo": "Kenjo"
			}
		},
		{
			"type": "node",
			"id": 424313936,
			"lat": 29.2733964,
			"lon": 47.4979476,
			"tags": {
				"name:eo": "Kuvajto"
			}
		},
		{
			"type": "node",
			"id": 424314005,
			"lat": 16.7417041,
			"lon": -62.1916844,
			"tags": {
				"name:eo": "Moncerato"
			}
		},
		{
			"type": "node",
			"id": 424314088,
			"lat": 30.3308401,
			"lon": 71.247499,
			"tags": {
				"name:eo": "Pakistano"
			}
		},
		{
			"type": "node",
			"id": 424314123,
			"lat": 8.6400349,
			"lon": -11.8400269,
			"tags": {
				"name:eo": "Siera-Leono"
			}
		},
		{
			"type": "node",
			"id": 424314145,
			"lat": 22.3511148,
			"lon": 78.6677428,
			"tags": {
				"name:eo": "Barato"
			}
		},
		{
			"type": "node",
			"id": 424314276,
			"lat": 38.6281733,
			"lon": 70.8156541,
			"tags": {
				"name:eo": "Taĝikio"
			}
		},
		{
			"type": "node",
			"id": 424314335,
			"lat": -6.5247123,
			"lon": 35.7878438,
			"tags": {
				"name:eo": "Tanzanio"
			}
		},
		{
			"type": "node",
			"id": 424314631,
			"lat": 2.8894434,
			"lon": -73.783892,
			"tags": {
				"name:eo": "Kolombio"
			}
		},
		{
			"type": "node",
			"id": 424314691,
			"lat": 7.9897371,
			"lon": -5.5679458,
			"tags": {
				"name:eo": "Ebur-Bordo"
			}
		},
		{
			"type": "node",
			"id": 424314784,
			"lat": 64.9841821,
			"lon": -18.1059013,
			"tags": {
				"name:eo": "Islando"
			}
		},
		{
			"type": "node",
			"id": 424314830,
			"lat": 64.6863136,
			"lon": 97.7453061,
			"tags": {
				"name:eo": "Rusio"
			}
		},
		{
			"type": "node",
			"id": 424315291,
			"lat": 21.0000287,
			"lon": 57.0036901,
			"tags": {
				"name:eo": "Omano"
			}
		},
		{
			"type": "node",
			"id": 424315584,
			"lat": -24.7761086,
			"lon": 134.755,
			"tags": {
				"name:eo": "Aŭstralio"
			}
		},
		{
			"type": "node",
			"id": 424315709,
			"lat": 42.6073975,
			"lon": 25.4856617,
			"tags": {
				"name:eo": "Bulgario"
			}
		},
		{
			"type": "node",
			"id": 424315932,
			"lat": 4.6125522,
			"lon": 13.1535811,
			"tags": {
				"name:eo": "Kameruno"
			}
		},
		{
			"type": "node",
			"id": 424316018,
			"lat": 26.2540493,
			"lon": 29.2675469,
			"tags": {
				"name:eo": "Egiptujo"
			}
		},
		{
			"type": "node",
			"id": 424316022,
			"lat": 15.9500319,
			"lon": 37.9999668,
			"tags": {
				"name:eo": "Eritreo"
			}
		},
		{
			"type": "node",
			"id": 424316074,
			"lat": 12.1360374,
			"lon": -61.6904045,
			"tags": {
				"name:eo": "Grenado"
			}
		},
		{
			"type": "node",
			"id": 424316205,
			"lat": 33.0955793,
			"lon": 44.1749775,
			"tags": {
				"name:eo": "Irako"
			}
		},
		{
			"type": "node",
			"id": 424316216,
			"lat": 31.1667049,
			"lon": 36.941628,
			"tags": {
				"name:eo": "Jordanio"
			}
		},
		{
			"type": "node",
			"id": 424316307,
			"lat": 20.0171109,
			"lon": 103.378253,
			"tags": {
				"name:eo": "Laoso"
			}
		},
		{
			"type": "node",
			"id": 424316319,
			"lat": 13.8250489,
			"lon": -60.975036,
			"tags": {
				"name:eo": "Sankta Lucio"
			}
		},
		{
			"type": "node",
			"id": 424316417,
			"lat": 47.286747,
			"lon": 28.5110236,
			"tags": {
				"name:eo": "Moldavio"
			}
		},
		{
			"type": "node",
			"id": 424316478,
			"lat": 17.1750495,
			"lon": 95.9999652,
			"tags": {
				"name:eo": "Birmo"
			}
		},
		{
			"type": "node",
			"id": 424316493,
			"lat": 20.2540382,
			"lon": -9.2399263,
			"tags": {
				"name:eo": "Maŭritanio"
			}
		},
		{
			"type": "node",
			"id": 424316663,
			"lat": 9.6000359,
			"lon": 7.9999721,
			"tags": {
				"name:eo": "Niĝerio"
			}
		},
		{
			"type": "node",
			"id": 424316671,
			"lat": 12.3724928,
			"lon": -84.8700308,
			"tags": {
				"name:eo": "Nikaragvo"
			}
		},
		{
			"type": "node",
			"id": 424316758,
			"lat": 8.3096067,
			"lon": -81.3066246,
			"tags": {
				"name:eo": "Panamo"
			}
		},
		{
			"type": "node",
			"id": 424317025,
			"lat": 43.9458623,
			"lon": 12.458306,
			"tags": {
				"name:eo": "San-Marino"
			}
		},
		{
			"type": "node",
			"id": 424317039,
			"lat": 8.3676771,
			"lon": 49.083416,
			"tags": {
				"name:eo": "Somalio"
			}
		},
		{
			"type": "node",
			"id": 424317315,
			"lat": 33.8439408,
			"lon": 9.400138,
			"tags": {
				"name:eo": "Tunizio"
			}
		},
		{
			"type": "node",
			"id": 424317372,
			"lat": -7.768959,
			"lon": 178.1167698,
			"tags": {
				"name:eo": "Tuvalo"
			}
		},
		{
			"type": "node",
			"id": 424317406,
			"lat": 1.5333554,
			"lon": 32.2166578,
			"tags": {
				"name:eo": "Ugando"
			}
		},
		{
			"type": "node",
			"id": 424317428,
			"lat": 41.32373,
			"lon": 63.9528098,
			"tags": {
				"name:eo": "Uzbekio"
			}
		},
		{
			"type": "node",
			"id": 424317935,
			"lat": 39.7837304,
			"lon": -100.4458825,
			"tags": {
				"name:eo": "Unuiĝintaj Ŝtatoj de Ameriko"
			}
		},
		{
			"type": "node",
			"id": 432424926,
			"lat": 28.0000272,
			"lon": 2.9999825,
			"tags": {
				"name:eo": "Alĝerio"
			}
		},
		{
			"type": "node",
			"id": 432424929,
			"lat": 17.079128,
			"lon": -61.8222516,
			"tags": {
				"name:eo": "Antigvo-Barbudo"
			}
		},
		{
			"type": "node",
			"id": 432424937,
			"lat": 24.4768783,
			"lon": 90.2932426,
			"tags": {
				"name:eo": "Bangladeŝo"
			}
		},
		{
			"type": "node",
			"id": 432424952,
			"lat": 13.5066394,
			"lon": 104.869423,
			"tags": {
				"name:eo": "Kamboĝo"
			}
		},
		{
			"type": "node",
			"id": 432424956,
			"lat": 7.0323598,
			"lon": 19.9981227,
			"tags": {
				"name:eo": "Centr-Afrika Respubliko"
			}
		},
		{
			"type": "node",
			"id": 432424968,
			"lat": 55.670249,
			"lon": 10.3333283,
			"tags": {
				"name:eo": "Danio"
			}
		},
		{
			"type": "node",
			"id": 432424972,
			"lat": -8.5151979,
			"lon": 125.8375756,
			"tags": {
				"name:eo": "Orienta Timoro"
			}
		},
		{
			"type": "node",
			"id": 432424981,
			"lat": 63.2467777,
			"lon": 25.9209164,
			"tags": {
				"name:eo": "Finnlando"
			}
		},
		{
			"type": "node",
			"id": 432424985,
			"lat": 41.6809707,
			"lon": 44.0287382,
			"tags": {
				"name:eo": "Kartvelio"
			}
		},
		{
			"type": "node",
			"id": 432424989,
			"lat": 38.9953683,
			"lon": 21.9877132,
			"tags": {
				"name:eo": "Grekio"
			}
		},
		{
			"type": "node",
			"id": 432425015,
			"lat": 0.4483283,
			"lon": -171.6645388,
			"tags": {
				"name:eo": "Kiribato"
			}
		},
		{
			"type": "node",
			"id": 432425019,
			"lat": 56.8666904,
			"lon": 24.5999717,
			"tags": {
				"name:eo": "Latvio"
			}
		},
		{
			"type": "node",
			"id": 432425023,
			"lat": 26.8234472,
			"lon": 18.1236723,
			"tags": {
				"name:eo": "Libio"
			}
		},
		{
			"type": "node",
			"id": 432425028,
			"lat": -18.9249604,
			"lon": 46.4416422,
			"tags": {
				"name:eo": "Madagaskaro"
			}
		},
		{
			"type": "node",
			"id": 432425036,
			"lat": 22.5000485,
			"lon": -100.0000375,
			"tags": {
				"name:eo": "Meksiko"
			}
		},
		{
			"type": "node",
			"id": 432425040,
			"lat": 46.8250388,
			"lon": 103.8499736,
			"tags": {
				"name:eo": "Mongolio"
			}
		},
		{
			"type": "node",
			"id": 432425041,
			"lat": 31.1728192,
			"lon": -7.3366043,
			"tags": {
				"name:eo": "Maroko"
			}
		},
		{
			"type": "node",
			"id": 432425060,
			"lat": 52.0977181,
			"lon": 19.0258159,
			"tags": {
				"name:eo": "Pollando"
			}
		},
		{
			"type": "node",
			"id": 432425062,
			"lat": 25.3336984,
			"lon": 51.2295295,
			"tags": {
				"name:eo": "Kataro"
			}
		},
		{
			"type": "node",
			"id": 432425063,
			"lat": -0.7264327,
			"lon": 15.6419155,
			"tags": {
				"name:eo": "Respubliko Kongo"
			}
		},
		{
			"type": "node",
			"id": 432425064,
			"lat": 45.9852129,
			"lon": 24.6859225,
			"tags": {
				"name:eo": "Rumanio"
			}
		},
		{
			"type": "node",
			"id": 432425070,
			"lat": 12.90447,
			"lon": -61.2765569,
			"tags": {
				"name:eo": "Sankta Vincento kaj Grenadinoj"
			}
		},
		{
			"type": "node",
			"id": 432425075,
			"lat": 14.4750607,
			"lon": -14.4529612,
			"tags": {
				"name:eo": "Senegaleo"
			}
		},
		{
			"type": "node",
			"id": 432425079,
			"lat": 48.7411522,
			"lon": 19.4528646,
			"tags": {
				"name:eo": "Slovakio"
			}
		},
		{
			"type": "node",
			"id": 432425087,
			"lat": 4.1413025,
			"lon": -56.0771187,
			"tags": {
				"name:eo": "Surinamo"
			}
		},
		{
			"type": "node",
			"id": 432425099,
			"lat": 23.9739374,
			"lon": 120.9820179,
			"tags": {
				"name:eo": "Tajvano"
			}
		},
		{
			"type": "node",
			"id": 432425116,
			"lat": -32.8755548,
			"lon": -56.0201525,
			"tags": {
				"name:eo": "Urugvajo"
			}
		},
		{
			"type": "node",
			"id": 432425123,
			"lat": -14.5186239,
			"lon": 27.5599164,
			"tags": {
				"name:eo": "Zambio"
			}
		},
		{
			"type": "node",
			"id": 433483517,
			"lat": 18.1954947,
			"lon": -63.0750234,
			"tags": {
				"name:eo": "Angvilo"
			}
		},
		{
			"type": "node",
			"id": 433483519,
			"lat": 32.3018217,
			"lon": -64.7603583,
			"tags": {
				"name:eo": "Bermudo"
			}
		},
		{
			"type": "node",
			"id": 433483540,
			"lat": 49.2214561,
			"lon": -2.1358386,
			"tags": {
				"name:eo": "Jersey"
			}
		},
		{
			"type": "node",
			"id": 433483552,
			"lat": -19.0536414,
			"lon": -169.8613411,
			"tags": {
				"name:eo": "Niuo"
			}
		},
		{
			"type": "node",
			"id": 433483572,
			"lat": -9.1676396,
			"lon": -171.8196878,
			"tags": {
				"name:eo": "Tokelao"
			}
		},
		{
			"type": "node",
			"id": 435981993,
			"lat": -2.9814344,
			"lon": 23.8222636,
			"tags": {
				"name:eo": "Demokratia Respubliko Kongo"
			}
		},
		{
			"type": "node",
			"id": 437146363,
			"lat": 14.8971921,
			"lon": 100.83273,
			"tags": {
				"name:eo": "Tajlando"
			}
		},
		{
			"type": "node",
			"id": 445970763,
			"lat": 43.0285558,
			"lon": 19.291739,
			"tags": {
				"name:eo": "Montenegro"
			}
		},
		{
			"type": "node",
			"id": 466507355,
			"lat": 43.1500226,
			"lon": 41.2299786,
			"tags": {
				"name:eo": "Abĥazio"
			}
		},
		{
			"type": "node",
			"id": 506532878,
			"lat": -82.1081822,
			"lon": 34.37824,
			"tags": {
				"name:eo": "Antarkto"
			}
		},
		{
			"type": "node",
			"id": 823750101,
			"lat": -9.7354344,
			"lon": 162.8288542,
			"tags": {
				"name:eo": "Salomonoj"
			}
		},
		{
			"type": "node",
			"id": 838090640,
			"lat": 54.7023545,
			"lon": -3.2765753,
			"tags": {
				"name:eo": "Unuiĝinta Reĝlando"
			}
		},
		{
			"type": "node",
			"id": 1356260631,
			"lat": 7.8699431,
			"lon": 29.6667897,
			"tags": {
				"name:eo": "Sud-Sudano"
			}
		},
		{
			"type": "node",
			"id": 1363947712,
			"lat": 46.603354,
			"lon": 1.8883335,
			"tags": {
				"name:eo": "Francio"
			}
		},
		{
			"type": "node",
			"id": 1388794217,
			"lat": -25.0657719,
			"lon": -130.1017823,
			"tags": {
				"name:eo": "Pitkarna Insulo"
			}
		},
		{
			"type": "node",
			"id": 1420871007,
			"lat": 52.865196,
			"lon": -7.9794599,
			"tags": {
				"name:eo": "Irlando"
			}
		},
		{
			"type": "node",
			"id": 1504546320,
			"lat": 46.7985624,
			"lon": 8.2319736,
			"tags": {
				"name:eo": "Svislando"
			}
		},
		{
			"type": "node",
			"id": 1529444079,
			"lat": -13.7693895,
			"lon": -172.1200508,
			"tags": {
				"name:eo": "Samoo"
			}
		},
		{
			"type": "node",
			"id": 1602889766,
			"lat": 54.1936805,
			"lon": -4.5591148,
			"tags": {
				"name:eo": "Manksinsulo"
			}
		},
		{
			"type": "node",
			"id": 1640880787,
			"lat": -18.4554963,
			"lon": 29.7468414,
			"tags": {
				"name:eo": "Zimbabvo"
			}
		},
		{
			"type": "node",
			"id": 1644732479,
			"lat": 15.6356088,
			"lon": -89.8988087,
			"tags": {
				"name:eo": "Gvatemalo"
			}
		},
		{
			"type": "node",
			"id": 1644764586,
			"lat": -23.3165935,
			"lon": -58.1693445,
			"tags": {
				"name:eo": "Paragvajo"
			}
		},
		{
			"type": "node",
			"id": 1648342273,
			"lat": 49.4871968,
			"lon": 31.2718321,
			"tags": {
				"name:eo": "Ukrainio"
			}
		},
		{
			"type": "node",
			"id": 1683325355,
			"lat": 51.0834196,
			"lon": 10.4234469,
			"tags": {
				"name:eo": "Germanio"
			}
		},
		{
			"type": "node",
			"id": 1684793666,
			"lat": 50.6407351,
			"lon": 4.66696,
			"tags": {
				"name:eo": "Belgio"
			}
		},
		{
			"type": "node",
			"id": 1694010854,
			"lat": 4.4137155,
			"lon": 114.5653908,
			"tags": {
				"name:eo": "Brunejo"
			}
		},
		{
			"type": "node",
			"id": 1700777271,
			"lat": 41.5089324,
			"lon": 74.724091,
			"tags": {
				"name:eo": "Kirgizistan"
			}
		},
		{
			"type": "node",
			"id": 1708980402,
			"lat": -20.2759451,
			"lon": 57.5703566,
			"tags": {
				"name:eo": "Maŭricio"
			}
		},
		{
			"type": "node",
			"id": 1983711862,
			"lat": 44.3053476,
			"lon": 17.5961467,
			"tags": {
				"name:eo": "Bosnio kaj Hercegovino"
			}
		},
		{
			"type": "node",
			"id": 2134362766,
			"lat": 2.3923759,
			"lon": 112.8471939,
			"tags": {
				"name:eo": "Malajzio"
			}
		},
		{
			"type": "node",
			"id": 2163914205,
			"lat": 10.2116702,
			"lon": 38.6521203,
			"tags": {
				"name:eo": "Etiopio"
			}
		},
		{
			"type": "node",
			"id": 3997635385,
			"lat": 7.237148,
			"lon": 80.820923,
			"tags": {
				"name:eo": "Sri-Lanko"
			}
		}
	]
}