{
	"version": 0.6,
	"generator": "Overpass API 0.7.55.6 486819c8",
	"osm3s": {
		"timestamp_osm_base": "2019-04-27T22:37:02Z",
		"copyright": "The data included in this document is from www.openstreetmap.org. The data is made available under ODbL."
	},
	"elements": [
		{
			"type": "node",
			"id": 24330691,
			"lat": 22.350627,
			"lon": 114.1849161,
			"tags": {
				"name:pl": "Hongkong"
			}
		},
		{
			"type": "node",
			"id": 26036352,
			"lat": 12.7503486,
			"lon": 122.7312101,
			"tags": {
				"name:pl": "Filipiny"
			}
		},
		{
			"type": "node",
			"id": 26347360,
			"lat": 42.6384261,
			"lon": 12.674297,
			"tags": {
				"name:pl": "Włochy"
			}
		},
		{
			"type": "node",
			"id": 26847706,
			"lat": 33.7680065,
			"lon": 66.2385139,
			"tags": {
				"name:pl": "Afganistan"
			}
		},
		{
			"type": "node",
			"id": 26847709,
			"lat": 47.2000338,
			"lon": 13.199959,
			"tags": {
				"name:pl": "Austria"
			}
		},
		{
			"type": "node",
			"id": 148332300,
			"lat": 39.3262345,
			"lon": -4.8380649,
			"tags": {
				"name:pl": "Hiszpania"
			}
		},
		{
			"type": "node",
			"id": 148874198,
			"lat": 42.5407167,
			"lon": 1.5732033,
			"tags": {
				"name:pl": "Andora"
			}
		},
		{
			"type": "node",
			"id": 208592566,
			"lat": 45.8133113,
			"lon": 14.4808369,
			"tags": {
				"name:pl": "Słowenia"
			}
		},
		{
			"type": "node",
			"id": 246422158,
			"lat": 19.0974031,
			"lon": -70.3028026,
			"tags": {
				"name:pl": "Dominikana"
			}
		},
		{
			"type": "node",
			"id": 248120384,
			"lat": -41.5000831,
			"lon": 172.8344077,
			"tags": {
				"name:pl": "Nowa Zelandia"
			}
		},
		{
			"type": "node",
			"id": 249399277,
			"lat": 40.7696272,
			"lon": 44.6736646,
			"tags": {
				"name:pl": "Armenia"
			}
		},
		{
			"type": "node",
			"id": 249399280,
			"lat": -34.9964963,
			"lon": -64.9672817,
			"tags": {
				"name:pl": "Argentyna"
			}
		},
		{
			"type": "node",
			"id": 249399285,
			"lat": 13.1500331,
			"lon": -59.5250305,
			"tags": {
				"name:pl": "Barbados"
			}
		},
		{
			"type": "node",
			"id": 249399288,
			"lat": 12.0753083,
			"lon": -1.6880314,
			"tags": {
				"name:pl": "Burkina Faso"
			}
		},
		{
			"type": "node",
			"id": 249399296,
			"lat": 24.7736546,
			"lon": -78.0000547,
			"tags": {
				"name:pl": "Bahamy"
			}
		},
		{
			"type": "node",
			"id": 249399300,
			"lat": 53.4250605,
			"lon": 27.6971358,
			"tags": {
				"name:pl": "Białoruś"
			}
		},
		{
			"type": "node",
			"id": 249399308,
			"lat": -16.0492781,
			"lon": -160.3554851,
			"tags": {
				"name:pl": "Wyspy Cooka"
			}
		},
		{
			"type": "node",
			"id": 249399313,
			"lat": 23.0131338,
			"lon": -80.8328748,
			"tags": {
				"name:pl": "Kuba"
			}
		},
		{
			"type": "node",
			"id": 249399339,
			"lat": -54.8432857,
			"lon": -35.8090698,
			"tags": {
				"name:pl": "Georgia Południowa i Sandwich Południowy"
			}
		},
		{
			"type": "node",
			"id": 249399347,
			"lat": 47.1817585,
			"lon": 19.5060937,
			"tags": {
				"name:pl": "Węgry"
			}
		},
		{
			"type": "node",
			"id": 249399360,
			"lat": -12.2045176,
			"lon": 44.2832964,
			"tags": {
				"name:pl": "Komory"
			}
		},
		{
			"type": "node",
			"id": 249399361,
			"lat": 40.3736611,
			"lon": 127.0870417,
			"tags": {
				"name:pl": "Korea Północna"
			}
		},
		{
			"type": "node",
			"id": 249399362,
			"lat": 36.5581914,
			"lon": 127.9408564,
			"tags": {
				"name:pl": "Korea Południowa"
			}
		},
		{
			"type": "node",
			"id": 249399364,
			"lat": 19.5417212,
			"lon": -80.5667132,
			"tags": {
				"name:pl": "Kajmany"
			}
		},
		{
			"type": "node",
			"id": 249399394,
			"lat": 4.5693754,
			"lon": 102.2656823,
			"tags": {
				"name:pl": "Malezja"
			}
		},
		{
			"type": "node",
			"id": 249399402,
			"lat": 28.1083929,
			"lon": 84.0917139,
			"tags": {
				"name:pl": "Nepal"
			}
		},
		{
			"type": "node",
			"id": 249399406,
			"lat": -6.8699697,
			"lon": -75.0458515,
			"tags": {
				"name:pl": "Peru"
			}
		},
		{
			"type": "node",
			"id": 249399419,
			"lat": 25.6242618,
			"lon": 42.3528328,
			"tags": {
				"name:pl": "Arabia Saudyjska"
			}
		},
		{
			"type": "node",
			"id": 249399429,
			"lat": 0.8875498,
			"lon": 6.9648718,
			"tags": {
				"name:pl": "Wyspy Świętego Tomasza i Książęca"
			}
		},
		{
			"type": "node",
			"id": 249399440,
			"lat": 39.3763807,
			"lon": 59.3924609,
			"tags": {
				"name:pl": "Turkmenistan"
			}
		},
		{
			"type": "node",
			"id": 249399444,
			"lat": 10.8677845,
			"lon": -60.9821067,
			"tags": {
				"name:pl": "Trynidad i Tobago"
			}
		},
		{
			"type": "node",
			"id": 249399459,
			"lat": 16.3471243,
			"lon": 47.8915271,
			"tags": {
				"name:pl": "Jemen"
			}
		},
		{
			"type": "node",
			"id": 271048940,
			"lat": 18.0423736,
			"lon": -63.0549948,
			"tags": {
				"name:pl": "Sint Maarten"
			}
		},
		{
			"type": "node",
			"id": 332779764,
			"lat": 16.8259793,
			"lon": -88.7600927,
			"tags": {
				"name:pl": "Belize"
			}
		},
		{
			"type": "node",
			"id": 369137525,
			"lat": 44.1534121,
			"lon": 20.55144,
			"tags": {
				"name:pl": "Serbia"
			}
		},
		{
			"type": "node",
			"id": 424297198,
			"lat": 60.5000209,
			"lon": 9.0999715,
			"tags": {
				"name:pl": "Norwegia"
			}
		},
		{
			"type": "node",
			"id": 424297207,
			"lat": 26.1551249,
			"lon": 50.5344606,
			"tags": {
				"name:pl": "Bahrajn"
			}
		},
		{
			"type": "node",
			"id": 424297217,
			"lat": 52.5001698,
			"lon": 5.7480821,
			"tags": {
				"name:pl": "Holandia"
			}
		},
		{
			"type": "node",
			"id": 424297281,
			"lat": 19.1399952,
			"lon": -72.3570972,
			"tags": {
				"name:pl": "Haiti"
			}
		},
		{
			"type": "node",
			"id": 424297384,
			"lat": 9.5293472,
			"lon": 2.2584408,
			"tags": {
				"name:pl": "Benin"
			}
		},
		{
			"type": "node",
			"id": 424297465,
			"lat": 10.2735633,
			"lon": -84.0739102,
			"tags": {
				"name:pl": "Kostaryka"
			}
		},
		{
			"type": "node",
			"id": 424297496,
			"lat": 15.4113138,
			"lon": -61.3653618,
			"tags": {
				"name:pl": "Dominika"
			}
		},
		{
			"type": "node",
			"id": 424297579,
			"lat": 13.470062,
			"lon": -15.4900464,
			"tags": {
				"name:pl": "Gambia"
			}
		},
		{
			"type": "node",
			"id": 424297586,
			"lat": 10.7226226,
			"lon": -10.7083587,
			"tags": {
				"name:pl": "Gwinea"
			}
		},
		{
			"type": "node",
			"id": 424297609,
			"lat": 12.100035,
			"lon": -14.9000214,
			"tags": {
				"name:pl": "Gwinea Bissau"
			}
		},
		{
			"type": "node",
			"id": 424297629,
			"lat": 15.2572432,
			"lon": -86.0755145,
			"tags": {
				"name:pl": "Honduras"
			}
		},
		{
			"type": "node",
			"id": 424297647,
			"lat": 30.8760272,
			"lon": 35.0015196,
			"tags": {
				"name:pl": "Izrael"
			}
		},
		{
			"type": "node",
			"id": 424297742,
			"lat": 33.8750629,
			"lon": 35.843409,
			"tags": {
				"name:pl": "Liban"
			}
		},
		{
			"type": "node",
			"id": 424297773,
			"lat": 55.3500003,
			"lon": 23.7499997,
			"tags": {
				"name:pl": "Litwa"
			}
		},
		{
			"type": "node",
			"id": 424297810,
			"lat": 41.6171214,
			"lon": 21.7168387,
			"tags": {
				"name:pl": "Macedonia"
			}
		},
		{
			"type": "node",
			"id": 424297816,
			"lat": 16.3700359,
			"lon": -2.2900239,
			"tags": {
				"name:pl": "Mali"
			}
		},
		{
			"type": "node",
			"id": 424297917,
			"lat": -0.5252306,
			"lon": 166.9324426,
			"tags": {
				"name:pl": "Nauru"
			}
		},
		{
			"type": "node",
			"id": 424297931,
			"lat": -5.6816069,
			"lon": 144.2489081,
			"tags": {
				"name:pl": "Papua-Nowa Gwinea"
			}
		},
		{
			"type": "node",
			"id": 424297973,
			"lat": 14.5844444,
			"lon": 29.4917691,
			"tags": {
				"name:pl": "Sudan"
			}
		},
		{
			"type": "node",
			"id": 424298019,
			"lat": 49.8158683,
			"lon": 6.1296751,
			"tags": {
				"name:pl": "Luksemburg"
			}
		},
		{
			"type": "node",
			"id": 424298076,
			"lat": 15.6134137,
			"lon": 19.0156172,
			"tags": {
				"name:pl": "Czad"
			}
		},
		{
			"type": "node",
			"id": 424298150,
			"lat": 13.2904027,
			"lon": 108.4265113,
			"tags": {
				"name:pl": "Wietnam"
			}
		},
		{
			"type": "node",
			"id": 424298167,
			"lat": -28.8166236,
			"lon": 24.991639,
			"tags": {
				"name:pl": "Republika Południowej Afryki"
			}
		},
		{
			"type": "node",
			"id": 424298227,
			"lat": -1.3397668,
			"lon": -79.3666965,
			"tags": {
				"name:pl": "Ekwador"
			}
		},
		{
			"type": "node",
			"id": 424298277,
			"lat": -4.6574977,
			"lon": 55.4540146,
			"tags": {
				"name:pl": "Seszele"
			}
		},
		{
			"type": "node",
			"id": 424298311,
			"lat": 32.6475314,
			"lon": 54.5643516,
			"tags": {
				"name:pl": "Iran"
			}
		},
		{
			"type": "node",
			"id": 424298326,
			"lat": 38.9597594,
			"lon": 34.9249653,
			"tags": {
				"name:pl": "Turcja"
			}
		},
		{
			"type": "node",
			"id": 424310601,
			"lat": 41.000028,
			"lon": 19.9999619,
			"tags": {
				"name:pl": "Albania"
			}
		},
		{
			"type": "node",
			"id": 424310680,
			"lat": -26.5624806,
			"lon": 31.3991317,
			"tags": {
				"name:pl": "Eswatini",
				"alt_name:pl": "Suazi"
			}
		},
		{
			"type": "node",
			"id": 424310703,
			"lat": 24.0002488,
			"lon": 53.9994829,
			"tags": {
				"name:pl": "Emiraty Arabskie",
				"alt_name:pl": "Zjednoczone Emiraty Arabskie"
			}
		},
		{
			"type": "node",
			"id": 424310758,
			"lat": 17.3462278,
			"lon": -62.7687277,
			"tags": {
				"name:pl": "Saint Kitts i Nevis"
			}
		},
		{
			"type": "node",
			"id": 424310875,
			"lat": -11.8775768,
			"lon": 17.5691241,
			"tags": {
				"name:pl": "Angola"
			}
		},
		{
			"type": "node",
			"id": 424310982,
			"lat": -3.3634357,
			"lon": 29.8870575,
			"tags": {
				"name:pl": "Burundi"
			}
		},
		{
			"type": "node",
			"id": 424311028,
			"lat": 27.549511,
			"lon": 90.5119273,
			"tags": {
				"name:pl": "Bhutan"
			}
		},
		{
			"type": "node",
			"id": 424311104,
			"lat": -31.7613365,
			"lon": -71.3187697,
			"tags": {
				"name:pl": "Chile"
			}
		},
		{
			"type": "node",
			"id": 424311151,
			"lat": 16.0000552,
			"lon": -24.0083947,
			"tags": {
				"name:pl": "Wyspy Zielonego Przylądka"
			}
		},
		{
			"type": "node",
			"id": 424311237,
			"lat": -51.9666424,
			"lon": -59.5500387,
			"tags": {
				"name:pl": "Falklandy (Malwiny)"
			}
		},
		{
			"type": "node",
			"id": 424311244,
			"lat": 5.5600565,
			"lon": 150.1982846,
			"tags": {
				"name:pl": "Mikronezja"
			}
		},
		{
			"type": "node",
			"id": 424311252,
			"lat": -0.8999695,
			"lon": 11.6899699,
			"tags": {
				"name:pl": "Gabon"
			}
		},
		{
			"type": "node",
			"id": 424311328,
			"lat": 4.8417097,
			"lon": -58.6416891,
			"tags": {
				"name:pl": "Gujana"
			}
		},
		{
			"type": "node",
			"id": 424311353,
			"lat": 45.5643442,
			"lon": 17.0118954,
			"tags": {
				"name:pl": "Chorwacja"
			}
		},
		{
			"type": "node",
			"id": 424311521,
			"lat": 47.2286086,
			"lon": 65.2093197,
			"tags": {
				"name:pl": "Kazachstan"
			}
		},
		{
			"type": "node",
			"id": 424311573,
			"lat": 5.7499721,
			"lon": -9.3658524,
			"tags": {
				"name:pl": "Liberia"
			}
		},
		{
			"type": "node",
			"id": 424311641,
			"lat": 4.7064352,
			"lon": 73.3287853,
			"tags": {
				"name:pl": "Malediwy"
			}
		},
		{
			"type": "node",
			"id": 424311645,
			"lat": -13.2687204,
			"lon": 33.9301963,
			"tags": {
				"name:pl": "Malawi"
			}
		},
		{
			"type": "node",
			"id": 424311658,
			"lat": -19.302233,
			"lon": 34.9144977,
			"tags": {
				"name:pl": "Mozambik"
			}
		},
		{
			"type": "node",
			"id": 424311662,
			"lat": -23.2335499,
			"lon": 17.3231107,
			"tags": {
				"name:pl": "Namibia"
			}
		},
		{
			"type": "node",
			"id": 424311675,
			"lat": 17.7356214,
			"lon": 9.3238432,
			"tags": {
				"name:pl": "Niger"
			}
		},
		{
			"type": "node",
			"id": 424311738,
			"lat": -1.9646631,
			"lon": 30.0644358,
			"tags": {
				"name:pl": "Rwanda"
			}
		},
		{
			"type": "node",
			"id": 424311802,
			"lat": 13.8000382,
			"lon": -88.9140683,
			"tags": {
				"name:pl": "Salwador"
			}
		},
		{
			"type": "node",
			"id": 424311806,
			"lat": 34.6401861,
			"lon": 39.0494106,
			"tags": {
				"name:pl": "Syria"
			}
		},
		{
			"type": "node",
			"id": 424311814,
			"lat": 21.7214683,
			"lon": -71.6201783,
			"tags": {
				"name:pl": "Turks i Caicos"
			}
		},
		{
			"type": "node",
			"id": 424311827,
			"lat": 8.7800265,
			"lon": 1.0199765,
			"tags": {
				"name:pl": "Togo"
			}
		},
		{
			"type": "node",
			"id": 424311848,
			"lat": -19.9160819,
			"lon": -175.2026424,
			"tags": {
				"name:pl": "Tonga"
			}
		},
		{
			"type": "node",
			"id": 424311890,
			"lat": 8.0018709,
			"lon": -66.1109318,
			"tags": {
				"name:pl": "Wenezuela"
			}
		},
		{
			"type": "node",
			"id": 424311891,
			"lat": 18.4024395,
			"lon": -64.5661642,
			"tags": {
				"name:pl": "Brytyjskie Wyspy Dziewicze"
			}
		},
		{
			"type": "node",
			"id": 424311955,
			"lat": 6.9518742,
			"lon": 170.9985095,
			"tags": {
				"name:pl": "Wyspy Marshalla"
			}
		},
		{
			"type": "node",
			"id": 424312026,
			"lat": 77.6192349,
			"lon": -42.8125967,
			"tags": {
				"name:pl": "Grenlandia"
			}
		},
		{
			"type": "node",
			"id": 424312044,
			"lat": 62.0448724,
			"lon": -7.0322972,
			"tags": {
				"name:pl": "Wyspy Owcze"
			}
		},
		{
			"type": "node",
			"id": 424313277,
			"lat": 59.6749712,
			"lon": 14.5208584,
			"tags": {
				"name:pl": "Szwecja"
			}
		},
		{
			"type": "node",
			"id": 424313406,
			"lat": 34.9823018,
			"lon": 33.1451285,
			"tags": {
				"name:pl": "Cypr"
			}
		},
		{
			"type": "node",
			"id": 424313428,
			"lat": 1.357107,
			"lon": 103.8194992,
			"tags": {
				"name:pl": "Singapur"
			}
		},
		{
			"type": "node",
			"id": 424313451,
			"lat": 36.5748441,
			"lon": 139.2394179,
			"tags": {
				"name:pl": "Japonia"
			}
		},
		{
			"type": "node",
			"id": 424313466,
			"lat": -16.5255069,
			"lon": 168.1069154,
			"tags": {
				"name:pl": "Vanuatu"
			}
		},
		{
			"type": "node",
			"id": 424313582,
			"lat": 35.000074,
			"lon": 104.999927,
			"tags": {
				"name:pl": "Chiny"
			}
		},
		{
			"type": "node",
			"id": 424313591,
			"lat": 18.1850507,
			"lon": -77.3947693,
			"tags": {
				"name:pl": "Jamajka"
			}
		},
		{
			"type": "node",
			"id": 424313675,
			"lat": 40.3936294,
			"lon": 47.7872508,
			"tags": {
				"name:pl": "Azerbejdżan"
			}
		},
		{
			"type": "node",
			"id": 424313730,
			"lat": -17.0568696,
			"lon": -64.9912286,
			"tags": {
				"name:pl": "Boliwia"
			}
		},
		{
			"type": "node",
			"id": 424313734,
			"lat": -10.3333333,
			"lon": -53.2,
			"tags": {
				"name:pl": "Brazylia"
			}
		},
		{
			"type": "node",
			"id": 424313751,
			"lat": -23.1681782,
			"lon": 24.5928742,
			"tags": {
				"name:pl": "Botswana"
			}
		},
		{
			"type": "node",
			"id": 424313803,
			"lat": 49.8167003,
			"lon": 15.4749544,
			"tags": {
				"name:pl": "Czechy"
			}
		},
		{
			"type": "node",
			"id": 424313823,
			"lat": -18.1239696,
			"lon": 179.0122737,
			"tags": {
				"name:pl": "Fidżi"
			}
		},
		{
			"type": "node",
			"id": 424313832,
			"lat": 58.7523778,
			"lon": 25.3319078,
			"tags": {
				"name:pl": "Estonia"
			}
		},
		{
			"type": "node",
			"id": 424313836,
			"lat": 8.0300284,
			"lon": -1.0800271,
			"tags": {
				"name:pl": "Ghana"
			}
		},
		{
			"type": "node",
			"id": 424313853,
			"lat": 1.613172,
			"lon": 10.5170357,
			"tags": {
				"name:pl": "Gwinea Równikowa"
			}
		},
		{
			"type": "node",
			"id": 424313891,
			"lat": -6.4157192,
			"lon": 72.1173961,
			"tags": {
				"name:pl": "Brytyjskie Terytorium Oceanu Indyjskiego"
			}
		},
		{
			"type": "node",
			"id": 424313903,
			"lat": 1.4419683,
			"lon": 38.4313975,
			"tags": {
				"name:pl": "Kenia"
			}
		},
		{
			"type": "node",
			"id": 424313936,
			"lat": 29.2733964,
			"lon": 47.4979476,
			"tags": {
				"name:pl": "Kuwejt"
			}
		},
		{
			"type": "node",
			"id": 424314005,
			"lat": 16.7417041,
			"lon": -62.1916844,
			"tags": {
				"name:pl": "Montserrat"
			}
		},
		{
			"type": "node",
			"id": 424314088,
			"lat": 30.3308401,
			"lon": 71.247499,
			"tags": {
				"name:pl": "Pakistan"
			}
		},
		{
			"type": "node",
			"id": 424314123,
			"lat": 8.6400349,
			"lon": -11.8400269,
			"tags": {
				"name:pl": "Sierra Leone"
			}
		},
		{
			"type": "node",
			"id": 424314145,
			"lat": 22.3511148,
			"lon": 78.6677428,
			"tags": {
				"name:pl": "Indie"
			}
		},
		{
			"type": "node",
			"id": 424314276,
			"lat": 38.6281733,
			"lon": 70.8156541,
			"tags": {
				"name:pl": "Tadżykistan"
			}
		},
		{
			"type": "node",
			"id": 424314335,
			"lat": -6.5247123,
			"lon": 35.7878438,
			"tags": {
				"name:pl": "Tanzania"
			}
		},
		{
			"type": "node",
			"id": 424314631,
			"lat": 2.8894434,
			"lon": -73.783892,
			"tags": {
				"name:pl": "Kolumbia"
			}
		},
		{
			"type": "node",
			"id": 424314691,
			"lat": 7.9897371,
			"lon": -5.5679458,
			"tags": {
				"name:pl": "Wybrzeże Kości Słoniowej"
			}
		},
		{
			"type": "node",
			"id": 424314784,
			"lat": 64.9841821,
			"lon": -18.1059013,
			"tags": {
				"name:pl": "Islandia"
			}
		},
		{
			"type": "node",
			"id": 424314830,
			"lat": 64.6863136,
			"lon": 97.7453061,
			"tags": {
				"name:pl": "Rosja"
			}
		},
		{
			"type": "node",
			"id": 424315291,
			"lat": 21.0000287,
			"lon": 57.0036901,
			"tags": {
				"name:pl": "Oman"
			}
		},
		{
			"type": "node",
			"id": 424315584,
			"lat": -24.7761086,
			"lon": 134.755,
			"tags": {
				"name:pl": "Australia"
			}
		},
		{
			"type": "node",
			"id": 424315709,
			"lat": 42.6073975,
			"lon": 25.4856617,
			"tags": {
				"name:pl": "Bułgaria"
			}
		},
		{
			"type": "node",
			"id": 424315932,
			"lat": 4.6125522,
			"lon": 13.1535811,
			"tags": {
				"name:pl": "Kamerun"
			}
		},
		{
			"type": "node",
			"id": 424316018,
			"lat": 26.2540493,
			"lon": 29.2675469,
			"tags": {
				"name:pl": "Egipt"
			}
		},
		{
			"type": "node",
			"id": 424316022,
			"lat": 15.9500319,
			"lon": 37.9999668,
			"tags": {
				"name:pl": "Erytrea"
			}
		},
		{
			"type": "node",
			"id": 424316074,
			"lat": 12.1360374,
			"lon": -61.6904045,
			"tags": {
				"name:pl": "Granada"
			}
		},
		{
			"type": "node",
			"id": 424316205,
			"lat": 33.0955793,
			"lon": 44.1749775,
			"tags": {
				"name:pl": "Irak"
			}
		},
		{
			"type": "node",
			"id": 424316216,
			"lat": 31.1667049,
			"lon": 36.941628,
			"tags": {
				"name:pl": "Jordania"
			}
		},
		{
			"type": "node",
			"id": 424316307,
			"lat": 20.0171109,
			"lon": 103.378253,
			"tags": {
				"name:pl": "Laos"
			}
		},
		{
			"type": "node",
			"id": 424316319,
			"lat": 13.8250489,
			"lon": -60.975036,
			"tags": {
				"name:pl": "Saint Lucia"
			}
		},
		{
			"type": "node",
			"id": 424316417,
			"lat": 47.286747,
			"lon": 28.5110236,
			"tags": {
				"name:pl": "Mołdawia"
			}
		},
		{
			"type": "node",
			"id": 424316478,
			"lat": 17.1750495,
			"lon": 95.9999652,
			"tags": {
				"name:pl": "Birma"
			}
		},
		{
			"type": "node",
			"id": 424316493,
			"lat": 20.2540382,
			"lon": -9.2399263,
			"tags": {
				"name:pl": "Mauretania"
			}
		},
		{
			"type": "node",
			"id": 424316663,
			"lat": 9.6000359,
			"lon": 7.9999721,
			"tags": {
				"name:pl": "Nigeria"
			}
		},
		{
			"type": "node",
			"id": 424316671,
			"lat": 12.6090157,
			"lon": -85.2936911,
			"tags": {
				"name:pl": "Nikaragua"
			}
		},
		{
			"type": "node",
			"id": 424316758,
			"lat": 8.559559,
			"lon": -81.1308434,
			"tags": {
				"name:pl": "Panama"
			}
		},
		{
			"type": "node",
			"id": 424317025,
			"lat": 43.9458623,
			"lon": 12.458306,
			"tags": {
				"name:pl": "San Marino"
			}
		},
		{
			"type": "node",
			"id": 424317039,
			"lat": 8.3676771,
			"lon": 49.083416,
			"tags": {
				"name:pl": "Somalia"
			}
		},
		{
			"type": "node",
			"id": 424317315,
			"lat": 33.8439408,
			"lon": 9.400138,
			"tags": {
				"name:pl": "Tunezja"
			}
		},
		{
			"type": "node",
			"id": 424317372,
			"lat": -7.768959,
			"lon": 178.1167698,
			"tags": {
				"name:pl": "Tuvalu"
			}
		},
		{
			"type": "node",
			"id": 424317406,
			"lat": 1.5333554,
			"lon": 32.2166578,
			"tags": {
				"name:pl": "Uganda"
			}
		},
		{
			"type": "node",
			"id": 424317428,
			"lat": 41.32373,
			"lon": 63.9528098,
			"tags": {
				"name:pl": "Uzbekistan"
			}
		},
		{
			"type": "node",
			"id": 424317935,
			"lat": 39.7837304,
			"lon": -100.4458825,
			"tags": {
				"name:pl": "Stany Zjednoczone"
			}
		},
		{
			"type": "node",
			"id": 432424926,
			"lat": 28.0000272,
			"lon": 2.9999825,
			"tags": {
				"name:pl": "Algieria"
			}
		},
		{
			"type": "node",
			"id": 432424929,
			"lat": 17.079128,
			"lon": -61.8222516,
			"tags": {
				"name:pl": "Antigua i Barbuda"
			}
		},
		{
			"type": "node",
			"id": 432424937,
			"lat": 24.4768783,
			"lon": 90.2932426,
			"tags": {
				"name:pl": "Bangladesz"
			}
		},
		{
			"type": "node",
			"id": 432424952,
			"lat": 13.5066394,
			"lon": 104.869423,
			"tags": {
				"name:pl": "Kambodża"
			}
		},
		{
			"type": "node",
			"id": 432424956,
			"lat": 7.0323598,
			"lon": 19.9981227,
			"tags": {
				"name:pl": "Republika Środkowoafrykańska"
			}
		},
		{
			"type": "node",
			"id": 432424968,
			"lat": 55.670249,
			"lon": 10.3333283,
			"tags": {
				"name:pl": "Dania"
			}
		},
		{
			"type": "node",
			"id": 432424972,
			"lat": -8.5151979,
			"lon": 125.8375756,
			"tags": {
				"name:pl": "Timor Wschodni"
			}
		},
		{
			"type": "node",
			"id": 432424981,
			"lat": 63.2467777,
			"lon": 25.9209164,
			"tags": {
				"name:pl": "Finlandia"
			}
		},
		{
			"type": "node",
			"id": 432424985,
			"lat": 41.6809707,
			"lon": 44.0287382,
			"tags": {
				"name:pl": "Gruzja"
			}
		},
		{
			"type": "node",
			"id": 432424989,
			"lat": 38.9953683,
			"lon": 21.9877132,
			"tags": {
				"name:pl": "Grecja"
			}
		},
		{
			"type": "node",
			"id": 432425015,
			"lat": 0.4483283,
			"lon": -171.6645388,
			"tags": {
				"name:pl": "Kiribati"
			}
		},
		{
			"type": "node",
			"id": 432425019,
			"lat": 56.8406494,
			"lon": 24.7537645,
			"tags": {
				"name:pl": "Łotwa"
			}
		},
		{
			"type": "node",
			"id": 432425023,
			"lat": 26.8234472,
			"lon": 18.1236723,
			"tags": {
				"name:pl": "Libia"
			}
		},
		{
			"type": "node",
			"id": 432425028,
			"lat": -18.9249604,
			"lon": 46.4416422,
			"tags": {
				"name:pl": "Madagaskar"
			}
		},
		{
			"type": "node",
			"id": 432425036,
			"lat": 22.5000485,
			"lon": -100.0000375,
			"tags": {
				"name:pl": "Meksyk"
			}
		},
		{
			"type": "node",
			"id": 432425040,
			"lat": 46.8250388,
			"lon": 103.8499736,
			"tags": {
				"name:pl": "Mongolia"
			}
		},
		{
			"type": "node",
			"id": 432425041,
			"lat": 31.1728205,
			"lon": -7.3362482,
			"tags": {
				"name:pl": "Maroko"
			}
		},
		{
			"type": "node",
			"id": 432425060,
			"lat": 52.0977181,
			"lon": 19.0258159,
			"tags": {
				"name:pl": "Polska"
			}
		},
		{
			"type": "node",
			"id": 432425062,
			"lat": 25.3336984,
			"lon": 51.2295295,
			"tags": {
				"name:pl": "Katar"
			}
		},
		{
			"type": "node",
			"id": 432425063,
			"lat": -0.7264327,
			"lon": 15.6419155,
			"tags": {
				"name:pl": "Kongo"
			}
		},
		{
			"type": "node",
			"id": 432425064,
			"lat": 45.9852129,
			"lon": 24.6859225,
			"tags": {
				"name:pl": "Rumunia"
			}
		},
		{
			"type": "node",
			"id": 432425070,
			"lat": 12.90447,
			"lon": -61.2765569,
			"tags": {
				"name:pl": "Saint Vincent i Grenadyny"
			}
		},
		{
			"type": "node",
			"id": 432425075,
			"lat": 14.4750607,
			"lon": -14.4529612,
			"tags": {
				"name:pl": "Senegal"
			}
		},
		{
			"type": "node",
			"id": 432425079,
			"lat": 48.7411522,
			"lon": 19.4528646,
			"tags": {
				"name:pl": "Słowacja"
			}
		},
		{
			"type": "node",
			"id": 432425087,
			"lat": 4.1413025,
			"lon": -56.0771187,
			"tags": {
				"name:pl": "Surinam"
			}
		},
		{
			"type": "node",
			"id": 432425099,
			"lat": 23.9739374,
			"lon": 120.9820179,
			"tags": {
				"name:pl": "Tajwan"
			}
		},
		{
			"type": "node",
			"id": 432425116,
			"lat": -32.8755548,
			"lon": -56.0201525,
			"tags": {
				"name:pl": "Urugwaj"
			}
		},
		{
			"type": "node",
			"id": 432425123,
			"lat": -14.5186239,
			"lon": 27.5599164,
			"tags": {
				"name:pl": "Zambia"
			}
		},
		{
			"type": "node",
			"id": 433483517,
			"lat": 18.1954947,
			"lon": -63.0750234,
			"tags": {
				"name:pl": "Anguilla"
			}
		},
		{
			"type": "node",
			"id": 433483519,
			"lat": 32.3018217,
			"lon": -64.7603583,
			"tags": {
				"name:pl": "Bermudy"
			}
		},
		{
			"type": "node",
			"id": 433483540,
			"lat": 49.2214561,
			"lon": -2.1358386,
			"tags": {
				"name:pl": "Jersey"
			}
		},
		{
			"type": "node",
			"id": 433483552,
			"lat": -19.0536414,
			"lon": -169.8613411,
			"tags": {
				"name:pl": "Niue"
			}
		},
		{
			"type": "node",
			"id": 433483572,
			"lat": -9.1676396,
			"lon": -171.8196878,
			"tags": {
				"name:pl": "Tokelau"
			}
		},
		{
			"type": "node",
			"id": 435981993,
			"lat": -2.9814344,
			"lon": 23.8222636,
			"tags": {
				"name:pl": "Demokratyczna Republika Konga"
			}
		},
		{
			"type": "node",
			"id": 437146363,
			"lat": 14.8971921,
			"lon": 100.83273,
			"tags": {
				"name:pl": "Tajlandia"
			}
		},
		{
			"type": "node",
			"id": 445970763,
			"lat": 42.7728491,
			"lon": 19.2408586,
			"tags": {
				"name:pl": "Czarnogóra"
			}
		},
		{
			"type": "node",
			"id": 466507355,
			"lat": 43.1500226,
			"lon": 41.2299786,
			"tags": {
				"name:pl": "Abchazja"
			}
		},
		{
			"type": "node",
			"id": 506535828,
			"lat": -14.289304,
			"lon": -170.692511,
			"tags": {
				"name:pl": "Samoa Amerykańskie"
			}
		},
		{
			"type": "node",
			"id": 607976629,
			"lat": 13.5394645,
			"lon": 144.8970036,
			"tags": {
				"name:pl": "Guam"
			}
		},
		{
			"type": "node",
			"id": 823750101,
			"lat": -9.7354344,
			"lon": 162.8288542,
			"tags": {
				"name:pl": "Wyspy Salomona"
			}
		},
		{
			"type": "node",
			"id": 838090640,
			"lat": 54.7023545,
			"lon": -3.2765753,
			"tags": {
				"name:pl": "Wielka Brytania"
			}
		},
		{
			"type": "node",
			"id": 1356260631,
			"lat": 7.8699431,
			"lon": 29.6667897,
			"tags": {
				"name:pl": "Sudan Południowy"
			}
		},
		{
			"type": "node",
			"id": 1363947712,
			"lat": 46.603354,
			"lon": 1.8883335,
			"tags": {
				"name:pl": "Francja"
			}
		},
		{
			"type": "node",
			"id": 1388794217,
			"lat": -25.0657719,
			"lon": -130.1017823,
			"tags": {
				"name:pl": "Wyspy Pitcairn"
			}
		},
		{
			"type": "node",
			"id": 1420871007,
			"lat": 52.865196,
			"lon": -7.9794599,
			"tags": {
				"name:pl": "Irlandia"
			}
		},
		{
			"type": "node",
			"id": 1504546320,
			"lat": 46.7985624,
			"lon": 8.2319736,
			"tags": {
				"name:pl": "Szwajcaria"
			}
		},
		{
			"type": "node",
			"id": 1511934680,
			"lat": 6.097367,
			"lon": 133.313631,
			"tags": {
				"name:pl": "Palau"
			}
		},
		{
			"type": "node",
			"id": 1529444079,
			"lat": -13.7693895,
			"lon": -172.1200508,
			"tags": {
				"name:pl": "Samoa"
			}
		},
		{
			"type": "node",
			"id": 1602889766,
			"lat": 54.1936805,
			"lon": -4.5591148,
			"tags": {
				"name:pl": "Wyspa Man"
			}
		},
		{
			"type": "node",
			"id": 1607605918,
			"lat": 49.580437,
			"lon": -2.484854,
			"tags": {
				"name:pl": "Guernsey"
			}
		},
		{
			"type": "node",
			"id": 1640880787,
			"lat": -18.4554963,
			"lon": 29.7468414,
			"tags": {
				"name:pl": "Zimbabwe"
			}
		},
		{
			"type": "node",
			"id": 1644732479,
			"lat": 15.6356088,
			"lon": -89.8988087,
			"tags": {
				"name:pl": "Gwatemala"
			}
		},
		{
			"type": "node",
			"id": 1644764586,
			"lat": -23.3165935,
			"lon": -58.1693445,
			"tags": {
				"name:pl": "Paragwaj"
			}
		},
		{
			"type": "node",
			"id": 1648342273,
			"lat": 49.4871968,
			"lon": 31.2718321,
			"tags": {
				"name:pl": "Ukraina"
			}
		},
		{
			"type": "node",
			"id": 1683325355,
			"lat": 51.0834196,
			"lon": 10.4234469,
			"tags": {
				"name:pl": "Niemcy"
			}
		},
		{
			"type": "node",
			"id": 1684793666,
			"lat": 50.6402809,
			"lon": 4.6667145,
			"tags": {
				"name:pl": "Belgia"
			}
		},
		{
			"type": "node",
			"id": 1694010854,
			"lat": 4.4137155,
			"lon": 114.5653908,
			"tags": {
				"name:pl": "Brunei"
			}
		},
		{
			"type": "node",
			"id": 1696850886,
			"lat": 42.3476344,
			"lon": 44.0979465,
			"tags": {
				"name:pl": "Osetia Południowa"
			}
		},
		{
			"type": "node",
			"id": 1696853468,
			"lat": 39.8079192,
			"lon": 46.6977209,
			"tags": {
				"name:pl": "Górski Karabach"
			}
		},
		{
			"type": "node",
			"id": 1696874354,
			"lat": 35.2245313,
			"lon": 33.6252379,
			"tags": {
				"name:pl": "Cypr Północny"
			}
		},
		{
			"type": "node",
			"id": 1700777271,
			"lat": 41.5089324,
			"lon": 74.724091,
			"tags": {
				"name:pl": "Kirgistan"
			}
		},
		{
			"type": "node",
			"id": 1708980402,
			"lat": -20.2759451,
			"lon": 57.5703566,
			"tags": {
				"name:pl": "Mauritius"
			}
		},
		{
			"type": "node",
			"id": 1770467684,
			"lat": 12.5013629,
			"lon": -69.9618475,
			"tags": {
				"name:pl": "Aruba"
			}
		},
		{
			"type": "node",
			"id": 1983711862,
			"lat": 44.3053476,
			"lon": 17.5961467,
			"tags": {
				"name:pl": "Bośnia i Hercegowina"
			}
		},
		{
			"type": "node",
			"id": 2043451343,
			"lat": 47.192292,
			"lon": 29.397413,
			"tags": {
				"name:pl": "Naddniestrze"
			}
		},
		{
			"type": "node",
			"id": 2110225115,
			"lat": 31.649741,
			"lon": 35.162072,
			"tags": {
				"name:pl": "Palestyna"
			}
		},
		{
			"type": "node",
			"id": 2134362766,
			"lat": 2.3923759,
			"lon": 112.8471939,
			"tags": {
				"name:pl": "Malezja"
			}
		},
		{
			"type": "node",
			"id": 2163914205,
			"lat": 10.2116702,
			"lon": 38.6521203,
			"tags": {
				"name:pl": "Etiopia"
			}
		},
		{
			"type": "node",
			"id": 2377028247,
			"lat": 40.0332629,
			"lon": -7.8896263,
			"tags": {
				"name:pl": "Portugalia"
			}
		},
		{
			"type": "node",
			"id": 3491215388,
			"lat": -29.6039267,
			"lon": 28.3350193,
			"tags": {
				"name:pl": "Lesotho"
			}
		},
		{
			"type": "node",
			"id": 3696525426,
			"lat": 47.1416307,
			"lon": 9.5531527,
			"tags": {
				"name:pl": "Liechtenstein"
			}
		},
		{
			"type": "node",
			"id": 4076524861,
			"lat": 35.8885993,
			"lon": 14.4476911,
			"tags": {
				"name:pl": "Malta"
			}
		},
		{
			"type": "node",
			"id": 4366234392,
			"lat": 42.5869578,
			"lon": 20.9021231,
			"tags": {
				"name:pl": "Kosowo"
			}
		},
		{
			"type": "node",
			"id": 5980117507,
			"lat": 7.5554942,
			"lon": 80.7137847,
			"tags": {
				"name:pl": "Sri Lanka"
			}
		}
	]
}