{
	"version": 0.6,
	"generator": "Overpass API 0.7.55.7 8b86ff77",
	"osm3s": {
		"timestamp_osm_base": "2019-11-06T06:49:02Z",
		"copyright": "The data included in this document is from www.openstreetmap.org. The data is made available under ODbL."
	},
	"elements": [
		{
			"type": "node",
			"id": 249399423,
			"lat": -15.9694573,
			"lon": -5.7129442,
			"tags": {
				"name:pl": "Wyspa Świętej Heleny"
			}
		},
		{
			"type": "node",
			"id": 305257315,
			"lat": -19.7092,
			"lon": 63.4425995,
			"tags": {
				"name:pl": "Rodrigues"
			}
		},
		{
			"type": "node",
			"id": 1216810344,
			"lat": 12.4580508,
			"lon": 53.8502275,
			"tags": {
				"name:pl": "Sokotra"
			}
		},
		{
			"type": "node",
			"id": 1607605918,
			"lat": 49.580437,
			"lon": -2.484854,
			"tags": {
				"name:pl": "Guernsey"
			}
		},
		{
			"type": "node",
			"id": 2136192026,
			"lat": 38.2379344,
			"lon": 20.560883,
			"tags": {
				"name:pl": "Kefalinia"
			}
		},
		{
			"type": "node",
			"id": 3701930878,
			"lat": 53.8600122,
			"lon": 23.0976306,
			"tags": {
				"name:pl": "Studena"
			}
		},
		{
			"type": "node",
			"id": 4076777486,
			"lat": -21.4814206,
			"lon": 39.6839546,
			"tags": {
				"name:pl": "Bassas da India"
			}
		},
		{
			"type": "way",
			"id": 2956897,
			"center": {
				"lat": 49.472826,
				"lon": -2.4494282
			},
			"tags": {
				"name:pl": "Herm"
			}
		},
		{
			"type": "way",
			"id": 2956937,
			"center": {
				"lat": 49.4283498,
				"lon": -2.3626232
			},
			"tags": {
				"name:pl": "Sark"
			}
		},
		{
			"type": "way",
			"id": 3404730,
			"center": {
				"lat": 49.7170108,
				"lon": -2.1967546
			},
			"tags": {
				"name:pl": "Alderney"
			}
		},
		{
			"type": "way",
			"id": 9884465,
			"center": {
				"lat": 16.8496081,
				"lon": -24.9727146
			},
			"tags": {
				"name:pl": "São Vicente"
			}
		},
		{
			"type": "way",
			"id": 10228601,
			"center": {
				"lat": 40.4940742,
				"lon": 19.2787794
			},
			"tags": {
				"name:pl": "Sazan"
			}
		},
		{
			"type": "way",
			"id": 20747781,
			"center": {
				"lat": 65.7546497,
				"lon": -168.9252269
			},
			"tags": {
				"name:pl": "Mała Diomeda"
			}
		},
		{
			"type": "way",
			"id": 25576359,
			"center": {
				"lat": -46.9024299,
				"lon": 37.7444352
			},
			"tags": {
				"name:pl": "Wyspa Mariona"
			}
		},
		{
			"type": "way",
			"id": 25576378,
			"center": {
				"lat": -46.6365776,
				"lon": 37.9379341
			},
			"tags": {
				"name:pl": "Wyspa Księcia Edwarda"
			}
		},
		{
			"type": "way",
			"id": 30964965,
			"center": {
				"lat": 54.1715657,
				"lon": 21.6727025
			},
			"tags": {
				"name:pl": "Upałty"
			}
		},
		{
			"type": "way",
			"id": 37356202,
			"center": {
				"lat": 43.0833078,
				"lon": -79.0701488
			},
			"tags": {
				"name:pl": "Księżycowa Wyspa"
			}
		},
		{
			"type": "way",
			"id": 37678145,
			"center": {
				"lat": 22.0480124,
				"lon": -81.3778679
			},
			"tags": {
				"name:pl": "Wyspa Ernsta Thälmanna"
			}
		},
		{
			"type": "way",
			"id": 131896329,
			"center": {
				"lat": 54.3716984,
				"lon": 18.6543378
			},
			"tags": {
				"name:pl": "Ostrów"
			}
		},
		{
			"type": "way",
			"id": 159967936,
			"center": {
				"lat": 72.8921459,
				"lon": 79.0924408
			},
			"tags": {
				"name:pl": "Wyspa Sibiriakowa"
			}
		},
		{
			"type": "way",
			"id": 174996681,
			"center": {
				"lat": -54.4197463,
				"lon": 3.3595708
			},
			"tags": {
				"name:pl": "Wyspa Bouveta"
			}
		},
		{
			"type": "way",
			"id": 175513085,
			"center": {
				"lat": 44.8392457,
				"lon": 14.8205912
			},
			"tags": {
				"name:pl": "Naga Wyspa"
			}
		},
		{
			"type": "way",
			"id": 176327900,
			"center": {
				"lat": 54.3523647,
				"lon": 18.6617712
			},
			"tags": {
				"name:pl": "Ołowianka"
			}
		},
		{
			"type": "way",
			"id": 188546159,
			"center": {
				"lat": -53.0781361,
				"lon": 73.5639085
			},
			"tags": {
				"name:pl": "Wyspa Heard"
			}
		},
		{
			"type": "way",
			"id": 191502696,
			"center": {
				"lat": 32.6276898,
				"lon": 129.7383031
			},
			"tags": {
				"name:pl": "Hashima"
			}
		},
		{
			"type": "way",
			"id": 193412500,
			"center": {
				"lat": 11.5547518,
				"lon": 92.2408314
			},
			"tags": {
				"name:pl": "Sentinel Północny"
			}
		},
		{
			"type": "way",
			"id": 205677618,
			"center": {
				"lat": 79.9643763,
				"lon": 50.2005605
			},
			"tags": {
				"name:pl": "Wyspa Jurija Kuczijewa"
			}
		},
		{
			"type": "way",
			"id": 239644298,
			"center": {
				"lat": 25.1801305,
				"lon": 62.2671857
			},
			"tags": {
				"name:pl": "Przyjaźni Polsko-Pakistańskiej"
			}
		},
		{
			"type": "way",
			"id": 279649736,
			"center": {
				"lat": 79.5773765,
				"lon": 76.8372092
			},
			"tags": {
				"name:pl": "Wyspa Wize"
			}
		},
		{
			"type": "way",
			"id": 306043151,
			"center": {
				"lat": 53.5477548,
				"lon": 14.5937444
			},
			"tags": {
				"name:pl": "Polickie Łąki"
			}
		},
		{
			"type": "way",
			"id": 329186455,
			"center": {
				"lat": 53.5414152,
				"lon": 14.6131604
			},
			"tags": {
				"name:pl": "Skolwiński Ostrów"
			}
		},
		{
			"type": "way",
			"id": 329304454,
			"center": {
				"lat": 53.48724,
				"lon": 14.6208483
			},
			"tags": {
				"name:pl": "Dębina"
			}
		},
		{
			"type": "way",
			"id": 343725730,
			"center": {
				"lat": 53.4512256,
				"lon": 14.5923153
			},
			"tags": {
				"name:pl": "Ostrów Brdowski"
			}
		},
		{
			"type": "way",
			"id": 610200371,
			"center": {
				"lat": 55.791359,
				"lon": 27.4668461
			},
			"tags": {
				"name:pl": "wyspa Ojców Bernardynów"
			}
		},
		{
			"type": "relation",
			"id": 147194,
			"center": {
				"lat": 58.8901663,
				"lon": 22.5538672
			},
			"tags": {
				"name:pl": "Hiuma"
			}
		},
		{
			"type": "relation",
			"id": 156166,
			"center": {
				"lat": -7.9415,
				"lon": -14.3578511
			},
			"tags": {
				"name:pl": "Wyspa Wniebowstąpienia"
			}
		},
		{
			"type": "relation",
			"id": 188921,
			"center": {
				"lat": -62.0761153,
				"lon": -58.3056164
			},
			"tags": {
				"name:pl": "Wyspa Króla Jerzego"
			}
		},
		{
			"type": "relation",
			"id": 189881,
			"center": {
				"lat": 57.8024392,
				"lon": 23.2433039
			},
			"tags": {
				"name:pl": "Ruhnu"
			}
		},
		{
			"type": "relation",
			"id": 376677,
			"center": {
				"lat": 60.2459236,
				"lon": -1.3765687
			},
			"tags": {
				"name:pl": "Szetlandy"
			}
		},
		{
			"type": "relation",
			"id": 452614,
			"center": {
				"lat": 36.1675491,
				"lon": 27.9656002
			},
			"tags": {
				"name:pl": "Rodos"
			}
		},
		{
			"type": "relation",
			"id": 453129,
			"center": {
				"lat": 35.3084733,
				"lon": 24.9168204
			},
			"tags": {
				"name:pl": "Kreta"
			}
		},
		{
			"type": "relation",
			"id": 531990,
			"center": {
				"lat": 37.6048351,
				"lon": 24.3375492
			},
			"tags": {
				"name:pl": "Keos"
			}
		},
		{
			"type": "relation",
			"id": 532001,
			"center": {
				"lat": 37.1593679,
				"lon": 24.4760435
			},
			"tags": {
				"name:pl": "Serifos"
			}
		},
		{
			"type": "relation",
			"id": 537592,
			"center": {
				"lat": 40.4512551,
				"lon": 25.5715165
			},
			"tags": {
				"name:pl": "Samotraka"
			}
		},
		{
			"type": "relation",
			"id": 861780,
			"center": {
				"lat": 34.8366892,
				"lon": 24.084496
			},
			"tags": {
				"name:pl": "Gawdos"
			}
		},
		{
			"type": "relation",
			"id": 898904,
			"center": {
				"lat": 34.8733206,
				"lon": 24.0755639
			},
			"tags": {
				"name:pl": "Prasonisi"
			}
		},
		{
			"type": "relation",
			"id": 910860,
			"center": {
				"lat": -54.8147931,
				"lon": -64.2767338
			},
			"tags": {
				"name:pl": "Wyspa Stanów"
			}
		},
		{
			"type": "relation",
			"id": 1124190,
			"center": {
				"lat": 78.3110804,
				"lon": 16.074166
			},
			"tags": {
				"name:pl": "Spitsbergen"
			}
		},
		{
			"type": "relation",
			"id": 1188484,
			"center": {
				"lat": 73.07443,
				"lon": -93.007125
			},
			"tags": {
				"name:pl": "Wyspa Somerset"
			}
		},
		{
			"type": "relation",
			"id": 1281377,
			"center": {
				"lat": 75.135627,
				"lon": -95.0074075
			},
			"tags": {
				"name:pl": "Wyspa Cornwallisa"
			}
		},
		{
			"type": "relation",
			"id": 1390077,
			"center": {
				"lat": 43.7954048,
				"lon": 146.752262
			},
			"tags": {
				"name:pl": "Szykotan"
			}
		},
		{
			"type": "relation",
			"id": 1434381,
			"center": {
				"lat": 54.4529463,
				"lon": 13.4402658
			},
			"tags": {
				"name:pl": "Rugia"
			}
		},
		{
			"type": "relation",
			"id": 1438905,
			"center": {
				"lat": -46.9867157,
				"lon": 167.8382416
			},
			"tags": {
				"name:pl": "Wyspa Stewart"
			}
		},
		{
			"type": "relation",
			"id": 1576083,
			"center": {
				"lat": 59.9364336,
				"lon": 30.2427425
			},
			"tags": {
				"name:pl": "Wyspa Wasilijewska"
			}
		},
		{
			"type": "relation",
			"id": 1577075,
			"center": {
				"lat": 12.5075061,
				"lon": 53.919786
			},
			"tags": {
				"name:pl": "Sokotra"
			}
		},
		{
			"type": "relation",
			"id": 1656491,
			"center": {
				"lat": 75.6213272,
				"lon": -111.50825
			},
			"tags": {
				"name:pl": "Wyspa Melville’a"
			}
		},
		{
			"type": "relation",
			"id": 1656492,
			"center": {
				"lat": 79.6215982,
				"lon": -76.4963434
			},
			"tags": {
				"name:pl": "Wyspa Ellesmere’a"
			}
		},
		{
			"type": "relation",
			"id": 1656494,
			"center": {
				"lat": 76.6866965,
				"lon": -119.1602012
			},
			"tags": {
				"name:pl": "Wyspa Księcia Patryka"
			}
		},
		{
			"type": "relation",
			"id": 1769123,
			"center": {
				"lat": 1.3408483,
				"lon": 103.8246336
			},
			"tags": {
				"name:pl": "Singapur"
			}
		},
		{
			"type": "relation",
			"id": 1844217,
			"center": {
				"lat": -77.5108145,
				"lon": 167.749991
			},
			"tags": {
				"name:pl": "Wyspa Rossa"
			}
		},
		{
			"type": "relation",
			"id": 1866564,
			"center": {
				"lat": 71.1867128,
				"lon": 0.5968593
			},
			"tags": {
				"name:pl": "Wyspa Wrangla"
			}
		},
		{
			"type": "relation",
			"id": 1867769,
			"center": {
				"lat": 74.3137451,
				"lon": 112.4878867
			},
			"tags": {
				"name:pl": "Wyspa Biegiczewa"
			}
		},
		{
			"type": "relation",
			"id": 1867826,
			"center": {
				"lat": 73.2377957,
				"lon": 70.8119094
			},
			"tags": {
				"name:pl": "Wyspa Biała"
			}
		},
		{
			"type": "relation",
			"id": 1867828,
			"center": {
				"lat": 73.5445259,
				"lon": 141.6927927
			},
			"tags": {
				"name:pl": "Wielka Wyspa Lachowska"
			}
		},
		{
			"type": "relation",
			"id": 1867829,
			"center": {
				"lat": 75.4187251,
				"lon": 141.1663554
			},
			"tags": {
				"name:pl": "Kotielnyj"
			}
		},
		{
			"type": "relation",
			"id": 1867831,
			"center": {
				"lat": 75.1580266,
				"lon": 148.5398644
			},
			"tags": {
				"name:pl": "Nowa Syberia"
			}
		},
		{
			"type": "relation",
			"id": 1869738,
			"center": {
				"lat": 75.1166462,
				"lon": 61.3834292
			},
			"tags": {
				"name:pl": "Wyspa Północna"
			}
		},
		{
			"type": "relation",
			"id": 1869739,
			"center": {
				"lat": 71.9832928,
				"lon": 54.5237901
			},
			"tags": {
				"name:pl": "Wyspa Południowa"
			}
		},
		{
			"type": "relation",
			"id": 1903511,
			"center": {
				"lat": -21.2355711,
				"lon": 165.5143555
			},
			"tags": {
				"name:pl": "Nowa Kaledonia"
			}
		},
		{
			"type": "relation",
			"id": 2103185,
			"center": {
				"lat": 44.9906429,
				"lon": 147.8760818
			},
			"tags": {
				"name:pl": "Iturup"
			}
		},
		{
			"type": "relation",
			"id": 2108882,
			"center": {
				"lat": 28.3017351,
				"lon": -16.5226549
			},
			"tags": {
				"name:pl": "Teneryfa"
			}
		},
		{
			"type": "relation",
			"id": 2130352,
			"center": {
				"lat": -8.4560102,
				"lon": 115.071516
			},
			"tags": {
				"name:pl": "Bali"
			}
		},
		{
			"type": "relation",
			"id": 2177440,
			"center": {
				"lat": 65.0639176,
				"lon": 35.6907035
			},
			"tags": {
				"name:pl": "Wyspa Sołowiecka"
			}
		},
		{
			"type": "relation",
			"id": 2214683,
			"center": {
				"lat": 27.958005,
				"lon": -15.5964678
			},
			"tags": {
				"name:pl": "Gran Canaria"
			}
		},
		{
			"type": "relation",
			"id": 2246025,
			"center": {
				"lat": 50.3838992,
				"lon": 155.6852424
			},
			"tags": {
				"name:pl": "Paramuszyr"
			}
		},
		{
			"type": "relation",
			"id": 2283488,
			"center": {
				"lat": 65.7817295,
				"lon": -169.0589327
			},
			"tags": {
				"name:pl": "Wyspa Ratmanowa"
			}
		},
		{
			"type": "relation",
			"id": 2283489,
			"center": {
				"lat": 63.3622161,
				"lon": -170.267015
			},
			"tags": {
				"name:pl": "Wyspa Świętego Wawrzyńca"
			}
		},
		{
			"type": "relation",
			"id": 2287617,
			"center": {
				"lat": 12.5375789,
				"lon": -81.7114697
			},
			"tags": {
				"name:pl": "San Andrés (wyspa)"
			}
		},
		{
			"type": "relation",
			"id": 2386068,
			"center": {
				"lat": -29.0289934,
				"lon": 167.9556525
			},
			"tags": {
				"name:pl": "Wyspa Norfolk"
			}
		},
		{
			"type": "relation",
			"id": 2409701,
			"center": {
				"lat": 44.0847169,
				"lon": 145.9892046
			},
			"tags": {
				"name:pl": "Kunaszyr"
			}
		},
		{
			"type": "relation",
			"id": 2433450,
			"center": {
				"lat": 54.6829408,
				"lon": 167.7697893
			},
			"tags": {
				"name:pl": "Wyspa Miedziana"
			}
		},
		{
			"type": "relation",
			"id": 2700704,
			"center": {
				"lat": 80.9166707,
				"lon": 63.9397553
			},
			"tags": {
				"name:pl": "Wyspa Grahama Bella"
			}
		},
		{
			"type": "relation",
			"id": 2717326,
			"center": {
				"lat": -49.3556741,
				"lon": -74.9176756
			},
			"tags": {
				"name:pl": "Wellington"
			}
		},
		{
			"type": "relation",
			"id": 2795087,
			"center": {
				"lat": 50.7486327,
				"lon": 156.3435452
			},
			"tags": {
				"name:pl": "Szumszu"
			}
		},
		{
			"type": "relation",
			"id": 2906044,
			"center": {
				"lat": 33.5608481,
				"lon": 133.382188
			},
			"tags": {
				"name:pl": "Sikoku"
			}
		},
		{
			"type": "relation",
			"id": 2921544,
			"center": {
				"lat": 22.657582,
				"lon": 121.4880792
			},
			"tags": {
				"name:pl": "Lü Dao"
			}
		},
		{
			"type": "relation",
			"id": 2968182,
			"center": {
				"lat": -61.1679115,
				"lon": -55.0634659
			},
			"tags": {
				"name:pl": "Wyspa Słoniowa"
			}
		},
		{
			"type": "relation",
			"id": 3019029,
			"center": {
				"lat": -5.16909,
				"lon": 39.7539284
			},
			"tags": {
				"name:pl": "Pemba"
			}
		},
		{
			"type": "relation",
			"id": 3067603,
			"center": {
				"lat": 35.51113,
				"lon": 12.5757642
			},
			"tags": {
				"name:pl": "Lampedusa"
			}
		},
		{
			"type": "relation",
			"id": 3134562,
			"center": {
				"lat": -54.6318119,
				"lon": 158.8625822
			},
			"tags": {
				"name:pl": "Wyspa Macquarie"
			}
		},
		{
			"type": "relation",
			"id": 3182527,
			"center": {
				"lat": -51.7965833,
				"lon": -58.7253051
			},
			"tags": {
				"name:pl": "Falkland Wschodni"
			}
		},
		{
			"type": "relation",
			"id": 3182529,
			"center": {
				"lat": -51.7978468,
				"lon": -60.1361359
			},
			"tags": {
				"name:pl": "Falkland Zachodni"
			}
		},
		{
			"type": "relation",
			"id": 3241667,
			"center": {
				"lat": 81.774103,
				"lon": 58.6051449
			},
			"tags": {
				"name:pl": "Wyspa Rudolfa"
			}
		},
		{
			"type": "relation",
			"id": 3259001,
			"center": {
				"lat": 42.7902419,
				"lon": 10.2732903
			},
			"tags": {
				"name:pl": "Elba"
			}
		},
		{
			"type": "relation",
			"id": 3263732,
			"center": {
				"lat": 35.1291767,
				"lon": 33.4288766
			},
			"tags": {
				"name:pl": "Cypr"
			}
		},
		{
			"type": "relation",
			"id": 3387931,
			"center": {
				"lat": 27.0679183,
				"lon": 56.4613023
			},
			"tags": {
				"name:pl": "Ormuz"
			}
		},
		{
			"type": "relation",
			"id": 3503908,
			"center": {
				"lat": 81.1308542,
				"lon": 90.8949009
			},
			"tags": {
				"name:pl": "Wyspa Szmidta"
			}
		},
		{
			"type": "relation",
			"id": 3507459,
			"center": {
				"lat": 80.6363471,
				"lon": 94.7763639
			},
			"tags": {
				"name:pl": "Komsomolec"
			}
		},
		{
			"type": "relation",
			"id": 3521369,
			"center": {
				"lat": 79.8742032,
				"lon": 92.430761
			},
			"tags": {
				"name:pl": "Pionier"
			}
		},
		{
			"type": "relation",
			"id": 3538209,
			"center": {
				"lat": -27.1259619,
				"lon": -109.3387201
			},
			"tags": {
				"name:pl": "Wyspa Wielkanocna"
			}
		},
		{
			"type": "relation",
			"id": 3542196,
			"center": {
				"lat": 79.4686232,
				"lon": 96.5057918
			},
			"tags": {
				"name:pl": "Wyspa Rewolucji Październikowej"
			}
		},
		{
			"type": "relation",
			"id": 3557184,
			"center": {
				"lat": 78.6744524,
				"lon": 102.4252488
			},
			"tags": {
				"name:pl": "Bolszewik"
			}
		},
		{
			"type": "relation",
			"id": 3687460,
			"center": {
				"lat": -10.5788318,
				"lon": 142.2198964
			},
			"tags": {
				"name:pl": "Wyspa Thursday"
			}
		},
		{
			"type": "relation",
			"id": 3764161,
			"center": {
				"lat": 12.1608582,
				"lon": 123.6085874
			},
			"tags": {
				"name:pl": "Masbate"
			}
		},
		{
			"type": "relation",
			"id": 3791269,
			"center": {
				"lat": 53.9907623,
				"lon": 14.044396
			},
			"tags": {
				"name:pl": "Uznam"
			}
		},
		{
			"type": "relation",
			"id": 3873481,
			"center": {
				"lat": -33.6444743,
				"lon": -78.8591275
			},
			"tags": {
				"name:pl": "Wyspa Robinsona Crusoe"
			}
		},
		{
			"type": "relation",
			"id": 3958537,
			"center": {
				"lat": 72.6158293,
				"lon": -99.5101621
			},
			"tags": {
				"name:pl": "Wyspa Księcia Walii"
			}
		},
		{
			"type": "relation",
			"id": 3958580,
			"center": {
				"lat": 69.1793252,
				"lon": -97.351005
			},
			"tags": {
				"name:pl": "Wyspa Króla Williama"
			}
		},
		{
			"type": "relation",
			"id": 3958587,
			"center": {
				"lat": 67.775975,
				"lon": -76.1442
			},
			"tags": {
				"name:pl": "Wyspa Księcia Karola"
			}
		},
		{
			"type": "relation",
			"id": 3986157,
			"center": {
				"lat": -43.5866806,
				"lon": 170.3707081
			},
			"tags": {
				"name:pl": "Wyspa Południowa"
			}
		},
		{
			"type": "relation",
			"id": 3987424,
			"center": {
				"lat": 50.1591908,
				"lon": 143.187038
			},
			"tags": {
				"name:pl": "Sachalin"
			}
		},
		{
			"type": "relation",
			"id": 4096900,
			"center": {
				"lat": -11.5761081,
				"lon": 130.3307956
			},
			"tags": {
				"name:pl": "Wyspa Bathursta"
			}
		},
		{
			"type": "relation",
			"id": 4096902,
			"center": {
				"lat": -11.5520813,
				"lon": 130.95365
			},
			"tags": {
				"name:pl": "Wyspa Melville'a"
			}
		},
		{
			"type": "relation",
			"id": 4176597,
			"center": {
				"lat": 55.0207904,
				"lon": 166.216229
			},
			"tags": {
				"name:pl": "Wyspa Beringa"
			}
		},
		{
			"type": "relation",
			"id": 4565854,
			"center": {
				"lat": -18.6231469,
				"lon": -173.9855157
			},
			"tags": {
				"name:pl": "Vava'u"
			}
		},
		{
			"type": "relation",
			"id": 4805378,
			"center": {
				"lat": 51.3934165,
				"lon": -68.7348558
			},
			"tags": {
				"name:pl": "René-Levasseur"
			}
		},
		{
			"type": "relation",
			"id": 4820433,
			"center": {
				"lat": -7.5735687,
				"lon": 131.4127625
			},
			"tags": {
				"name:pl": "Yamdena"
			}
		},
		{
			"type": "relation",
			"id": 4868269,
			"center": {
				"lat": -15.9656511,
				"lon": -5.7120467
			},
			"tags": {
				"name:pl": "Wyspa Świętej Heleny"
			}
		},
		{
			"type": "relation",
			"id": 5176205,
			"center": {
				"lat": 57.4174163,
				"lon": 18.5947897
			},
			"tags": {
				"name:pl": "Gotlandia"
			}
		},
		{
			"type": "relation",
			"id": 5345940,
			"center": {
				"lat": 72.8194529,
				"lon": -120.6486422
			},
			"tags": {
				"name:pl": "Wyspa Banksa"
			}
		},
		{
			"type": "relation",
			"id": 5389949,
			"center": {
				"lat": 73.3111957,
				"lon": -105.7280453
			},
			"tags": {
				"name:pl": "Wyspa Stefanssona"
			}
		},
		{
			"type": "relation",
			"id": 5546660,
			"center": {
				"lat": 46.2950366,
				"lon": -60.6703937
			},
			"tags": {
				"name:pl": "Cape Breton"
			}
		},
		{
			"type": "relation",
			"id": 5856703,
			"center": {
				"lat": 79.8589087,
				"lon": 22.4743714
			},
			"tags": {
				"name:pl": "Ziemia Północno-Wschodnia"
			}
		},
		{
			"type": "relation",
			"id": 5857216,
			"center": {
				"lat": 70.91936,
				"lon": -109.9853601
			},
			"tags": {
				"name:pl": "Wyspa Wiktorii"
			}
		},
		{
			"type": "relation",
			"id": 6038068,
			"center": {
				"lat": 54.3153877,
				"lon": -2.2324323
			},
			"tags": {
				"name:pl": "Wielka Brytania"
			}
		},
		{
			"type": "relation",
			"id": 6041206,
			"center": {
				"lat": 54.235914,
				"lon": -4.5511849
			},
			"tags": {
				"name:pl": "Wyspa Man"
			}
		},
		{
			"type": "relation",
			"id": 6045326,
			"center": {
				"lat": 53.2781976,
				"lon": -4.3142214
			},
			"tags": {
				"name:pl": "Anglesey"
			}
		},
		{
			"type": "relation",
			"id": 6045346,
			"center": {
				"lat": 53.2855566,
				"lon": -4.6250822
			},
			"tags": {
				"name:pl": "Holy Island"
			}
		},
		{
			"type": "relation",
			"id": 6045364,
			"center": {
				"lat": 53.9521406,
				"lon": -10.0865435
			},
			"tags": {
				"name:pl": "Wyspa Achill"
			}
		},
		{
			"type": "relation",
			"id": 6045382,
			"center": {
				"lat": 55.8241072,
				"lon": -5.111715
			},
			"tags": {
				"name:pl": "Bute",
				"alt_name:pl": "Wyspa Węży"
			}
		},
		{
			"type": "relation",
			"id": 6045552,
			"center": {
				"lat": 53.1204363,
				"lon": -9.7298222
			},
			"tags": {
				"name:pl": "Inis Mór",
				"alt_name:pl": "Árainn Mhór"
			}
		},
		{
			"type": "relation",
			"id": 6046451,
			"center": {
				"lat": 58.2302507,
				"lon": -6.8376938
			},
			"tags": {
				"name:pl": "Bernera",
				"alt_name:pl": "Great Bernera"
			}
		},
		{
			"type": "relation",
			"id": 6046465,
			"center": {
				"lat": 56.4805362,
				"lon": -6.2053896
			},
			"tags": {
				"name:pl": "Ulva"
			}
		},
		{
			"type": "relation",
			"id": 6046479,
			"center": {
				"lat": 51.527637,
				"lon": 0.5727627
			},
			"tags": {
				"name:pl": "Canvey Island"
			}
		},
		{
			"type": "relation",
			"id": 6046655,
			"center": {
				"lat": 52.7568883,
				"lon": -4.7912017
			},
			"tags": {
				"name:pl": "Bardsey Island"
			}
		},
		{
			"type": "relation",
			"id": 6047801,
			"center": {
				"lat": 55.6785071,
				"lon": -1.8166608
			},
			"tags": {
				"name:pl": "Lindisfarne"
			}
		},
		{
			"type": "relation",
			"id": 6077487,
			"center": {
				"lat": -21.4688253,
				"lon": 39.6920358
			},
			"tags": {
				"name:pl": "Bassas da India"
			}
		},
		{
			"type": "relation",
			"id": 6077490,
			"center": {
				"lat": -21.4801651,
				"lon": 39.6874844
			},
			"tags": {
				"name:pl": "Bassas da India"
			}
		},
		{
			"type": "relation",
			"id": 6195069,
			"center": {
				"lat": 5.5281054,
				"lon": -87.0612149
			},
			"tags": {
				"name:pl": "Wyspa Kokosowa"
			}
		},
		{
			"type": "relation",
			"id": 6256784,
			"center": {
				"lat": 46.5207384,
				"lon": 150.873875
			},
			"tags": {
				"name:pl": "Czirpoi"
			}
		},
		{
			"type": "relation",
			"id": 6261264,
			"center": {
				"lat": 48.0802243,
				"lon": 153.2215587
			},
			"tags": {
				"name:pl": "Matua"
			}
		},
		{
			"type": "relation",
			"id": 6369992,
			"center": {
				"lat": -26.2933498,
				"lon": -80.1005379
			},
			"tags": {
				"name:pl": "San Félix"
			}
		},
		{
			"type": "relation",
			"id": 6388640,
			"center": {
				"lat": 53.913271,
				"lon": 14.511859
			},
			"tags": {
				"name:pl": "Wolin"
			}
		},
		{
			"type": "relation",
			"id": 6391626,
			"center": {
				"lat": -7.9411265,
				"lon": -14.3576662
			},
			"tags": {
				"name:pl": "Wyspa Wniebowstąpienia"
			}
		},
		{
			"type": "relation",
			"id": 6571744,
			"center": {
				"lat": -38.0035706,
				"lon": 175.5967189
			},
			"tags": {
				"name:pl": "Wyspa Północna"
			}
		},
		{
			"type": "relation",
			"id": 6803636,
			"center": {
				"lat": 39.6134222,
				"lon": 2.9117387
			},
			"tags": {
				"name:pl": "Majorka"
			}
		},
		{
			"type": "relation",
			"id": 6847723,
			"center": {
				"lat": 40.0615436,
				"lon": 8.9798483
			},
			"tags": {
				"name:pl": "Sardynia"
			}
		},
		{
			"type": "relation",
			"id": 6956667,
			"center": {
				"lat": 49.2123234,
				"lon": -2.1324657
			},
			"tags": {
				"name:pl": "Jersey"
			}
		},
		{
			"type": "relation",
			"id": 7112309,
			"center": {
				"lat": 42.1881326,
				"lon": 9.0500287
			},
			"tags": {
				"name:pl": "Korsyka"
			}
		},
		{
			"type": "relation",
			"id": 7117041,
			"center": {
				"lat": 18.1153384,
				"lon": -77.2759447
			},
			"tags": {
				"name:pl": "Jamajka"
			}
		},
		{
			"type": "relation",
			"id": 7117066,
			"center": {
				"lat": 18.2214242,
				"lon": -66.4306222
			},
			"tags": {
				"name:pl": "Portoryko"
			}
		},
		{
			"type": "relation",
			"id": 7165492,
			"center": {
				"lat": 18.831835,
				"lon": -73.0475309
			},
			"tags": {
				"name:pl": "Gonâve"
			}
		},
		{
			"type": "relation",
			"id": 7168979,
			"center": {
				"lat": 49.1212109,
				"lon": -56.0159605
			},
			"tags": {
				"name:pl": "Nowa Fundlandia"
			}
		},
		{
			"type": "relation",
			"id": 7173836,
			"center": {
				"lat": -1.5342593,
				"lon": 127.7799998
			},
			"tags": {
				"name:pl": "Obi"
			}
		},
		{
			"type": "relation",
			"id": 7174450,
			"center": {
				"lat": -12.3204637,
				"lon": 43.7468344
			},
			"tags": {
				"name:pl": "Moheli"
			}
		},
		{
			"type": "relation",
			"id": 7174451,
			"center": {
				"lat": -11.6525691,
				"lon": 43.3734726
			},
			"tags": {
				"name:pl": "Wielki Komor"
			}
		},
		{
			"type": "relation",
			"id": 7174452,
			"center": {
				"lat": -12.2265794,
				"lon": 44.3725702
			},
			"tags": {
				"name:pl": "Anjouan"
			}
		},
		{
			"type": "relation",
			"id": 7212523,
			"center": {
				"lat": -54.4339275,
				"lon": -36.9073106
			},
			"tags": {
				"name:pl": "Georgia Południowa"
			}
		},
		{
			"type": "relation",
			"id": 7215792,
			"center": {
				"lat": 60.3879905,
				"lon": -64.6300987
			},
			"tags": {
				"name:pl": "Killiniq Island"
			}
		},
		{
			"type": "relation",
			"id": 7219477,
			"center": {
				"lat": -8.5099872,
				"lon": 121.4085702
			},
			"tags": {
				"name:pl": "Flores"
			}
		},
		{
			"type": "relation",
			"id": 7219492,
			"center": {
				"lat": -8.5946843,
				"lon": 117.9539064
			},
			"tags": {
				"name:pl": "Sumbawa"
			}
		},
		{
			"type": "relation",
			"id": 7219605,
			"center": {
				"lat": 23.5982976,
				"lon": 121.0202966
			},
			"tags": {
				"name:pl": "Tajwan"
			}
		},
		{
			"type": "relation",
			"id": 7220452,
			"center": {
				"lat": -10.6870398,
				"lon": 123.115482
			},
			"tags": {
				"name:pl": "Roti"
			}
		},
		{
			"type": "relation",
			"id": 7220474,
			"center": {
				"lat": -1.3987408,
				"lon": 123.1722709
			},
			"tags": {
				"name:pl": "Peleng"
			}
		},
		{
			"type": "relation",
			"id": 7361306,
			"center": {
				"lat": 34.7469983,
				"lon": 11.2198705
			},
			"tags": {
				"name:pl": "Szarki"
			}
		},
		{
			"type": "relation",
			"id": 7504090,
			"center": {
				"lat": -33.7692263,
				"lon": -80.7962304
			},
			"tags": {
				"name:pl": "Alejandro Selkirk"
			}
		},
		{
			"type": "relation",
			"id": 7918839,
			"center": {
				"lat": 46.0370636,
				"lon": 32.8144811
			},
			"tags": {
				"name:pl": "Dżaryłgacz"
			}
		},
		{
			"type": "relation",
			"id": 8159080,
			"center": {
				"lat": -1.4351877,
				"lon": 5.6362593
			},
			"tags": {
				"name:pl": "Pagalu"
			}
		},
		{
			"type": "relation",
			"id": 9382299,
			"center": {
				"lat": 74.4264159,
				"lon": 19.0079928
			},
			"tags": {
				"name:pl": "Wyspa Niedźwiedzia"
			}
		},
		{
			"type": "relation",
			"id": 9518854,
			"center": {
				"lat": -49.1969431,
				"lon": 69.6414596
			},
			"tags": {
				"name:pl": "Wyspa Kerguelena"
			}
		},
		{
			"type": "relation",
			"id": 9604134,
			"center": {
				"lat": 17.629585,
				"lon": -61.8093403
			},
			"tags": {
				"name:pl": "Barbuda wyspa"
			}
		},
		{
			"type": "relation",
			"id": 9845460,
			"center": {
				"lat": 54.3828164,
				"lon": 18.722097
			},
			"tags": {
				"name:pl": "Wyspa Portowa"
			}
		},
		{
			"type": "relation",
			"id": 9845462,
			"center": {
				"lat": 54.3460111,
				"lon": 18.6561979
			},
			"tags": {
				"name:pl": "Wyspa Spichrzów"
			}
		},
		{
			"type": "relation",
			"id": 9911183,
			"center": {
				"lat": 53.9631413,
				"lon": 14.7314242
			},
			"tags": {
				"name:pl": "Wyspa Chrząszczewska"
			}
		}
	]
}