{
	"version": 0.6,
	"generator": "Overpass API 0.7.55.7 8b86ff77",
	"osm3s": {
		"timestamp_osm_base": "2019-11-06T07:11:02Z",
		"copyright": "The data included in this document is from www.openstreetmap.org. The data is made available under ODbL."
	},
	"elements": [
		{
			"type": "node",
			"id": 1500507020,
			"lat": 64.4997558,
			"lon": 40.6879111,
			"tags": {
				"amenity": "atm",
				"contact:phone": "+7 800 5555550",
				"contact:website": "https://www.sberbank.ru/",
				"currency:RUB": "yes",
				"currency:others": "no",
				"language:de": "yes",
				"language:en": "yes",
				"language:es": "yes",
				"language:fi": "yes",
				"language:fr": "yes",
				"language:it": "yes",
				"language:others": "no",
				"language:ru": "yes",
				"language:zh": "yes",
				"name": "Сбербанк",
				"name:en": "Sberbank",
				"name:ru": "Сбербанк",
				"opening_hours": "24/7",
				"operator": "ПАО Сбербанк",
				"ref": "60003554",
				"speech_output:en": "yes",
				"speech_output:other": "no",
				"speech_output:ru": "yes",
				"wheelchair": "yes"
			}
		},
		{
			"type": "node",
			"id": 1744190108,
			"lat": 64.5102577,
			"lon": 40.6640521,
			"tags": {
				"amenity": "atm",
				"contact:phone": "+7 800 5555550",
				"contact:website": "https://www.sberbank.ru/",
				"currency:RUB": "yes",
				"currency:others": "no",
				"language:de": "yes",
				"language:en": "yes",
				"language:es": "yes",
				"language:fi": "yes",
				"language:fr": "yes",
				"language:it": "yes",
				"language:others": "no",
				"language:ru": "yes",
				"language:zh": "yes",
				"level": "1",
				"name": "Сбербанк",
				"name:en": "Sberbank",
				"name:ru": "Сбербанк",
				"opening_hours": "24/7",
				"operator": "ПАО Сбербанк",
				"ref": "60016893",
				"speech_output:en": "yes",
				"speech_output:other": "no",
				"speech_output:ru": "yes",
				"wheelchair": "yes"
			}
		},
		{
			"type": "node",
			"id": 1935776655,
			"lat": 64.538508,
			"lon": 40.5182065,
			"tags": {
				"amenity": "atm",
				"branch": "Северо-Западный банк",
				"cash_in": "yes",
				"contact:phone": "+7 800 5555550",
				"contact:website": "https://www.sberbank.ru/",
				"currency:RUB": "yes",
				"currency:others": "no",
				"language:de": "yes",
				"language:en": "yes",
				"language:es": "yes",
				"language:fi": "yes",
				"language:fr": "yes",
				"language:it": "yes",
				"language:others": "no",
				"language:ru": "yes",
				"language:zh": "yes",
				"name": "Сбербанк",
				"name:en": "Sberbank",
				"name:ru": "Сбербанк",
				"opening_hours": "06:00-23:00",
				"operator": "ПАО Сбербанк",
				"ref": "40344",
				"speech_output:en": "yes",
				"speech_output:other": "no",
				"speech_output:ru": "yes",
				"wheelchair": "no"
			}
		},
		{
			"type": "node",
			"id": 2318664056,
			"lat": 61.0528543,
			"lon": 28.2601704,
			"tags": {
				"addr:city": "Lappeenranta",
				"amenity": "atm",
				"currency:EUR": "yes",
				"language:en": "yes",
				"language:fi": "yes",
				"opening_hours": "24/7"
			}
		},
		{
			"type": "node",
			"id": 2363199966,
			"lat": 64.5357028,
			"lon": 40.5251064,
			"tags": {
				"amenity": "atm",
				"branch": "Северо-Западный банк",
				"cash_in": "yes",
				"contact:phone": "+7 800 5555550",
				"contact:website": "https://www.sberbank.ru/",
				"currency:RUB": "yes",
				"currency:others": "no",
				"language:de": "yes",
				"language:en": "yes",
				"language:es": "yes",
				"language:fi": "yes",
				"language:fr": "yes",
				"language:it": "yes",
				"language:others": "no",
				"language:ru": "yes",
				"language:zh": "yes",
				"name": "Сбербанк",
				"name:en": "Sberbank",
				"name:ru": "Сбербанк",
				"operator": "ПАО Сбербанк",
				"ref": "60003363",
				"speech_output:en": "yes",
				"speech_output:other": "no",
				"speech_output:ru": "yes",
				"wheelchair": "limited"
			}
		},
		{
			"type": "node",
			"id": 2502827329,
			"lat": 64.533124,
			"lon": 40.5886806,
			"tags": {
				"amenity": "atm",
				"branch": "Северо-Западный банк",
				"cash_in": "yes",
				"contact:phone": "+7 800 5555550",
				"contact:website": "https://www.sberbank.ru/",
				"currency:RUB": "yes",
				"currency:others": "no",
				"language:de": "yes",
				"language:en": "yes",
				"language:es": "yes",
				"language:fi": "yes",
				"language:fr": "yes",
				"language:it": "yes",
				"language:others": "no",
				"language:ru": "yes",
				"language:zh": "yes",
				"name": "Сбербанк",
				"name:en": "Sberbank",
				"name:ru": "Сбербанк",
				"opening_hours": "09:00-21:00",
				"operator": "ПАО Сбербанк",
				"ref": "60004245",
				"speech_output:en": "yes",
				"speech_output:other": "no",
				"speech_output:ru": "yes"
			}
		},
		{
			"type": "node",
			"id": 3334770804,
			"lat": 64.5392619,
			"lon": 40.5244307,
			"tags": {
				"amenity": "atm",
				"cash_in": "yes",
				"contact:phone": "+7 800 5555550",
				"contact:website": "https://www.sberbank.ru/",
				"currency:RUB": "yes",
				"currency:others": "no",
				"language:de": "yes",
				"language:en": "yes",
				"language:es": "yes",
				"language:fi": "yes",
				"language:fr": "yes",
				"language:it": "yes",
				"language:others": "no",
				"language:ru": "yes",
				"language:zh": "yes",
				"name": "Сбербанк",
				"name:en": "Sberbank",
				"name:ru": "Сбербанк",
				"opening_hours": "24/7",
				"operator": "ПАО Сбербанк",
				"ref": "60003400",
				"speech_output:en": "yes",
				"speech_output:other": "no",
				"speech_output:ru": "yes",
				"wheelchair": "yes"
			}
		},
		{
			"type": "node",
			"id": 6266059267,
			"lat": 64.5392532,
			"lon": 40.5243272,
			"tags": {
				"amenity": "atm",
				"cash_in": "yes",
				"contact:phone": "+7 800 5555550",
				"contact:website": "https://www.sberbank.ru/",
				"currency:RUB": "yes",
				"currency:others": "no",
				"language:de": "yes",
				"language:en": "yes",
				"language:es": "yes",
				"language:fi": "yes",
				"language:fr": "yes",
				"language:it": "yes",
				"language:others": "no",
				"language:ru": "yes",
				"language:zh": "yes",
				"name": "Сбербанк",
				"name:en": "Sberbank",
				"name:ru": "Сбербанк",
				"opening_hours": "24/7",
				"operator": "ПАО Сбербанк",
				"ref": "11079290",
				"speech_output:en": "yes",
				"speech_output:other": "no",
				"speech_output:ru": "yes",
				"wheelchair": "yes"
			}
		},
		{
			"type": "node",
			"id": 6266059268,
			"lat": 64.5392555,
			"lon": 40.5243614,
			"tags": {
				"amenity": "atm",
				"cash_in": "yes",
				"contact:phone": "+7 800 5555550",
				"contact:website": "https://www.sberbank.ru/",
				"currency:RUB": "yes",
				"currency:others": "no",
				"language:de": "yes",
				"language:en": "yes",
				"language:es": "yes",
				"language:fi": "yes",
				"language:fr": "yes",
				"language:it": "yes",
				"language:others": "no",
				"language:ru": "yes",
				"language:zh": "yes",
				"name": "Сбербанк",
				"name:en": "Sberbank",
				"name:ru": "Сбербанк",
				"opening_hours": "24/7",
				"operator": "ПАО Сбербанк",
				"ref": "11079291",
				"speech_output:en": "yes",
				"speech_output:other": "no",
				"speech_output:ru": "yes",
				"wheelchair": "yes"
			}
		},
		{
			"type": "node",
			"id": 6266059269,
			"lat": 64.5392596,
			"lon": 40.5243936,
			"tags": {
				"amenity": "atm",
				"cash_in": "yes",
				"contact:phone": "+7 800 5555550",
				"contact:website": "https://www.sberbank.ru/",
				"currency:RUB": "yes",
				"currency:others": "no",
				"language:de": "yes",
				"language:en": "yes",
				"language:es": "yes",
				"language:fi": "yes",
				"language:fr": "yes",
				"language:it": "yes",
				"language:others": "no",
				"language:ru": "yes",
				"language:zh": "yes",
				"name": "Сбербанк",
				"name:en": "Sberbank",
				"name:ru": "Сбербанк",
				"opening_hours": "24/7",
				"operator": "ПАО Сбербанк",
				"ref": "11031063",
				"speech_output:en": "yes",
				"speech_output:other": "no",
				"speech_output:ru": "yes",
				"wheelchair": "yes"
			}
		}
	]
}