{
	"version": 0.6,
	"generator": "Overpass API 0.7.55.4 3079d8ea",
	"osm3s": {
		"timestamp_osm_base": "2018-09-20T06:33:02Z",
		"copyright": "The data included in this document is from www.openstreetmap.org. The data is made available under ODbL."
	},
	"elements": [
		{
			"type": "node",
			"id": 316949921,
			"lat": 21.2160437,
			"lon": -157.975203,
			"tags": {
				"name:io": "Havayi"
			}
		},
		{
			"type": "node",
			"id": 424297956,
			"lat": -21.1309332,
			"lon": 55.5265771,
			"tags": {
				"name:io": "Reunion"
			}
		},
		{
			"type": "node",
			"id": 424298155,
			"lat": -13.8173324,
			"lon": -177.1489649,
			"tags": {
				"name:io": "Wallis e Futuna Insuli"
			}
		},
		{
			"type": "node",
			"id": 462226505,
			"lat": -18.6243749,
			"lon": -144.6434898,
			"tags": {
				"name:io": "Franca Polinezia"
			}
		},
		{
			"type": "node",
			"id": 470649732,
			"lat": 56.7861112,
			"lon": -4.1140518,
			"tags": {
				"name:io": "Skotia"
			}
		},
		{
			"type": "node",
			"id": 473831430,
			"lat": 50.9295798,
			"lon": 13.4585052,
			"tags": {
				"name:io": "Saxonia"
			}
		},
		{
			"type": "node",
			"id": 473848012,
			"lat": 48.9467562,
			"lon": 11.4038717,
			"tags": {
				"name:io": "Bavaria"
			}
		},
		{
			"type": "node",
			"id": 473883922,
			"lat": 50.7333163,
			"lon": 11.0747905,
			"tags": {
				"name:io": "Turingia"
			}
		},
		{
			"type": "node",
			"id": 519425071,
			"lat": 51.4785568,
			"lon": 7.5533645,
			"tags": {
				"name:io": "Nordrheno-Vestfalia"
			}
		},
		{
			"type": "node",
			"id": 519436857,
			"lat": 49.7497346,
			"lon": 7.4396553,
			"tags": {
				"name:io": "Rhenlando-Palatenio"
			}
		},
		{
			"type": "node",
			"id": 565666206,
			"lat": 48.6296972,
			"lon": 9.1949534,
			"tags": {
				"name:io": "Badenia-Wurtemberg"
			}
		},
		{
			"type": "node",
			"id": 602512999,
			"lat": 41.8523094,
			"lon": 1.5745043,
			"tags": {
				"name:io": "Katalunia"
			}
		},
		{
			"type": "node",
			"id": 1251610264,
			"lat": 47.6594864,
			"lon": -0.8186143,
			"tags": {
				"name:io": "Lando di Loire"
			}
		},
		{
			"type": "node",
			"id": 1673514242,
			"lat": 52.8398531,
			"lon": 9.075962,
			"tags": {
				"name:io": "Infra-Saxonia"
			}
		},
		{
			"type": "node",
			"id": 1807621457,
			"lat": 51.908526,
			"lon": 11.4939134,
			"tags": {
				"name:io": "Saxonia-Anhalt"
			}
		},
		{
			"type": "node",
			"id": 1971329414,
			"lat": -21.9182856,
			"lon": 144.4588889,
			"tags": {
				"name:io": "Quinslando"
			}
		},
		{
			"type": "node",
			"id": 2000314677,
			"lat": 24.1797324,
			"lon": -13.7667848,
			"tags": {
				"name:io": "Westa Sahara"
			}
		},
		{
			"type": "node",
			"id": 2497852043,
			"lat": 50.6118537,
			"lon": 9.1909725,
			"tags": {
				"name:io": "Hesia"
			}
		},
		{
			"type": "node",
			"id": 2642288017,
			"lat": 52.2928116,
			"lon": -3.73893,
			"tags": {
				"name:io": "Wals"
			}
		},
		{
			"type": "node",
			"id": 2811123364,
			"lat": 5.4091179,
			"lon": -4.0422099,
			"tags": {
				"name:io": "Abidjan"
			}
		},
		{
			"type": "node",
			"id": 3513471346,
			"lat": 42.9911816,
			"lon": -2.5543023,
			"tags": {
				"name:io": "Baskia"
			}
		},
		{
			"type": "node",
			"id": 4347988419,
			"lat": 42.9903482,
			"lon": 142.4962523,
			"tags": {
				"name:io": "Hokkaido"
			}
		},
		{
			"type": "node",
			"id": 4351432485,
			"lat": 13.7538929,
			"lon": 100.8160803,
			"tags": {
				"name:io": "Bangkok"
			}
		}
	]
}