{
	"version": 0.6,
	"generator": "Overpass API",
	"osm3s": {
		"timestamp_osm_base": "2017-05-22T05:46:54Z",
		"copyright": "The data included in this document is from www.openstreetmap.org. The data is made available under ODbL."
	},
	"elements": [
		{
			"type": "node",
			"id": 441183,
			"lat": 37.9841493,
			"lon": 23.7279843,
			"tags": {
				"name:io": "Athina"
			}
		},
		{
			"type": "node",
			"id": 13707878,
			"lat": 55.6867243,
			"lon": 12.5700724,
			"tags": {
				"name:io": "København"
			}
		},
		{
			"type": "node",
			"id": 16173235,
			"lat": 18.9321862,
			"lon": 72.8308337,
			"tags": {
				"name:io": "Mumbai"
			}
		},
		{
			"type": "node",
			"id": 16173236,
			"lat": 28.6138967,
			"lon": 77.2159562,
			"tags": {
				"name:io": "Nova-Delhi"
			}
		},
		{
			"type": "node",
			"id": 20833623,
			"lat": 53.550341,
			"lon": 10.000654,
			"tags": {
				"name:io": "Hamburg"
			}
		},
		{
			"type": "node",
			"id": 20953083,
			"lat": 50.938361,
			"lon": 6.959974,
			"tags": {
				"name:io": "Köln"
			}
		},
		{
			"type": "node",
			"id": 25248662,
			"lat": 39.9059631,
			"lon": 116.391248,
			"tags": {
				"name:io": "Beijing"
			}
		},
		{
			"type": "node",
			"id": 25960293,
			"lat": 35.7006177,
			"lon": 51.401375,
			"tags": {
				"name:io": "Tehran"
			}
		},
		{
			"type": "node",
			"id": 26150422,
			"lat": 50.4501071,
			"lon": 30.5240501,
			"tags": {
				"name:io": "Kyiv"
			}
		},
		{
			"type": "node",
			"id": 26150437,
			"lat": 46.4846583,
			"lon": 30.732564,
			"tags": {
				"name:io": "Odessa"
			}
		},
		{
			"type": "node",
			"id": 26162465,
			"lat": 53.902334,
			"lon": 27.5618791,
			"tags": {
				"name:io": "Minsk"
			}
		},
		{
			"type": "node",
			"id": 26396457,
			"lat": 23.1379911,
			"lon": -82.3658562,
			"tags": {
				"name:io": "Havana"
			}
		},
		{
			"type": "node",
			"id": 26707967,
			"lat": 56.9493977,
			"lon": 24.1051846,
			"tags": {
				"name:io": "Riga"
			}
		},
		{
			"type": "node",
			"id": 27048978,
			"lat": 54.6554783,
			"lon": 19.9110348,
			"tags": {
				"name:io": "Baltiysk"
			}
		},
		{
			"type": "node",
			"id": 27193094,
			"lat": 55.7127529,
			"lon": 21.1350469,
			"tags": {
				"name:io": "Klaipeda"
			}
		},
		{
			"type": "node",
			"id": 27524177,
			"lat": 42.8767446,
			"lon": 74.6069949,
			"tags": {
				"name:io": "Bishkek"
			}
		},
		{
			"type": "node",
			"id": 27524773,
			"lat": 41.3123363,
			"lon": 69.2787079,
			"tags": {
				"name:io": "Tashkent"
			}
		},
		{
			"type": "node",
			"id": 27547977,
			"lat": 38.5763119,
			"lon": 68.7860218,
			"tags": {
				"name:io": "Dushanbe"
			}
		},
		{
			"type": "node",
			"id": 27547986,
			"lat": 47.9184676,
			"lon": 106.9177016,
			"tags": {
				"name:io": "Ulan Bator"
			}
		},
		{
			"type": "node",
			"id": 27564968,
			"lat": 36.800108,
			"lon": 10.184794,
			"tags": {
				"name:io": "Tunizia"
			}
		},
		{
			"type": "node",
			"id": 27565022,
			"lat": 12.1191543,
			"lon": 15.0502758,
			"tags": {
				"name:io": "N'Djamena"
			}
		},
		{
			"type": "node",
			"id": 27565085,
			"lat": 11.593665,
			"lon": 43.14724,
			"tags": {
				"name:io": "Djibuti"
			}
		},
		{
			"type": "node",
			"id": 27565117,
			"lat": 15.593325,
			"lon": 32.53565,
			"tags": {
				"name:io": "Khartoum"
			}
		},
		{
			"type": "node",
			"id": 29090735,
			"lat": 31.7791134,
			"lon": 35.2266286,
			"tags": {
				"name:io": "Ierusalem"
			}
		},
		{
			"type": "node",
			"id": 29980666,
			"lat": 47.0957773,
			"lon": 37.5499333,
			"tags": {
				"name:io": "Mariupol"
			}
		},
		{
			"type": "node",
			"id": 30674098,
			"lat": -23.5506507,
			"lon": -46.6333824,
			"tags": {
				"name:io": "Sao Paulo"
			}
		},
		{
			"type": "node",
			"id": 32013127,
			"lat": 39.0194741,
			"lon": 125.753388,
			"tags": {
				"name:io": "Pyongyang"
			}
		},
		{
			"type": "node",
			"id": 34567423,
			"lat": -15.7934036,
			"lon": -47.8823172,
			"tags": {
				"name:io": "Brasilia"
			}
		},
		{
			"type": "node",
			"id": 34582422,
			"lat": -22.9110137,
			"lon": -43.2093727,
			"tags": {
				"name:io": "Rio de Janeiro"
			}
		},
		{
			"type": "node",
			"id": 34684808,
			"lat": 2.042778,
			"lon": 45.338564,
			"tags": {
				"name:io": "Mogadishu"
			}
		},
		{
			"type": "node",
			"id": 38903284,
			"lat": 26.2235041,
			"lon": 50.5822436,
			"tags": {
				"name:io": "Al Manamah"
			}
		},
		{
			"type": "node",
			"id": 52943358,
			"lat": 49.6112768,
			"lon": 6.129799,
			"tags": {
				"name:io": "Luxemburgia"
			}
		},
		{
			"type": "node",
			"id": 60571493,
			"lat": 44.8178787,
			"lon": 20.4568089,
			"tags": {
				"name:io": "Belgrade"
			}
		},
		{
			"type": "node",
			"id": 62270270,
			"lat": 19.4326009,
			"lon": -99.1333416,
			"tags": {
				"name:io": "México"
			}
		},
		{
			"type": "node",
			"id": 67157058,
			"lat": 27.708796,
			"lon": 85.320244,
			"tags": {
				"name:io": "Katmandu"
			}
		},
		{
			"type": "node",
			"id": 72959652,
			"lat": 41.8933203,
			"lon": 12.4829321,
			"tags": {
				"name:io": "Roma"
			}
		},
		{
			"type": "node",
			"id": 96209423,
			"lat": 44.4361414,
			"lon": 26.1027202,
			"tags": {
				"name:io": "Bucarest"
			}
		},
		{
			"type": "node",
			"id": 129991407,
			"lat": 47.0122737,
			"lon": 28.8605936,
			"tags": {
				"name:io": "Chisinau"
			}
		},
		{
			"type": "node",
			"id": 130040361,
			"lat": 40.1776121,
			"lon": 44.5125849,
			"tags": {
				"name:io": "Yerevan"
			}
		},
		{
			"type": "node",
			"id": 153353016,
			"lat": 39.7683331,
			"lon": -86.1583502,
			"tags": {
				"name:io": "Indianapolis"
			}
		},
		{
			"type": "node",
			"id": 158368533,
			"lat": 38.8949549,
			"lon": -77.0366456,
			"tags": {
				"name:io": "Washington DC"
			}
		},
		{
			"type": "node",
			"id": 163043169,
			"lat": 56.488712,
			"lon": 84.952324,
			"tags": {
				"name:io": "Tomsk"
			}
		},
		{
			"type": "node",
			"id": 191657470,
			"lat": 53.71529,
			"lon": 91.438873,
			"tags": {
				"name:io": "Abakan"
			}
		},
		{
			"type": "node",
			"id": 191698855,
			"lat": 56.1288899,
			"lon": 40.4075203,
			"tags": {
				"name:io": "Vladimir"
			}
		},
		{
			"type": "node",
			"id": 197698100,
			"lat": 9.9325427,
			"lon": -84.0795782,
			"tags": {
				"name:io": "San Jose"
			}
		},
		{
			"type": "node",
			"id": 226881400,
			"lat": 23.5997857,
			"lon": 58.5451305,
			"tags": {
				"name:io": "Muscat"
			}
		},
		{
			"type": "node",
			"id": 240025182,
			"lat": 47.3723957,
			"lon": 8.5423216,
			"tags": {
				"name:io": "Zürich"
			}
		},
		{
			"type": "node",
			"id": 240092010,
			"lat": 47.9960901,
			"lon": 7.8494005,
			"tags": {
				"name:io": "Freiburg im Breisgau"
			}
		},
		{
			"type": "node",
			"id": 240109189,
			"lat": 52.5170365,
			"lon": 13.3888599,
			"tags": {
				"name:io": "Berlin"
			}
		},
		{
			"type": "node",
			"id": 244080443,
			"lat": 23.1387267,
			"lon": 113.319321,
			"tags": {
				"name:io": "Guangzhou"
			}
		},
		{
			"type": "node",
			"id": 246514396,
			"lat": 12.0535331,
			"lon": -61.751805,
			"tags": {
				"name:io": "St Georges"
			}
		},
		{
			"type": "node",
			"id": 246837430,
			"lat": -20.8799889,
			"lon": 55.448137,
			"tags": {
				"name:io": "Saint-Denis"
			}
		},
		{
			"type": "node",
			"id": 246842649,
			"lat": 46.7774872,
			"lon": -56.1767706,
			"tags": {
				"name:io": "St Pierre"
			}
		},
		{
			"type": "node",
			"id": 249854726,
			"lat": -25.2959916,
			"lon": -57.6311196,
			"tags": {
				"name:io": "Asuncion"
			}
		},
		{
			"type": "node",
			"id": 251073791,
			"lat": 44.6054434,
			"lon": 33.5220842,
			"tags": {
				"name:io": "Sevastopol"
			}
		},
		{
			"type": "node",
			"id": 256361847,
			"lat": 55.8792983,
			"lon": 38.7858721,
			"tags": {
				"name:io": "Elektrogorsk"
			}
		},
		{
			"type": "node",
			"id": 256361887,
			"lat": 55.7184467,
			"lon": 38.2228192,
			"tags": {
				"name:io": "Elektrougli"
			}
		},
		{
			"type": "node",
			"id": 257363453,
			"lat": 35.8494916,
			"lon": 128.5599518,
			"tags": {
				"name:io": "Daegu"
			}
		},
		{
			"type": "node",
			"id": 257363455,
			"lat": 36.3326329,
			"lon": 127.3845762,
			"tags": {
				"name:io": "Daejon"
			}
		},
		{
			"type": "node",
			"id": 259862730,
			"lat": 53.811798,
			"lon": 36.137001,
			"tags": {
				"name:io": "Belyov"
			}
		},
		{
			"type": "node",
			"id": 265018692,
			"lat": 35.6828378,
			"lon": 139.7589667,
			"tags": {
				"name:io": "Tokyo"
			}
		},
		{
			"type": "node",
			"id": 271613766,
			"lat": 30.048819,
			"lon": 31.243666,
			"tags": {
				"name:io": "Kairo"
			}
		},
		{
			"type": "node",
			"id": 280982720,
			"lat": 43.9363996,
			"lon": 12.4466991,
			"tags": {
				"name:io": "San Marino"
			}
		},
		{
			"type": "node",
			"id": 291987644,
			"lat": -22.2745264,
			"lon": 166.442419,
			"tags": {
				"name:io": "Noumea"
			}
		},
		{
			"type": "node",
			"id": 295342933,
			"lat": 0.3389242,
			"lon": 6.7313031,
			"tags": {
				"name:io": "Sao Tome"
			}
		},
		{
			"type": "node",
			"id": 298352406,
			"lat": 44.4618046,
			"lon": 39.741048,
			"tags": {
				"name:io": "Apsheronsk"
			}
		},
		{
			"type": "node",
			"id": 299617915,
			"lat": 36.775348,
			"lon": 3.060065,
			"tags": {
				"name:io": "Aljer"
			}
		},
		{
			"type": "node",
			"id": 331136682,
			"lat": 3.8689867,
			"lon": 11.5213344,
			"tags": {
				"name:io": "Yaounde"
			}
		},
		{
			"type": "node",
			"id": 358015143,
			"lat": 35.1799528,
			"lon": 129.0752365,
			"tags": {
				"name:io": "Busan"
			}
		},
		{
			"type": "node",
			"id": 358015168,
			"lat": 35.1491083,
			"lon": 126.8634645,
			"tags": {
				"name:io": "Gwangju"
			}
		},
		{
			"type": "node",
			"id": 360001895,
			"lat": 55.4308841,
			"lon": 37.5453056,
			"tags": {
				"name:io": "Podolsk"
			}
		},
		{
			"type": "node",
			"id": 369487094,
			"lat": 17.4695049,
			"lon": 106.6177781,
			"tags": {
				"name:io": "Dong Hoi"
			}
		},
		{
			"type": "node",
			"id": 415150369,
			"lat": 35.5487857,
			"lon": 129.252024,
			"tags": {
				"name:io": "Ulsan"
			}
		},
		{
			"type": "node",
			"id": 425746989,
			"lat": 17.1184569,
			"lon": -61.8448509,
			"tags": {
				"name:io": "St Johns"
			}
		},
		{
			"type": "node",
			"id": 428339515,
			"lat": 52.2319237,
			"lon": 21.0067265,
			"tags": {
				"name:io": "Warszawa"
			}
		},
		{
			"type": "node",
			"id": 472114145,
			"lat": 14.6417889,
			"lon": -90.5132239,
			"tags": {
				"name:io": "Guatemala-Urbo"
			}
		},
		{
			"type": "node",
			"id": 544060405,
			"lat": 29.3797091,
			"lon": 47.9735629,
			"tags": {
				"name:io": "Kuwait-Urbo"
			}
		},
		{
			"type": "node",
			"id": 671806634,
			"lat": 4.5980478,
			"lon": -74.0760867,
			"tags": {
				"name:io": "Bogota"
			}
		},
		{
			"type": "node",
			"id": 776951938,
			"lat": 19.2953549,
			"lon": -81.3807776,
			"tags": {
				"name:io": "Georgetown"
			}
		},
		{
			"type": "node",
			"id": 778910398,
			"lat": 31.2253441,
			"lon": 121.4888922,
			"tags": {
				"name:io": "Shanghai"
			}
		},
		{
			"type": "node",
			"id": 1046100133,
			"lat": 5.320357,
			"lon": -4.016107,
			"tags": {
				"name:io": "Abidjan"
			}
		},
		{
			"type": "node",
			"id": 1082208696,
			"lat": -21.1343401,
			"lon": -175.2018085,
			"tags": {
				"name:io": "Nuku'alofa"
			}
		},
		{
			"type": "node",
			"id": 1091272140,
			"lat": 33.5130695,
			"lon": 36.3095814,
			"tags": {
				"name:io": "Damascus"
			}
		},
		{
			"type": "node",
			"id": 1147314253,
			"lat": 25.0375167,
			"lon": 121.5637,
			"tags": {
				"name:io": "Taipei"
			}
		},
		{
			"type": "node",
			"id": 1242998122,
			"lat": 8.9714493,
			"lon": -79.5341802,
			"tags": {
				"name:io": "Panama-Urbo"
			}
		},
		{
			"type": "node",
			"id": 1532708613,
			"lat": 47.9102734,
			"lon": 33.3917703,
			"tags": {
				"name:io": "Kryvyi Rih"
			}
		},
		{
			"type": "node",
			"id": 1601837931,
			"lat": 50.0874654,
			"lon": 14.4212535,
			"tags": {
				"name:io": "Praha"
			}
		},
		{
			"type": "node",
			"id": 1614277087,
			"lat": 41.6935247,
			"lon": 44.8015019,
			"tags": {
				"name:io": "Tbilisi"
			}
		},
		{
			"type": "node",
			"id": 1628207792,
			"lat": 13.7542529,
			"lon": 100.493087,
			"tags": {
				"name:io": "Bangkok"
			}
		},
		{
			"type": "node",
			"id": 1635651356,
			"lat": 50.8465573,
			"lon": 4.351697,
			"tags": {
				"name:io": "Bruxel"
			}
		},
		{
			"type": "node",
			"id": 1643945522,
			"lat": 49.5557716,
			"lon": 25.591886,
			"tags": {
				"name:io": "Ternopil"
			}
		},
		{
			"type": "node",
			"id": 1686293227,
			"lat": 55.7507178,
			"lon": 37.6176606,
			"tags": {
				"name:io": "Moskva"
			}
		},
		{
			"type": "node",
			"id": 1698668366,
			"lat": 42.1418541,
			"lon": 24.7499297,
			"tags": {
				"name:io": "Plovdiv"
			}
		},
		{
			"type": "node",
			"id": 1699640925,
			"lat": 32.896672,
			"lon": 13.1777923,
			"tags": {
				"name:io": "Tripoli"
			}
		},
		{
			"type": "node",
			"id": 1700083447,
			"lat": 42.6978151,
			"lon": 23.3221574,
			"tags": {
				"name:io": "Sofiya"
			}
		},
		{
			"type": "node",
			"id": 1790048269,
			"lat": 43.7311424,
			"lon": 7.4197576,
			"tags": {
				"name:io": "Monako"
			}
		},
		{
			"type": "node",
			"id": 1811650017,
			"lat": 37.9396678,
			"lon": 58.3874263,
			"tags": {
				"name:io": "Ashgabat"
			}
		},
		{
			"type": "node",
			"id": 1835254686,
			"lat": 41.3279457,
			"lon": 19.8185323,
			"tags": {
				"name:io": "Tirane"
			}
		},
		{
			"type": "node",
			"id": 1882099475,
			"lat": 41.0096334,
			"lon": 28.9651646,
			"tags": {
				"name:io": "Istanbul"
			}
		},
		{
			"type": "node",
			"id": 2195276463,
			"lat": 6.130419,
			"lon": 1.215829,
			"tags": {
				"name:io": "Lome"
			}
		},
		{
			"type": "node",
			"id": 3442474911,
			"lat": 23.7593572,
			"lon": 90.3788136,
			"tags": {
				"name:io": "Dhaka"
			}
		}
	]
}