{
	"version": 0.6,
	"generator": "Overpass API",
	"osm3s": {
		"timestamp_osm_base": "2017-02-08T08:56:02Z",
		"copyright": "The data included in this document is from www.openstreetmap.org. The data is made available under ODbL."
	},
	"elements": [
		{
			"type": "node",
			"id": 248120384,
			"lat": -41.5000831,
			"lon": 172.8344077,
			"tags": {
				"name:jbo": "zis. poi cnino"
			}
		},
		{
			"type": "node",
			"id": 249399300,
			"lat": 53.4250605,
			"lon": 27.6971358,
			"tags": {
				"name:jbo": "belrus"
			}
		},
		{
			"type": "node",
			"id": 249399347,
			"lat": 47.1817585,
			"lon": 19.5060937,
			"tags": {
				"name:jbo": "madjiar"
			}
		},
		{
			"type": "node",
			"id": 249399361,
			"lat": 40.3123959,
			"lon": 127.399971,
			"tags": {
				"name:jbo": "berti zei .xanguk"
			}
		},
		{
			"type": "node",
			"id": 249399362,
			"lat": 35.3985008,
			"lon": 127.937111,
			"tags": {
				"name:jbo": "snanu zei .xanguk"
			}
		},
		{
			"type": "node",
			"id": 249399394,
			"lat": 4.5693754,
			"lon": 102.2656823,
			"tags": {
				"name:jbo": "mejgu'e"
			}
		},
		{
			"type": "node",
			"id": 249399402,
			"lat": 28.1082107,
			"lon": 84.0917515,
			"tags": {
				"name:jbo": "nepal"
			}
		},
		{
			"type": "node",
			"id": 249399406,
			"lat": -6.8699697,
			"lon": -75.0458515,
			"tags": {
				"name:jbo": "perus"
			}
		},
		{
			"type": "node",
			"id": 249399419,
			"lat": 25.6242618,
			"lon": 42.3528328,
			"tags": {
				"name:jbo": "djogu'e"
			}
		},
		{
			"type": "node",
			"id": 332779764,
			"lat": 16.8259793,
			"lon": -88.7600927,
			"tags": {
				"name:jbo": "beliz"
			}
		},
		{
			"type": "node",
			"id": 424297465,
			"lat": 10.2735633,
			"lon": -84.0739102,
			"tags": {
				"name:jbo": "kostarikas"
			}
		},
		{
			"type": "node",
			"id": 424297629,
			"lat": 15.0610686,
			"lon": -84.5978534,
			"tags": {
				"name:jbo": "onduras"
			}
		},
		{
			"type": "node",
			"id": 424297647,
			"lat": 30.8760272,
			"lon": 35.0015196,
			"tags": {
				"name:jbo": "brogu'e"
			}
		},
		{
			"type": "node",
			"id": 424297742,
			"lat": 33.8750629,
			"lon": 35.843409,
			"tags": {
				"name:jbo": "lu'orgu'e"
			}
		},
		{
			"type": "node",
			"id": 424297773,
			"lat": 55.3500003,
			"lon": 23.7499997,
			"tags": {
				"name:jbo": "lietuvas"
			}
		},
		{
			"type": "node",
			"id": 424298076,
			"lat": 15.6134137,
			"lon": 19.0156172,
			"tags": {
				"name:jbo": "tcad"
			}
		},
		{
			"type": "node",
			"id": 424298150,
			"lat": 13.2904027,
			"lon": 108.4265113,
			"tags": {
				"name:jbo": "vietnam"
			}
		},
		{
			"type": "node",
			"id": 424298167,
			"lat": -28.8166236,
			"lon": 24.991639,
			"tags": {
				"name:jbo": "nanfi'ogu'e"
			}
		},
		{
			"type": "node",
			"id": 424298227,
			"lat": -1.3397668,
			"lon": -79.3666965,
			"tags": {
				"name:jbo": "ekuador"
			}
		},
		{
			"type": "node",
			"id": 424298311,
			"lat": 32.9407496,
			"lon": 52.9471344,
			"tags": {
				"name:jbo": "iran"
			}
		},
		{
			"type": "node",
			"id": 424311104,
			"lat": -31.7613365,
			"lon": -71.3187697,
			"tags": {
				"name:jbo": "tciles"
			}
		},
		{
			"type": "node",
			"id": 424311252,
			"lat": -0.8999695,
			"lon": 11.6899699,
			"tags": {
				"name:jbo": "gabon"
			}
		},
		{
			"type": "node",
			"id": 424311328,
			"lat": 4.8417097,
			"lon": -58.6416891,
			"tags": {
				"name:jbo": "gudjanas"
			}
		},
		{
			"type": "node",
			"id": 424311658,
			"lat": -19.302233,
			"lon": 34.9144977,
			"tags": {
				"name:jbo": "mosambik"
			}
		},
		{
			"type": "node",
			"id": 424311662,
			"lat": -23.2335499,
			"lon": 17.3231107,
			"tags": {
				"name:jbo": "namibias"
			}
		},
		{
			"type": "node",
			"id": 424311802,
			"lat": 13.8000382,
			"lon": -88.9140683,
			"tags": {
				"name:jbo": "salbador"
			}
		},
		{
			"type": "node",
			"id": 424311806,
			"lat": 34.6401861,
			"lon": 39.0494106,
			"tags": {
				"name:jbo": "sixygu'e"
			}
		},
		{
			"type": "node",
			"id": 424311942,
			"lat": -4.7993356,
			"lon": 114.5632032,
			"tags": {
				"name:jbo": "bidgu'e"
			}
		},
		{
			"type": "node",
			"id": 424313428,
			"lat": 1.357107,
			"lon": 103.8194992,
			"tags": {
				"name:jbo": "singapura"
			}
		},
		{
			"type": "node",
			"id": 424313451,
			"lat": 36.5748441,
			"lon": 139.2394179,
			"tags": {
				"name:jbo": "pongu'e"
			}
		},
		{
			"type": "node",
			"id": 424313582,
			"lat": 35.000074,
			"lon": 104.999927,
			"tags": {
				"name:jbo": "jugygu'e"
			}
		},
		{
			"type": "node",
			"id": 424313730,
			"lat": -17.0568696,
			"lon": -64.9912286,
			"tags": {
				"name:jbo": "bolivias"
			}
		},
		{
			"type": "node",
			"id": 424313734,
			"lat": -10.3333333,
			"lon": -53.2,
			"tags": {
				"name:jbo": "razgu'e"
			}
		},
		{
			"type": "node",
			"id": 424313751,
			"lat": -23.1681782,
			"lon": 24.5928742,
			"tags": {
				"name:jbo": "botsuanas"
			}
		},
		{
			"type": "node",
			"id": 424313803,
			"lat": 49.8167003,
			"lon": 15.4749544,
			"tags": {
				"name:jbo": "tcesk.zei gubyseltru"
			}
		},
		{
			"type": "node",
			"id": 424313903,
			"lat": 1.4419683,
			"lon": 38.4313975,
			"tags": {
				"name:jbo": "kenias"
			}
		},
		{
			"type": "node",
			"id": 424313936,
			"lat": 29.2733964,
			"lon": 47.4979476,
			"tags": {
				"name:jbo": "ku,uait"
			}
		},
		{
			"type": "node",
			"id": 424314088,
			"lat": 30.3308401,
			"lon": 71.247499,
			"tags": {
				"name:jbo": "kisygu'e"
			}
		},
		{
			"type": "node",
			"id": 424314123,
			"lat": 8.6400349,
			"lon": -11.8400269,
			"tags": {
				"name:jbo": "sieras. leon"
			}
		},
		{
			"type": "node",
			"id": 424314145,
			"lat": 22.3511148,
			"lon": 78.6677428,
			"tags": {
				"name:jbo": "xingu'e"
			}
		},
		{
			"type": "node",
			"id": 424314335,
			"lat": -6.5247123,
			"lon": 35.7878438,
			"tags": {
				"name:jbo": "tanzanias"
			}
		},
		{
			"type": "node",
			"id": 424314784,
			"lat": 64.9841821,
			"lon": -18.1059013,
			"tags": {
				"name:jbo": "island"
			}
		},
		{
			"type": "node",
			"id": 424314830,
			"lat": 64.6863136,
			"lon": 97.7453061,
			"tags": {
				"name:jbo": "rukygu'e"
			}
		},
		{
			"type": "node",
			"id": 424315932,
			"lat": 4.6125522,
			"lon": 13.1535811,
			"tags": {
				"name:jbo": "kamerun"
			}
		},
		{
			"type": "node",
			"id": 424316018,
			"lat": 26.2540493,
			"lon": 29.2675469,
			"tags": {
				"name:jbo": "misrygu'e"
			}
		},
		{
			"type": "node",
			"id": 424316205,
			"lat": 33.0955793,
			"lon": 44.1749775,
			"tags": {
				"name:jbo": "raksygu'e"
			}
		},
		{
			"type": "node",
			"id": 424316216,
			"lat": 31.1667049,
			"lon": 36.941628,
			"tags": {
				"name:jbo": "jorgu'e"
			}
		},
		{
			"type": "node",
			"id": 424316417,
			"lat": 47.286747,
			"lon": 28.5110236,
			"tags": {
				"name:jbo": "moldovas"
			}
		},
		{
			"type": "node",
			"id": 424316663,
			"lat": 9.6000359,
			"lon": 7.9999721,
			"tags": {
				"name:jbo": "nixerias"
			}
		},
		{
			"type": "node",
			"id": 424316671,
			"lat": 12.3724928,
			"lon": -84.8700308,
			"tags": {
				"name:jbo": "nikaraguas"
			}
		},
		{
			"type": "node",
			"id": 424316758,
			"lat": 8.3096067,
			"lon": -81.3066246,
			"tags": {
				"name:jbo": "panamas"
			}
		},
		{
			"type": "node",
			"id": 424317039,
			"lat": 8.3676771,
			"lon": 49.083416,
			"tags": {
				"name:jbo": "somalias"
			}
		},
		{
			"type": "node",
			"id": 424317406,
			"lat": 1.5333554,
			"lon": 32.2166578,
			"tags": {
				"name:jbo": "ugandas"
			}
		},
		{
			"type": "node",
			"id": 424317935,
			"lat": 39.7837304,
			"lon": -100.4458825,
			"tags": {
				"name:jbo": "mergu'e"
			}
		},
		{
			"type": "node",
			"id": 432424926,
			"lat": 28.0000272,
			"lon": 2.9999825,
			"tags": {
				"name:jbo": "jexygu'e"
			}
		},
		{
			"type": "node",
			"id": 432424937,
			"lat": 24.4768783,
			"lon": 90.2932426,
			"tags": {
				"name:jbo": "begygu'e"
			}
		},
		{
			"type": "node",
			"id": 432424981,
			"lat": 63.2467777,
			"lon": 25.9209164,
			"tags": {
				"name:jbo": "finland"
			}
		},
		{
			"type": "node",
			"id": 432424989,
			"lat": 38.9953683,
			"lon": 21.9877132,
			"tags": {
				"name:jbo": "xesygu'e"
			}
		},
		{
			"type": "node",
			"id": 432425023,
			"lat": 26.8234472,
			"lon": 18.1236723,
			"tags": {
				"name:jbo": "libgu'e"
			}
		},
		{
			"type": "node",
			"id": 432425036,
			"lat": 22.5000485,
			"lon": -100.0000375,
			"tags": {
				"name:jbo": "mexygu'e"
			}
		},
		{
			"type": "node",
			"id": 432425041,
			"lat": 31.1728192,
			"lon": -7.3366043,
			"tags": {
				"name:jbo": "morgu'e"
			}
		},
		{
			"type": "node",
			"id": 432425063,
			"lat": -0.7264327,
			"lon": 15.6419155,
			"tags": {
				"name:jbo": "kongos"
			}
		},
		{
			"type": "node",
			"id": 432425075,
			"lat": 14.4750607,
			"lon": -14.4529612,
			"tags": {
				"name:jbo": "senegal"
			}
		},
		{
			"type": "node",
			"id": 432425087,
			"lat": 4.1413025,
			"lon": -56.0771187,
			"tags": {
				"name:jbo": "surinam"
			}
		},
		{
			"type": "node",
			"id": 432425116,
			"lat": -32.8755548,
			"lon": -56.0201525,
			"tags": {
				"name:jbo": "uruguais"
			}
		},
		{
			"type": "node",
			"id": 432425123,
			"lat": -14.5186239,
			"lon": 27.5599164,
			"tags": {
				"name:jbo": "zambias"
			}
		},
		{
			"type": "node",
			"id": 435981993,
			"lat": -2.9814344,
			"lon": 23.8222636,
			"tags": {
				"name:jbo": "roltrusi'o zei.kongos"
			}
		},
		{
			"type": "node",
			"id": 437146363,
			"lat": 14.8971921,
			"lon": 100.83273,
			"tags": {
				"name:jbo": "tais"
			}
		},
		{
			"type": "node",
			"id": 1363947712,
			"lat": 46.603354,
			"lon": 1.8883335,
			"tags": {
				"name:jbo": "fasygu'e"
			}
		},
		{
			"type": "node",
			"id": 1420871007,
			"lat": 52.865196,
			"lon": -7.9794599,
			"tags": {
				"name:jbo": "airland"
			}
		},
		{
			"type": "node",
			"id": 1504546320,
			"lat": 46.7985624,
			"lon": 8.2319736,
			"tags": {
				"name:jbo": "elvetias"
			}
		},
		{
			"type": "node",
			"id": 1640880787,
			"lat": -18.4554963,
			"lon": 29.7468414,
			"tags": {
				"name:jbo": "zimbabues"
			}
		},
		{
			"type": "node",
			"id": 1644732479,
			"lat": 15.6356088,
			"lon": -89.8988087,
			"tags": {
				"name:jbo": "guatemal"
			}
		},
		{
			"type": "node",
			"id": 1644764586,
			"lat": -23.3165935,
			"lon": -58.1693445,
			"tags": {
				"name:jbo": "paraguais"
			}
		},
		{
			"type": "node",
			"id": 1684793666,
			"lat": 50.6407351,
			"lon": 4.66696,
			"tags": {
				"name:jbo": "beldjym"
			}
		},
		{
			"type": "node",
			"id": 2134362766,
			"lat": 2.3923759,
			"lon": 112.8471939,
			"tags": {
				"name:jbo": "mejgu'e"
			}
		},
		{
			"type": "node",
			"id": 2163914205,
			"lat": 10.2116702,
			"lon": 38.6521203,
			"tags": {
				"name:jbo": "itiopias"
			}
		}
	]
}