{
	"version": 0.6,
	"generator": "Overpass API",
	"osm3s": {
		"timestamp_osm_base": "2017-05-22T05:48:54Z",
		"copyright": "The data included in this document is from www.openstreetmap.org. The data is made available under ODbL."
	},
	"elements": [
		{
			"type": "node",
			"id": 671022,
			"lat": 36.7014631,
			"lon": -118.7559974,
			"tags": {
				"name:tok": "ma Kaliponija"
			}
		},
		{
			"type": "node",
			"id": 34724864,
			"lat": 47.2868352,
			"lon": -120.2126139,
			"tags": {
				"name:tok": "ma Wasinton"
			}
		},
		{
			"type": "node",
			"id": 316647532,
			"lat": 33.2588817,
			"lon": -86.8295337,
			"tags": {
				"name:tok": "ma Alapama"
			}
		},
		{
			"type": "node",
			"id": 316940520,
			"lat": 34.395342,
			"lon": -111.7632755,
			"tags": {
				"name:tok": "ma Elisona"
			}
		},
		{
			"type": "node",
			"id": 316942960,
			"lat": 35.2048883,
			"lon": -92.4479108,
			"tags": {
				"name:tok": "ma Akanso"
			}
		},
		{
			"type": "node",
			"id": 316945104,
			"lat": 38.7251776,
			"lon": -105.6077167,
			"tags": {
				"name:tok": "ma Kolowato"
			}
		},
		{
			"type": "node",
			"id": 316945353,
			"lat": 41.6500201,
			"lon": -72.7342163,
			"tags": {
				"name:tok": "ma Kanesika"
			}
		},
		{
			"type": "node",
			"id": 316945699,
			"lat": 38.6920451,
			"lon": -75.4013315,
			"tags": {
				"name:tok": "ma Telawe"
			}
		},
		{
			"type": "node",
			"id": 316949496,
			"lat": 32.3293809,
			"lon": -83.1137366,
			"tags": {
				"name:tok": "ma Sosa"
			}
		},
		{
			"type": "node",
			"id": 316949921,
			"lat": 21.2160437,
			"lon": -157.975203,
			"tags": {
				"name:tok": "ma Awawi"
			}
		},
		{
			"type": "node",
			"id": 316950582,
			"lat": 43.6447642,
			"lon": -114.0154071,
			"tags": {
				"name:tok": "ma Atajo"
			}
		},
		{
			"type": "node",
			"id": 316954434,
			"lat": 40.3270127,
			"lon": -86.1746933,
			"tags": {
				"name:tok": "ma Intijana"
			}
		},
		{
			"type": "node",
			"id": 316955537,
			"lat": 41.9216734,
			"lon": -93.3122705,
			"tags": {
				"name:tok": "ma Ajowa"
			}
		},
		{
			"type": "node",
			"id": 316956038,
			"lat": 38.27312,
			"lon": -98.5821872,
			"tags": {
				"name:tok": "ma Kense"
			}
		},
		{
			"type": "node",
			"id": 316959037,
			"lat": 37.5726028,
			"lon": -85.1551411,
			"tags": {
				"name:tok": "ma Kentaki"
			}
		},
		{
			"type": "node",
			"id": 316961033,
			"lat": 30.8703881,
			"lon": -92.007126,
			"tags": {
				"name:tok": "ma Luwisijana"
			}
		},
		{
			"type": "node",
			"id": 316961875,
			"lat": 45.709097,
			"lon": -68.8590201,
			"tags": {
				"name:tok": "ma Men"
			}
		},
		{
			"type": "node",
			"id": 316964668,
			"lat": 39.5162234,
			"lon": -76.9382069,
			"tags": {
				"name:tok": "ma Mewilan"
			}
		},
		{
			"type": "node",
			"id": 316965734,
			"lat": 42.3788774,
			"lon": -72.032366,
			"tags": {
				"name:tok": "ma Masasusi"
			}
		},
		{
			"type": "node",
			"id": 316966612,
			"lat": 43.6211955,
			"lon": -84.6824346,
			"tags": {
				"name:tok": "ma Misikan"
			}
		},
		{
			"type": "node",
			"id": 316967611,
			"lat": 45.9896587,
			"lon": -94.6113288,
			"tags": {
				"name:tok": "ma Minisota"
			}
		},
		{
			"type": "node",
			"id": 316968897,
			"lat": 32.9715645,
			"lon": -89.7348497,
			"tags": {
				"name:tok": "ma Misisipi"
			}
		},
		{
			"type": "node",
			"id": 316970920,
			"lat": 47.3752671,
			"lon": -109.6387579,
			"tags": {
				"name:tok": "ma Montana"
			}
		},
		{
			"type": "node",
			"id": 316971452,
			"lat": 41.7370229,
			"lon": -99.5873816,
			"tags": {
				"name:tok": "ma Nepaka"
			}
		},
		{
			"type": "node",
			"id": 316971669,
			"lat": 39.5158825,
			"lon": -116.8537227,
			"tags": {
				"name:tok": "ma Niwata"
			}
		},
		{
			"type": "node",
			"id": 316971821,
			"lat": 43.4849133,
			"lon": -71.6553992,
			"tags": {
				"name:tok": "ma Nuwanse"
			}
		},
		{
			"type": "node",
			"id": 316973311,
			"lat": 40.0757384,
			"lon": -74.4041622,
			"tags": {
				"name:tok": "ma Nusesi"
			}
		},
		{
			"type": "node",
			"id": 316973967,
			"lat": 34.5708167,
			"lon": -105.993007,
			"tags": {
				"name:tok": "ma Numesiko"
			}
		},
		{
			"type": "node",
			"id": 316976734,
			"lat": 43.1561681,
			"lon": -75.8449946,
			"tags": {
				"name:tok": "ma Nujoka"
			}
		},
		{
			"type": "node",
			"id": 316979074,
			"lat": 35.6729639,
			"lon": -79.0392919,
			"tags": {
				"name:tok": "ma Nokawolana"
			}
		},
		{
			"type": "node",
			"id": 316979718,
			"lat": 47.6201461,
			"lon": -100.540737,
			"tags": {
				"name:tok": "ma Notakota"
			}
		},
		{
			"type": "node",
			"id": 316982774,
			"lat": 40.2253569,
			"lon": -82.6881395,
			"tags": {
				"name:tok": "ma Owajo"
			}
		},
		{
			"type": "node",
			"id": 316983705,
			"lat": 34.9550817,
			"lon": -97.2684063,
			"tags": {
				"name:tok": "ma Okajoma"
			}
		},
		{
			"type": "node",
			"id": 316984338,
			"lat": 43.9792797,
			"lon": -120.737257,
			"tags": {
				"name:tok": "ma Owekan"
			}
		},
		{
			"type": "node",
			"id": 316987717,
			"lat": 40.9699889,
			"lon": -77.7278831,
			"tags": {
				"name:tok": "ma Pensiwenja"
			}
		},
		{
			"type": "node",
			"id": 316987977,
			"lat": 41.7962409,
			"lon": -71.5992372,
			"tags": {
				"name:tok": "ma Otajan"
			}
		},
		{
			"type": "node",
			"id": 316990225,
			"lat": 33.6874388,
			"lon": -80.4363743,
			"tags": {
				"name:tok": "ma Sakawolana"
			}
		},
		{
			"type": "node",
			"id": 316990807,
			"lat": 44.6471761,
			"lon": -100.348761,
			"tags": {
				"name:tok": "ma Satakota"
			}
		},
		{
			"type": "node",
			"id": 316994008,
			"lat": 35.7730076,
			"lon": -86.2820081,
			"tags": {
				"name:tok": "ma Tenesi"
			}
		},
		{
			"type": "node",
			"id": 316998356,
			"lat": 31.8160381,
			"lon": -99.5120986,
			"tags": {
				"name:tok": "ma Tesa"
			}
		},
		{
			"type": "node",
			"id": 316999551,
			"lat": 39.4225192,
			"lon": -111.7143584,
			"tags": {
				"name:tok": "ma Juta"
			}
		},
		{
			"type": "node",
			"id": 317000170,
			"lat": 44.5990718,
			"lon": -72.5002608,
			"tags": {
				"name:tok": "ma Wemon"
			}
		},
		{
			"type": "node",
			"id": 317004702,
			"lat": 37.1232245,
			"lon": -78.4927721,
			"tags": {
				"name:tok": "ma Wesinja"
			}
		},
		{
			"type": "node",
			"id": 317006365,
			"lat": 38.4758406,
			"lon": -80.8408415,
			"tags": {
				"name:tok": "ma Wewesinja"
			}
		},
		{
			"type": "node",
			"id": 317007239,
			"lat": 44.4308975,
			"lon": -89.6884637,
			"tags": {
				"name:tok": "ma Wikansen"
			}
		},
		{
			"type": "node",
			"id": 317007393,
			"lat": 43.1700264,
			"lon": -107.5685348,
			"tags": {
				"name:tok": "ma Wajomin"
			}
		},
		{
			"type": "node",
			"id": 470649732,
			"lat": 56.7861112,
			"lon": -4.1140518,
			"tags": {
				"name:tok": "ma Sukosi"
			}
		},
		{
			"type": "node",
			"id": 473849775,
			"lat": 38.7604815,
			"lon": -92.5617875,
			"tags": {
				"name:tok": "ma Misuwi"
			}
		},
		{
			"type": "node",
			"id": 474582475,
			"lat": 64.4459613,
			"lon": -149.680909,
			"tags": {
				"name:tok": "ma Alaka"
			}
		},
		{
			"type": "node",
			"id": 553784069,
			"lat": 40.0796319,
			"lon": -89.4339809,
			"tags": {
				"name:tok": "ma Ilino"
			}
		},
		{
			"type": "node",
			"id": 1251610260,
			"lat": 48.2640845,
			"lon": -2.9202408,
			"tags": {
				"name:tok": "ma Peson"
			}
		},
		{
			"type": "node",
			"id": 2281482629,
			"lat": 27.7567667,
			"lon": -81.4639835,
			"tags": {
				"name:tok": "ma Lowita"
			}
		},
		{
			"type": "node",
			"id": 2642288017,
			"lat": 52.2928116,
			"lon": -3.73893,
			"tags": {
				"name:tok": "ma Kinla"
			}
		},
		{
			"type": "node",
			"id": 3513471346,
			"lat": 42.9911816,
			"lon": -2.5543023,
			"tags": {
				"name:tok": "ma Esuka"
			}
		},
		{
			"type": "node",
			"id": 4289923286,
			"lat": 51.4162975,
			"lon": 3.7028061,
			"tags": {
				"name:tok": "ma Selan"
			}
		},
		{
			"type": "node",
			"id": 4289948985,
			"lat": 52.4484375,
			"lon": 5.4235397,
			"tags": {
				"name:tok": "ma Pepolan"
			}
		},
		{
			"type": "node",
			"id": 4289948986,
			"lat": 51.2008195,
			"lon": 5.9041916,
			"tags": {
				"name:tok": "ma Linpu"
			}
		},
		{
			"type": "node",
			"id": 4289948987,
			"lat": 51.6017723,
			"lon": 5.4441391,
			"tags": {
				"name:tok": "ma Nopapan"
			}
		},
		{
			"type": "node",
			"id": 4289948988,
			"lat": 52.7212825,
			"lon": 4.820665,
			"tags": {
				"name:tok": "ma Nojolan"
			}
		},
		{
			"type": "node",
			"id": 4289949089,
			"lat": 52.037247,
			"lon": 5.1859604,
			"tags": {
				"name:tok": "ma Ute"
			}
		},
		{
			"type": "node",
			"id": 4289949090,
			"lat": 51.9966792,
			"lon": 4.5597397,
			"tags": {
				"name:tok": "ma Sejolan"
			}
		},
		{
			"type": "node",
			"id": 4289950999,
			"lat": 52.1014041,
			"lon": 5.9515701,
			"tags": {
				"name:tok": "ma Ketelan"
			}
		},
		{
			"type": "node",
			"id": 4289951000,
			"lat": 52.4254143,
			"lon": 6.4610611,
			"tags": {
				"name:tok": "ma Owelese"
			}
		},
		{
			"type": "node",
			"id": 4289951023,
			"lat": 52.9067922,
			"lon": 6.6368423,
			"tags": {
				"name:tok": "ma Tente"
			}
		},
		{
			"type": "node",
			"id": 4289960493,
			"lat": 53.0923689,
			"lon": 5.777043,
			"tags": {
				"name:tok": "ma Lise"
			}
		},
		{
			"type": "node",
			"id": 4289960494,
			"lat": 53.3439871,
			"lon": 6.7651259,
			"tags": {
				"name:tok": "ma Konine"
			}
		}
	]
}