{
	"version": 0.6,
	"generator": "Overpass API",
	"osm3s": {
		"timestamp_osm_base": "2017-05-22T05:55:54Z",
		"copyright": "The data included in this document is from www.openstreetmap.org. The data is made available under ODbL."
	},
	"elements": [
		{
			"type": "node",
			"id": 107775,
			"lat": 51.5073219,
			"lon": -0.1276474,
			"tags": {
				"name:eo": "Londono"
			}
		},
		{
			"type": "node",
			"id": 204648,
			"lat": -41.2887639,
			"lon": 174.7772239,
			"tags": {
				"name:eo": "Velingtono"
			}
		},
		{
			"type": "node",
			"id": 441183,
			"lat": 37.9841493,
			"lon": 23.7279843,
			"tags": {
				"name:eo": "Ateno"
			}
		},
		{
			"type": "node",
			"id": 6968827,
			"lat": 46.049865,
			"lon": 14.5068921,
			"tags": {
				"name:eo": "Ljubljano"
			}
		},
		{
			"type": "node",
			"id": 8087537,
			"lat": 53.1908873,
			"lon": -2.8908955,
			"tags": {
				"name:eo": "Ĉestro"
			}
		},
		{
			"type": "node",
			"id": 11127374,
			"lat": 55.856656,
			"lon": -4.2435817,
			"tags": {
				"name:eo": "Glasgovo"
			}
		},
		{
			"type": "node",
			"id": 12805909,
			"lat": 51.7520131,
			"lon": -1.2578499,
			"tags": {
				"name:eo": "Oksfordo"
			}
		},
		{
			"type": "node",
			"id": 13707878,
			"lat": 55.6867243,
			"lon": 12.5700724,
			"tags": {
				"name:eo": "Kopenhago"
			}
		},
		{
			"type": "node",
			"id": 13766899,
			"lat": -33.8548157,
			"lon": 151.2164539,
			"tags": {
				"name:eo": "Sidnejo"
			}
		},
		{
			"type": "node",
			"id": 16173235,
			"lat": 18.9321862,
			"lon": 72.8308337,
			"tags": {
				"name:eo": "Mumbajo"
			}
		},
		{
			"type": "node",
			"id": 16173236,
			"lat": 28.6138967,
			"lon": 77.2159562,
			"tags": {
				"name:eo": "Nov-Delhio"
			}
		},
		{
			"type": "node",
			"id": 16174445,
			"lat": 18.5203062,
			"lon": 73.8543185,
			"tags": {
				"name:eo": "Puneo"
			}
		},
		{
			"type": "node",
			"id": 16175031,
			"lat": 33.6945756,
			"lon": 73.0643744,
			"tags": {
				"name:eo": "Islamabado"
			}
		},
		{
			"type": "node",
			"id": 17328659,
			"lat": 48.2083537,
			"lon": 16.3725042,
			"tags": {
				"name:eo": "Vieno"
			}
		},
		{
			"type": "node",
			"id": 17807753,
			"lat": 48.8566101,
			"lon": 2.3514992,
			"tags": {
				"name:eo": "Parizo"
			}
		},
		{
			"type": "node",
			"id": 17898859,
			"lat": 55.9495628,
			"lon": -3.1914972,
			"tags": {
				"name:eo": "Edinburgo"
			}
		},
		{
			"type": "node",
			"id": 18477455,
			"lat": 46.9482713,
			"lon": 7.4514512,
			"tags": {
				"name:eo": "Berno"
			}
		},
		{
			"type": "node",
			"id": 18886011,
			"lat": 45.421106,
			"lon": -75.690308,
			"tags": {
				"name:eo": "Otavo"
			}
		},
		{
			"type": "node",
			"id": 18994998,
			"lat": 42.3486635,
			"lon": -83.0567375,
			"tags": {
				"name:eo": "Detrojto"
			}
		},
		{
			"type": "node",
			"id": 18996031,
			"lat": 43.255205,
			"lon": -79.868202,
			"tags": {
				"name:eo": "Hamiltono"
			}
		},
		{
			"type": "node",
			"id": 20833623,
			"lat": 53.550341,
			"lon": 10.000654,
			"tags": {
				"name:eo": "Hamburgo"
			}
		},
		{
			"type": "node",
			"id": 20913294,
			"lat": 53.9590555,
			"lon": -1.0815361,
			"tags": {
				"name:eo": "Jorko"
			}
		},
		{
			"type": "node",
			"id": 20953083,
			"lat": 50.938361,
			"lon": 6.959974,
			"tags": {
				"name:eo": "Kolonjo"
			}
		},
		{
			"type": "node",
			"id": 20971094,
			"lat": 52.2033051,
			"lon": 0.124862,
			"tags": {
				"name:eo": "Kembriĝo"
			}
		},
		{
			"type": "node",
			"id": 20981158,
			"lat": 59.9132694,
			"lon": 10.7391112,
			"tags": {
				"name:eo": "Oslo"
			}
		},
		{
			"type": "node",
			"id": 21034458,
			"lat": 33.3024309,
			"lon": 44.3787992,
			"tags": {
				"name:eo": "Bagdado"
			}
		},
		{
			"type": "node",
			"id": 21068295,
			"lat": 40.4167047,
			"lon": -3.7035825,
			"tags": {
				"name:eo": "Madrido"
			}
		},
		{
			"type": "node",
			"id": 21421224,
			"lat": 51.1299804,
			"lon": 1.308319,
			"tags": {
				"name:eo": "Dovero"
			}
		},
		{
			"type": "node",
			"id": 21421501,
			"lat": 53.4054719,
			"lon": -2.9805392,
			"tags": {
				"name:eo": "Liverpolo"
			}
		},
		{
			"type": "node",
			"id": 21579127,
			"lat": -37.8142176,
			"lon": 144.9631608,
			"tags": {
				"name:eo": "Melburno"
			}
		},
		{
			"type": "node",
			"id": 21674637,
			"lat": -35.2975906,
			"lon": 149.1012676,
			"tags": {
				"name:eo": "Kanbero"
			}
		},
		{
			"type": "node",
			"id": 21716195,
			"lat": 34.5260131,
			"lon": 69.1776476,
			"tags": {
				"name:eo": "Kabulo"
			}
		},
		{
			"type": "node",
			"id": 21993086,
			"lat": 53.6288297,
			"lon": 11.4148038,
			"tags": {
				"name:eo": "Ŝverino"
			}
		},
		{
			"type": "node",
			"id": 24486765,
			"lat": 54.3159851,
			"lon": 13.0904622,
			"tags": {
				"name:eo": "Ŝtralsundo"
			}
		},
		{
			"type": "node",
			"id": 25248662,
			"lat": 39.9059631,
			"lon": 116.391248,
			"tags": {
				"name:eo": "Pekino"
			}
		},
		{
			"type": "node",
			"id": 25327151,
			"lat": 53.866444,
			"lon": 10.684738,
			"tags": {
				"name:eo": "Lubeko"
			}
		},
		{
			"type": "node",
			"id": 25503669,
			"lat": -25.7459374,
			"lon": 28.1879444,
			"tags": {
				"name:eo": "Pretorio"
			}
		},
		{
			"type": "node",
			"id": 25735371,
			"lat": 59.8594126,
			"lon": 17.64112,
			"tags": {
				"name:eo": "Upsalo"
			}
		},
		{
			"type": "node",
			"id": 25841904,
			"lat": -32.9272881,
			"lon": 151.7812534,
			"tags": {
				"name:eo": "Novkastelo"
			}
		},
		{
			"type": "node",
			"id": 25869410,
			"lat": 39.9215219,
			"lon": 32.8537929,
			"tags": {
				"name:eo": "Ankaro"
			}
		},
		{
			"type": "node",
			"id": 25929985,
			"lat": 59.3251172,
			"lon": 18.0710935,
			"tags": {
				"name:eo": "Stokholmo"
			}
		},
		{
			"type": "node",
			"id": 25930131,
			"lat": 57.7072326,
			"lon": 11.9670171,
			"tags": {
				"name:eo": "Gotenburgo"
			}
		},
		{
			"type": "node",
			"id": 25960293,
			"lat": 35.7006177,
			"lon": 51.401375,
			"tags": {
				"name:eo": "Tehrano"
			}
		},
		{
			"type": "node",
			"id": 26038568,
			"lat": 36.2974945,
			"lon": 59.6059232,
			"tags": {
				"name:eo": "Maŝhado"
			}
		},
		{
			"type": "node",
			"id": 26150422,
			"lat": 50.4501071,
			"lon": 30.5240501,
			"tags": {
				"name:eo": "Kievo"
			}
		},
		{
			"type": "node",
			"id": 26150437,
			"lat": 46.4846583,
			"lon": 30.732564,
			"tags": {
				"name:eo": "Odeso"
			}
		},
		{
			"type": "node",
			"id": 26150796,
			"lat": 50.3512101,
			"lon": 30.95077,
			"tags": {
				"name:eo": "Borispilo"
			}
		},
		{
			"type": "node",
			"id": 26151301,
			"lat": 52.4238936,
			"lon": 31.0131698,
			"tags": {
				"name:eo": "Homel"
			}
		},
		{
			"type": "node",
			"id": 26162465,
			"lat": 53.902334,
			"lon": 27.5618791,
			"tags": {
				"name:eo": "Minsko"
			}
		},
		{
			"type": "node",
			"id": 26396457,
			"lat": 23.1379911,
			"lon": -82.3658562,
			"tags": {
				"name:eo": "Havano"
			}
		},
		{
			"type": "node",
			"id": 26432122,
			"lat": 54.347628,
			"lon": 18.6452029,
			"tags": {
				"name:eo": "Gdansko"
			}
		},
		{
			"type": "node",
			"id": 26432430,
			"lat": 54.5164982,
			"lon": 18.5402738,
			"tags": {
				"name:eo": "Gdinio"
			}
		},
		{
			"type": "node",
			"id": 26553042,
			"lat": 53.4302122,
			"lon": 14.5509784,
			"tags": {
				"name:eo": "Ŝĉecino"
			}
		},
		{
			"type": "node",
			"id": 26559209,
			"lat": 55.2500715,
			"lon": 9.4997871,
			"tags": {
				"name:eo": "Haderslevo"
			}
		},
		{
			"type": "node",
			"id": 26559213,
			"lat": 56.1496278,
			"lon": 10.2134046,
			"tags": {
				"name:eo": "Arhuzo"
			}
		},
		{
			"type": "node",
			"id": 26562214,
			"lat": 43.4623102,
			"lon": -3.8101067,
			"tags": {
				"name:eo": "Santandero"
			}
		},
		{
			"type": "node",
			"id": 26686518,
			"lat": 43.6044622,
			"lon": 1.4442469,
			"tags": {
				"name:eo": "Tuluzo"
			}
		},
		{
			"type": "node",
			"id": 26686548,
			"lat": 47.2186371,
			"lon": -1.5541362,
			"tags": {
				"name:eo": "Nanto"
			}
		},
		{
			"type": "node",
			"id": 26686563,
			"lat": 48.584614,
			"lon": 7.7507127,
			"tags": {
				"name:eo": "Strasburgo"
			}
		},
		{
			"type": "node",
			"id": 26686587,
			"lat": 49.4404591,
			"lon": 1.0939658,
			"tags": {
				"name:eo": "Rueno"
			}
		},
		{
			"type": "node",
			"id": 26692254,
			"lat": 45.4748298,
			"lon": 4.5098046,
			"tags": {
				"name:eo": "Sankta Chamond"
			}
		},
		{
			"type": "node",
			"id": 26692357,
			"lat": 50.7259985,
			"lon": 1.6118771,
			"tags": {
				"name:eo": "Bulonjo-ĉe-Maro"
			}
		},
		{
			"type": "node",
			"id": 26692561,
			"lat": 48.6937223,
			"lon": 6.1834097,
			"tags": {
				"name:eo": "Nancio"
			}
		},
		{
			"type": "node",
			"id": 26700976,
			"lat": 54.0484068,
			"lon": -2.7990345,
			"tags": {
				"name:eo": "Lankastro"
			}
		},
		{
			"type": "node",
			"id": 26707967,
			"lat": 56.9493977,
			"lon": 24.1051846,
			"tags": {
				"name:eo": "Rigo"
			}
		},
		{
			"type": "node",
			"id": 26898767,
			"lat": 67.568626,
			"lon": 33.404392,
			"tags": {
				"name:eo": "Apatiti"
			}
		},
		{
			"type": "node",
			"id": 27043346,
			"lat": -4.3217055,
			"lon": 15.3125974,
			"tags": {
				"name:eo": "Kinŝaso"
			}
		},
		{
			"type": "node",
			"id": 27048976,
			"lat": 54.7066422,
			"lon": 20.5105166,
			"tags": {
				"name:eo": "Kaliningrado"
			}
		},
		{
			"type": "node",
			"id": 27048978,
			"lat": 54.6554783,
			"lon": 19.9110348,
			"tags": {
				"name:eo": "Baltijsk"
			}
		},
		{
			"type": "node",
			"id": 27084072,
			"lat": 27.2405016,
			"lon": 33.8267842,
			"tags": {
				"name:eo": "Hurghada"
			}
		},
		{
			"type": "node",
			"id": 27121360,
			"lat": 49.5897423,
			"lon": 34.5507948,
			"tags": {
				"name:eo": "Poltavo"
			}
		},
		{
			"type": "node",
			"id": 27161819,
			"lat": 52.4082663,
			"lon": 16.9335199,
			"tags": {
				"name:eo": "Poznano"
			}
		},
		{
			"type": "node",
			"id": 27193090,
			"lat": 54.8982139,
			"lon": 23.9044817,
			"tags": {
				"name:eo": "Kaŭno"
			}
		},
		{
			"type": "node",
			"id": 27193093,
			"lat": 54.6870458,
			"lon": 25.2829111,
			"tags": {
				"name:eo": "Vilno"
			}
		},
		{
			"type": "node",
			"id": 27253144,
			"lat": 53.0300878,
			"lon": 27.5550778,
			"tags": {
				"name:eo": "Sluck"
			}
		},
		{
			"type": "node",
			"id": 27365302,
			"lat": 51.4820845,
			"lon": -0.0045417,
			"tags": {
				"name:eo": "Grenviĉo"
			}
		},
		{
			"type": "node",
			"id": 27418664,
			"lat": 50.110653,
			"lon": 8.682093,
			"tags": {
				"name:eo": "Frankfurto"
			}
		},
		{
			"type": "node",
			"id": 27490597,
			"lat": 59.938732,
			"lon": 30.316229,
			"tags": {
				"name:eo": "Sankt-Peterburgo"
			}
		},
		{
			"type": "node",
			"id": 27504156,
			"lat": 55.1598408,
			"lon": 61.4025547,
			"tags": {
				"name:eo": "Ĉeljabinsk"
			}
		},
		{
			"type": "node",
			"id": 27505044,
			"lat": 51.6548797,
			"lon": 39.212949,
			"tags": {
				"name:eo": "Voroneĵ"
			}
		},
		{
			"type": "node",
			"id": 27505582,
			"lat": 54.6295687,
			"lon": 39.7425039,
			"tags": {
				"name:eo": "Rjazan"
			}
		},
		{
			"type": "node",
			"id": 27524177,
			"lat": 42.8767446,
			"lon": 74.6069949,
			"tags": {
				"name:eo": "Biŝkeko"
			}
		},
		{
			"type": "node",
			"id": 27524773,
			"lat": 41.3123363,
			"lon": 69.2787079,
			"tags": {
				"name:eo": "Taŝkento"
			}
		},
		{
			"type": "node",
			"id": 27526178,
			"lat": 29.7589382,
			"lon": -95.3676974,
			"tags": {
				"name:eo": "Hustono"
			}
		},
		{
			"type": "node",
			"id": 27547977,
			"lat": 38.5763119,
			"lon": 68.7860218,
			"tags": {
				"name:eo": "Duŝanbeo"
			}
		},
		{
			"type": "node",
			"id": 27547986,
			"lat": 47.9184676,
			"lon": 106.9177016,
			"tags": {
				"name:eo": "Ulaanbaataro"
			}
		},
		{
			"type": "node",
			"id": 27548009,
			"lat": 51.128258,
			"lon": 71.43055,
			"tags": {
				"name:eo": "Astano"
			}
		},
		{
			"type": "node",
			"id": 27564937,
			"lat": 13.524834,
			"lon": 2.109823,
			"tags": {
				"name:eo": "Niameo"
			}
		},
		{
			"type": "node",
			"id": 27564941,
			"lat": -8.8271656,
			"lon": 13.2436665,
			"tags": {
				"name:eo": "Luando"
			}
		},
		{
			"type": "node",
			"id": 27564954,
			"lat": 12.649319,
			"lon": -8.000337,
			"tags": {
				"name:eo": "Bamako"
			}
		},
		{
			"type": "node",
			"id": 27564966,
			"lat": 29.974498,
			"lon": 32.537086,
			"tags": {
				"name:eo": "Suezo"
			}
		},
		{
			"type": "node",
			"id": 27564968,
			"lat": 36.800108,
			"lon": 10.184794,
			"tags": {
				"name:eo": "Tunizo"
			}
		},
		{
			"type": "node",
			"id": 27564975,
			"lat": 31.263235,
			"lon": 32.305505,
			"tags": {
				"name:eo": "Port Said"
			}
		},
		{
			"type": "node",
			"id": 27564980,
			"lat": 6.328034,
			"lon": -10.797788,
			"tags": {
				"name:eo": "Monrovio"
			}
		},
		{
			"type": "node",
			"id": 27564988,
			"lat": 4.3907153,
			"lon": 18.5509126,
			"tags": {
				"name:eo": "Bangio"
			}
		},
		{
			"type": "node",
			"id": 27564994,
			"lat": -15.416697,
			"lon": 28.281381,
			"tags": {
				"name:eo": "Lusako"
			}
		},
		{
			"type": "node",
			"id": 27565002,
			"lat": 12.368148,
			"lon": -1.527085,
			"tags": {
				"name:eo": "Uagaduguo"
			}
		},
		{
			"type": "node",
			"id": 27565020,
			"lat": 31.199004,
			"lon": 29.894378,
			"tags": {
				"name:eo": "Aleksandrio"
			}
		},
		{
			"type": "node",
			"id": 27565022,
			"lat": 12.1191543,
			"lon": 15.0502758,
			"tags": {
				"name:eo": "Nĵameno"
			}
		},
		{
			"type": "node",
			"id": 27565045,
			"lat": 14.693425,
			"lon": -17.447938,
			"tags": {
				"name:eo": "Dakaro"
			}
		},
		{
			"type": "node",
			"id": 27565056,
			"lat": 8.479004,
			"lon": -13.26795,
			"tags": {
				"name:eo": "Fritaŭno"
			}
		},
		{
			"type": "node",
			"id": 27565062,
			"lat": 9.5170602,
			"lon": -13.6998434,
			"tags": {
				"name:eo": "Konakrio"
			}
		},
		{
			"type": "node",
			"id": 27565068,
			"lat": 0.390002,
			"lon": 9.454001,
			"tags": {
				"name:eo": "Librevilo"
			}
		},
		{
			"type": "node",
			"id": 27565076,
			"lat": 9.0107934,
			"lon": 38.7612525,
			"tags": {
				"name:eo": "Adis-Abebo"
			}
		},
		{
			"type": "node",
			"id": 27565080,
			"lat": 5.5600141,
			"lon": -0.2057437,
			"tags": {
				"name:eo": "Akrao"
			}
		},
		{
			"type": "node",
			"id": 27565081,
			"lat": -25.966213,
			"lon": 32.56745,
			"tags": {
				"name:eo": "Maputo"
			}
		},
		{
			"type": "node",
			"id": 27565085,
			"lat": 11.593665,
			"lon": 43.14724,
			"tags": {
				"name:eo": "Ĝibutio"
			}
		},
		{
			"type": "node",
			"id": 27565105,
			"lat": -1.2832533,
			"lon": 36.8172449,
			"tags": {
				"name:eo": "Najrobo"
			}
		},
		{
			"type": "node",
			"id": 27565116,
			"lat": -18.9100122,
			"lon": 47.5255809,
			"tags": {
				"name:eo": "Antananarivo"
			}
		},
		{
			"type": "node",
			"id": 27565117,
			"lat": 15.593325,
			"lon": 32.53565,
			"tags": {
				"name:eo": "Ĥartumo"
			}
		},
		{
			"type": "node",
			"id": 27565118,
			"lat": 32.117076,
			"lon": 20.0670036,
			"tags": {
				"name:eo": "Bengazi"
			}
		},
		{
			"type": "node",
			"id": 27565120,
			"lat": 30.0170059,
			"lon": 31.2134513,
			"tags": {
				"name:eo": "Gizo"
			}
		},
		{
			"type": "node",
			"id": 27565124,
			"lat": 6.4550575,
			"lon": 3.3941795,
			"tags": {
				"name:eo": "Lagoso"
			}
		},
		{
			"type": "node",
			"id": 28095099,
			"lat": 14.9160169,
			"lon": -23.5096132,
			"tags": {
				"name:eo": "Prajo"
			}
		},
		{
			"type": "node",
			"id": 29011774,
			"lat": 47.6960491,
			"lon": 8.634513,
			"tags": {
				"name:eo": "Ŝafhaŭzo"
			}
		},
		{
			"type": "node",
			"id": 29090735,
			"lat": 31.7791134,
			"lon": 35.2266286,
			"tags": {
				"name:eo": "Jerusalemo"
			}
		},
		{
			"type": "node",
			"id": 29277817,
			"lat": -31.9527121,
			"lon": 115.8604796,
			"tags": {
				"name:eo": "Perto"
			}
		},
		{
			"type": "node",
			"id": 29438069,
			"lat": 35.3340134,
			"lon": 25.1328543,
			"tags": {
				"name:eo": "Iraklio"
			}
		},
		{
			"type": "node",
			"id": 29546940,
			"lat": 47.6038321,
			"lon": -122.3300624,
			"tags": {
				"name:eo": "Seatlo"
			}
		},
		{
			"type": "node",
			"id": 29680830,
			"lat": 53.5574458,
			"lon": 13.2602781,
			"tags": {
				"name:eo": "Novbrandenburgo"
			}
		},
		{
			"type": "node",
			"id": 29750243,
			"lat": 45.2590875,
			"lon": 38.1244609,
			"tags": {
				"name:eo": "Slavjansk-na-Kubani"
			}
		},
		{
			"type": "node",
			"id": 29787492,
			"lat": 59.4372155,
			"lon": 24.7453688,
			"tags": {
				"name:eo": "Talino"
			}
		},
		{
			"type": "node",
			"id": 29866526,
			"lat": 46.710663,
			"lon": 38.277855,
			"tags": {
				"name:eo": "Jejsko"
			}
		},
		{
			"type": "node",
			"id": 29939632,
			"lat": -6.1753942,
			"lon": 106.827183,
			"tags": {
				"name:eo": "Ĝakarto"
			}
		},
		{
			"type": "node",
			"id": 29980666,
			"lat": 47.0957773,
			"lon": 37.5499333,
			"tags": {
				"name:eo": "Mariupolo"
			}
		},
		{
			"type": "node",
			"id": 30094969,
			"lat": 51.7687323,
			"lon": 19.4569911,
			"tags": {
				"name:eo": "Lodzo"
			}
		},
		{
			"type": "node",
			"id": 30391973,
			"lat": -25.665655,
			"lon": 27.241448,
			"tags": {
				"name:eo": "Rustenburgo"
			}
		},
		{
			"type": "node",
			"id": 30656833,
			"lat": -29.310054,
			"lon": 27.478222,
			"tags": {
				"name:eo": "Maseruo"
			}
		},
		{
			"type": "node",
			"id": 30670040,
			"lat": -24.655319,
			"lon": 25.908728,
			"tags": {
				"name:eo": "Gaberono"
			}
		},
		{
			"type": "node",
			"id": 30674098,
			"lat": -23.5506507,
			"lon": -46.6333824,
			"tags": {
				"name:eo": "San-Paŭlo"
			}
		},
		{
			"type": "node",
			"id": 31058175,
			"lat": 41.9345727,
			"lon": 25.5556639,
			"tags": {
				"name:eo": "Ĥaskovo"
			}
		},
		{
			"type": "node",
			"id": 31058197,
			"lat": 43.2049102,
			"lon": 23.5556418,
			"tags": {
				"name:eo": "Vraca"
			}
		},
		{
			"type": "node",
			"id": 31203257,
			"lat": 9.0643305,
			"lon": 7.4892974,
			"tags": {
				"name:eo": "Abuĝo"
			}
		},
		{
			"type": "node",
			"id": 31219396,
			"lat": 29.6568869,
			"lon": 91.1314249,
			"tags": {
				"name:eo": "Lasao"
			}
		},
		{
			"type": "node",
			"id": 31337673,
			"lat": 53.1219648,
			"lon": 18.0002529,
			"tags": {
				"name:eo": "Bidgoŝto"
			}
		},
		{
			"type": "node",
			"id": 31345720,
			"lat": 54.4649331,
			"lon": 17.028073,
			"tags": {
				"name:eo": "Slupsko"
			}
		},
		{
			"type": "node",
			"id": 31353319,
			"lat": 30.4624974,
			"lon": 31.184063,
			"tags": {
				"name:eo": "Banha"
			}
		},
		{
			"type": "node",
			"id": 31376615,
			"lat": 35.5141834,
			"lon": 24.0181459,
			"tags": {
				"name:eo": "Ĥanio"
			}
		},
		{
			"type": "node",
			"id": 31532258,
			"lat": 54.1558708,
			"lon": 19.4044583,
			"tags": {
				"name:eo": "Elblongo"
			}
		},
		{
			"type": "node",
			"id": 31582434,
			"lat": 31.037566,
			"lon": 31.38649,
			"tags": {
				"name:eo": "El Mansura"
			}
		},
		{
			"type": "node",
			"id": 31582454,
			"lat": 31.111221,
			"lon": 30.9401454,
			"tags": {
				"name:eo": "Kafr aŝ-Ŝejĥ"
			}
		},
		{
			"type": "node",
			"id": 31792887,
			"lat": 51.6530011,
			"lon": 17.8150836,
			"tags": {
				"name:eo": "Ostrovo"
			}
		},
		{
			"type": "node",
			"id": 31867745,
			"lat": 51.4027306,
			"lon": 21.1572247,
			"tags": {
				"name:eo": "Radomo"
			}
		},
		{
			"type": "node",
			"id": 31941291,
			"lat": 49.7596208,
			"lon": 6.6441878,
			"tags": {
				"name:eo": "Treviro"
			}
		},
		{
			"type": "node",
			"id": 32013127,
			"lat": 39.0194741,
			"lon": 125.753388,
			"tags": {
				"name:eo": "Pjongjango"
			}
		},
		{
			"type": "node",
			"id": 32566103,
			"lat": 53.7754106,
			"lon": 20.4812248,
			"tags": {
				"name:eo": "Olŝtino"
			}
		},
		{
			"type": "node",
			"id": 32675715,
			"lat": 36.210595,
			"lon": 58.7922805,
			"tags": {
				"name:eo": "Nejŝaburo"
			}
		},
		{
			"type": "node",
			"id": 32677946,
			"lat": 29.4447686,
			"lon": 55.6712851,
			"tags": {
				"name:eo": "Sirĝan"
			}
		},
		{
			"type": "node",
			"id": 33364833,
			"lat": -22.5744184,
			"lon": 17.0791233,
			"tags": {
				"name:eo": "Vindhuko"
			}
		},
		{
			"type": "node",
			"id": 33622904,
			"lat": 46.2017559,
			"lon": 6.1466014,
			"tags": {
				"name:eo": "Ĝenevo"
			}
		},
		{
			"type": "node",
			"id": 33997995,
			"lat": 52.1315889,
			"lon": 11.6399609,
			"tags": {
				"name:eo": "Magdeburgo"
			}
		},
		{
			"type": "node",
			"id": 34043670,
			"lat": 43.5854823,
			"lon": 39.723109,
			"tags": {
				"name:eo": "Soĉi"
			}
		},
		{
			"type": "node",
			"id": 34181150,
			"lat": 44.5610248,
			"lon": 38.0767599,
			"tags": {
				"name:eo": "Gelendĵik"
			}
		},
		{
			"type": "node",
			"id": 34567423,
			"lat": -15.7934036,
			"lon": -47.8823172,
			"tags": {
				"name:eo": "Braziljo"
			}
		},
		{
			"type": "node",
			"id": 34582422,
			"lat": -22.9110137,
			"lon": -43.2093727,
			"tags": {
				"name:eo": "Rio-de-Ĵanejro"
			}
		},
		{
			"type": "node",
			"id": 34684808,
			"lat": 2.042778,
			"lon": 45.338564,
			"tags": {
				"name:eo": "Mogadiŝo"
			}
		},
		{
			"type": "node",
			"id": 38451000,
			"lat": 36.1622296,
			"lon": -86.7743531,
			"tags": {
				"name:eo": "Naŝvilo"
			}
		},
		{
			"type": "node",
			"id": 38903284,
			"lat": 26.2235041,
			"lon": 50.5822436,
			"tags": {
				"name:eo": "Manamo"
			}
		},
		{
			"type": "node",
			"id": 39682896,
			"lat": 48.0158753,
			"lon": 37.8013407,
			"tags": {
				"name:eo": "Donecko"
			}
		},
		{
			"type": "node",
			"id": 46715854,
			"lat": 49.6249173,
			"lon": 20.691346,
			"tags": {
				"name:eo": "Nova Sonĉo"
			}
		},
		{
			"type": "node",
			"id": 50031810,
			"lat": 12.5268736,
			"lon": -70.0356845,
			"tags": {
				"name:eo": "Oranjestado"
			}
		},
		{
			"type": "node",
			"id": 50033577,
			"lat": 12.1091242,
			"lon": -68.9316546,
			"tags": {
				"name:eo": "Vilemstado"
			}
		},
		{
			"type": "node",
			"id": 50794342,
			"lat": 6.9349969,
			"lon": 79.853845,
			"tags": {
				"name:eo": "Kolombo"
			}
		},
		{
			"type": "node",
			"id": 51828236,
			"lat": -26.515556,
			"lon": 29.992222,
			"tags": {
				"name:eo": "Ermelo"
			}
		},
		{
			"type": "node",
			"id": 52943358,
			"lat": 49.6112768,
			"lon": 6.129799,
			"tags": {
				"name:eo": "Luksemburgo"
			}
		},
		{
			"type": "node",
			"id": 53200527,
			"lat": 18.465299,
			"lon": -66.116666,
			"tags": {
				"name:eo": "San-Juano"
			}
		},
		{
			"type": "node",
			"id": 53371112,
			"lat": 17.9712148,
			"lon": -76.7928128,
			"tags": {
				"name:eo": "Kingstono"
			}
		},
		{
			"type": "node",
			"id": 53433945,
			"lat": -38.6874922,
			"lon": 176.0754385,
			"tags": {
				"name:eo": "Taupo"
			}
		},
		{
			"type": "node",
			"id": 57554537,
			"lat": 40.6403167,
			"lon": 22.9352716,
			"tags": {
				"name:eo": "Tesaloniko"
			}
		},
		{
			"type": "node",
			"id": 58950371,
			"lat": -0.2201641,
			"lon": -78.5123274,
			"tags": {
				"name:eo": "Kito"
			}
		},
		{
			"type": "node",
			"id": 58957648,
			"lat": 42.5069391,
			"lon": 1.5212467,
			"tags": {
				"name:eo": "Andoro Malnova"
			}
		},
		{
			"type": "node",
			"id": 60038888,
			"lat": 53.132398,
			"lon": 23.1591679,
			"tags": {
				"name:eo": "Bjalistoko"
			}
		},
		{
			"type": "node",
			"id": 60078445,
			"lat": 53.9483965,
			"lon": 32.8606696,
			"tags": {
				"name:eo": "Roslavl"
			}
		},
		{
			"type": "node",
			"id": 60237699,
			"lat": 54.9600365,
			"lon": 20.4750188,
			"tags": {
				"name:eo": "Zelenogradsk"
			}
		},
		{
			"type": "node",
			"id": 60485579,
			"lat": -1.950851,
			"lon": 30.061507,
			"tags": {
				"name:eo": "Kigalo"
			}
		},
		{
			"type": "node",
			"id": 60571493,
			"lat": 44.8178787,
			"lon": 20.4568089,
			"tags": {
				"name:eo": "Beogrado"
			}
		},
		{
			"type": "node",
			"id": 60715062,
			"lat": -3.3638125,
			"lon": 29.3675028,
			"tags": {
				"name:eo": "Buĵumburo"
			}
		},
		{
			"type": "node",
			"id": 61753364,
			"lat": 42.7597261,
			"lon": 11.1137389,
			"tags": {
				"name:eo": "Groseto"
			}
		},
		{
			"type": "node",
			"id": 61785451,
			"lat": 40.7305991,
			"lon": -73.9865812,
			"tags": {
				"name:eo": "Novjorko"
			}
		},
		{
			"type": "node",
			"id": 62270270,
			"lat": 19.4326009,
			"lon": -99.1333416,
			"tags": {
				"name:eo": "Meksik-urbo"
			}
		},
		{
			"type": "node",
			"id": 67157058,
			"lat": 27.708796,
			"lon": 85.320244,
			"tags": {
				"name:eo": "Katmanduo"
			}
		},
		{
			"type": "node",
			"id": 67257047,
			"lat": 37.6537292,
			"lon": 12.5886912,
			"tags": {
				"name:eo": "Mazaradelvalo"
			}
		},
		{
			"type": "node",
			"id": 68580886,
			"lat": 40.7491267,
			"lon": 14.5006415,
			"tags": {
				"name:eo": "Pompei"
			}
		},
		{
			"type": "node",
			"id": 68651691,
			"lat": 43.3143628,
			"lon": -2.6778511,
			"tags": {
				"name:eo": "Gerniko"
			}
		},
		{
			"type": "node",
			"id": 70990193,
			"lat": 42.3488992,
			"lon": 13.3981375,
			"tags": {
				"name:eo": "La-Aglo"
			}
		},
		{
			"type": "node",
			"id": 72959652,
			"lat": 41.8933203,
			"lon": 12.4829321,
			"tags": {
				"name:eo": "Romo"
			}
		},
		{
			"type": "node",
			"id": 74132064,
			"lat": 21.0292095,
			"lon": 105.85247,
			"tags": {
				"name:eo": "Hanojo"
			}
		},
		{
			"type": "node",
			"id": 81590481,
			"lat": -34.6075616,
			"lon": -58.437076,
			"tags": {
				"name:eo": "Bonaero"
			}
		},
		{
			"type": "node",
			"id": 83087798,
			"lat": 59.881847,
			"lon": 29.912041,
			"tags": {
				"name:eo": "Petergof"
			}
		},
		{
			"type": "node",
			"id": 85788293,
			"lat": 47.4983815,
			"lon": 19.0404707,
			"tags": {
				"name:eo": "Budapeŝto"
			}
		},
		{
			"type": "node",
			"id": 87841198,
			"lat": -6.1791181,
			"lon": 35.7468174,
			"tags": {
				"name:eo": "Dodomao"
			}
		},
		{
			"type": "node",
			"id": 90200226,
			"lat": -27.5973002,
			"lon": -48.5496098,
			"tags": {
				"name:eo": "Florianopolo"
			}
		},
		{
			"type": "node",
			"id": 90495941,
			"lat": 55.0951738,
			"lon": 36.611913,
			"tags": {
				"name:eo": "Obninsk"
			}
		},
		{
			"type": "node",
			"id": 93387393,
			"lat": 56.3935278,
			"lon": 38.7211599,
			"tags": {
				"name:eo": "Aleksandrov"
			}
		},
		{
			"type": "node",
			"id": 93701882,
			"lat": 43.6767553,
			"lon": 43.5376506,
			"tags": {
				"name:eo": "Baksan"
			}
		},
		{
			"type": "node",
			"id": 96209423,
			"lat": 44.4361414,
			"lon": 26.1027202,
			"tags": {
				"name:eo": "Bukareŝto"
			}
		},
		{
			"type": "node",
			"id": 97922073,
			"lat": 4.8472017,
			"lon": 31.5951655,
			"tags": {
				"name:eo": "Ĵubo"
			}
		},
		{
			"type": "node",
			"id": 100035698,
			"lat": 45.4338215,
			"lon": 28.0549395,
			"tags": {
				"name:eo": "Galați"
			}
		},
		{
			"type": "node",
			"id": 111353560,
			"lat": 48.6223502,
			"lon": 22.3021255,
			"tags": {
				"name:eo": "Uĵhorodo"
			}
		},
		{
			"type": "node",
			"id": 111366726,
			"lat": 48.4310953,
			"lon": 22.2096148,
			"tags": {
				"name:eo": "Ĉop"
			}
		},
		{
			"type": "node",
			"id": 115622916,
			"lat": -17.7414972,
			"lon": 168.3150163,
			"tags": {
				"name:eo": "Portvilao"
			}
		},
		{
			"type": "node",
			"id": 115664268,
			"lat": 25.0783456,
			"lon": -77.3383331,
			"tags": {
				"name:eo": "Nasaŭo"
			}
		},
		{
			"type": "node",
			"id": 119306895,
			"lat": 55.5347704,
			"lon": 28.645089,
			"tags": {
				"name:eo": "Navapolack"
			}
		},
		{
			"type": "node",
			"id": 119310785,
			"lat": 55.485449,
			"lon": 28.7682004,
			"tags": {
				"name:eo": "Polack"
			}
		},
		{
			"type": "node",
			"id": 122739684,
			"lat": 17.9640988,
			"lon": 102.6133707,
			"tags": {
				"name:eo": "Vjentiano"
			}
		},
		{
			"type": "node",
			"id": 123860883,
			"lat": 42.4415238,
			"lon": 19.2621081,
			"tags": {
				"name:eo": "Podgorico"
			}
		},
		{
			"type": "node",
			"id": 127834997,
			"lat": 51.2705259,
			"lon": 30.2194322,
			"tags": {
				"name:eo": "Ĉernobilo"
			}
		},
		{
			"type": "node",
			"id": 127835001,
			"lat": 51.4061237,
			"lon": 30.0571098,
			"tags": {
				"name:eo": "Pripjat"
			}
		},
		{
			"type": "node",
			"id": 129991407,
			"lat": 47.0122737,
			"lon": 28.8605936,
			"tags": {
				"name:eo": "Kiŝinevo"
			}
		},
		{
			"type": "node",
			"id": 130040361,
			"lat": 40.1776121,
			"lon": 44.5125849,
			"tags": {
				"name:eo": "Erevano"
			}
		},
		{
			"type": "node",
			"id": 132731678,
			"lat": 15.7143063,
			"lon": 106.4127399,
			"tags": {
				"name:eo": "Salavan"
			}
		},
		{
			"type": "node",
			"id": 143564891,
			"lat": 55.8892847,
			"lon": 37.4449896,
			"tags": {
				"name:eo": "Ĥimki"
			}
		},
		{
			"type": "node",
			"id": 146498192,
			"lat": 50.5917622,
			"lon": 27.6066973,
			"tags": {
				"name:eo": "Novograd-Volinskij"
			}
		},
		{
			"type": "node",
			"id": 146541158,
			"lat": 50.6196175,
			"lon": 26.2513165,
			"tags": {
				"name:eo": "Rivno"
			}
		},
		{
			"type": "node",
			"id": 146570870,
			"lat": 50.7450733,
			"lon": 25.320078,
			"tags": {
				"name:eo": "Lucko"
			}
		},
		{
			"type": "node",
			"id": 146651245,
			"lat": 51.2090293,
			"lon": 24.7166617,
			"tags": {
				"name:eo": "Kovel"
			}
		},
		{
			"type": "node",
			"id": 148901123,
			"lat": 57.7679158,
			"lon": 40.9269141,
			"tags": {
				"name:eo": "Kostroma"
			}
		},
		{
			"type": "node",
			"id": 151465650,
			"lat": 39.7391536,
			"lon": -104.9847034,
			"tags": {
				"name:eo": "Denvero"
			}
		},
		{
			"type": "node",
			"id": 153353016,
			"lat": 39.7683331,
			"lon": -86.1583502,
			"tags": {
				"name:eo": "Indianapolis"
			}
		},
		{
			"type": "node",
			"id": 153388690,
			"lat": 41.8755546,
			"lon": -87.6244212,
			"tags": {
				"name:eo": "Ĉikago"
			}
		},
		{
			"type": "node",
			"id": 153843609,
			"lat": 33.7490987,
			"lon": -84.3901849,
			"tags": {
				"name:eo": "Atlanta"
			}
		},
		{
			"type": "node",
			"id": 154158458,
			"lat": 25.7742658,
			"lon": -80.1936589,
			"tags": {
				"name:eo": "Miamio"
			}
		},
		{
			"type": "node",
			"id": 155590820,
			"lat": -2.5319224,
			"lon": -44.2933276,
			"tags": {
				"name:eo": "San-Luiso"
			}
		},
		{
			"type": "node",
			"id": 156159426,
			"lat": 55.7813357,
			"lon": 38.6507838,
			"tags": {
				"name:eo": "Pavlovskij Posad"
			}
		},
		{
			"type": "node",
			"id": 156167469,
			"lat": 55.7903785,
			"lon": 38.4405711,
			"tags": {
				"name:eo": "Elektrostal"
			}
		},
		{
			"type": "node",
			"id": 156167485,
			"lat": 55.8553511,
			"lon": 38.4411898,
			"tags": {
				"name:eo": "Noginsk"
			}
		},
		{
			"type": "node",
			"id": 158368533,
			"lat": 38.8949549,
			"lon": -77.0366456,
			"tags": {
				"name:eo": "Vaŝingtono"
			}
		},
		{
			"type": "node",
			"id": 158809705,
			"lat": 42.3604823,
			"lon": -71.0595678,
			"tags": {
				"name:eo": "Bostono"
			}
		},
		{
			"type": "node",
			"id": 160258541,
			"lat": 44.0410835,
			"lon": 43.0666626,
			"tags": {
				"name:eo": "Pjatigorsk"
			}
		},
		{
			"type": "node",
			"id": 163043169,
			"lat": 56.488712,
			"lon": 84.952324,
			"tags": {
				"name:eo": "Tomsk"
			}
		},
		{
			"type": "node",
			"id": 170792214,
			"lat": 41.9960924,
			"lon": 21.4316495,
			"tags": {
				"name:eo": "Skopjo"
			}
		},
		{
			"type": "node",
			"id": 175699213,
			"lat": 12.1461244,
			"lon": -86.273717,
			"tags": {
				"name:eo": "Managvo"
			}
		},
		{
			"type": "node",
			"id": 191657470,
			"lat": 53.71529,
			"lon": 91.438873,
			"tags": {
				"name:eo": "Abakan"
			}
		},
		{
			"type": "node",
			"id": 191697061,
			"lat": 46.349854,
			"lon": 48.031567,
			"tags": {
				"name:eo": "Astraĥan"
			}
		},
		{
			"type": "node",
			"id": 191698855,
			"lat": 56.1288899,
			"lon": 40.4075203,
			"tags": {
				"name:eo": "Vladimir"
			}
		},
		{
			"type": "node",
			"id": 191738860,
			"lat": 48.7881668,
			"lon": 132.9282082,
			"tags": {
				"name:eo": "Birobiĝano"
			}
		},
		{
			"type": "node",
			"id": 191771467,
			"lat": 47.7119167,
			"lon": 40.2115699,
			"tags": {
				"name:eo": "Ŝaĥti"
			}
		},
		{
			"type": "node",
			"id": 191858851,
			"lat": 55.6783142,
			"lon": 37.89377,
			"tags": {
				"name:eo": "Luberci"
			}
		},
		{
			"type": "node",
			"id": 191867420,
			"lat": 55.0938743,
			"lon": 38.7670121,
			"tags": {
				"name:eo": "Kolomna"
			}
		},
		{
			"type": "node",
			"id": 191871925,
			"lat": 55.6711507,
			"lon": 37.2727963,
			"tags": {
				"name:eo": "Odincovo"
			}
		},
		{
			"type": "node",
			"id": 191880180,
			"lat": 54.9155247,
			"lon": 37.4195533,
			"tags": {
				"name:eo": "Serpuĥov"
			}
		},
		{
			"type": "node",
			"id": 191882252,
			"lat": 50.0808422,
			"lon": 45.4048003,
			"tags": {
				"name:eo": "Kamiŝin"
			}
		},
		{
			"type": "node",
			"id": 191885615,
			"lat": 55.8083278,
			"lon": 38.9790038,
			"tags": {
				"name:eo": "Oreĥovo-Zujevo"
			}
		},
		{
			"type": "node",
			"id": 191889906,
			"lat": 47.7558886,
			"lon": 39.935987,
			"tags": {
				"name:eo": "Novoŝaĥtinsk"
			}
		},
		{
			"type": "node",
			"id": 191903740,
			"lat": 42.0576987,
			"lon": 48.2938068,
			"tags": {
				"name:eo": "Derbent"
			}
		},
		{
			"type": "node",
			"id": 191913805,
			"lat": 55.5972801,
			"lon": 38.1199863,
			"tags": {
				"name:eo": "Ĵukovskij"
			}
		},
		{
			"type": "node",
			"id": 192581952,
			"lat": 33.3532137,
			"lon": 43.7875674,
			"tags": {
				"name:eo": "Faluĝa"
			}
		},
		{
			"type": "node",
			"id": 193823659,
			"lat": 53.1449683,
			"lon": 29.2281209,
			"tags": {
				"name:eo": "Babrujsk"
			}
		},
		{
			"type": "node",
			"id": 193824312,
			"lat": 52.8909861,
			"lon": 30.0383045,
			"tags": {
				"name:eo": "Ĵlobin"
			}
		},
		{
			"type": "node",
			"id": 195594311,
			"lat": -3.1319515,
			"lon": -59.9864062,
			"tags": {
				"name:eo": "Manaŭo"
			}
		},
		{
			"type": "node",
			"id": 197698100,
			"lat": 9.9325427,
			"lon": -84.0795782,
			"tags": {
				"name:eo": "San-Joseo"
			}
		},
		{
			"type": "node",
			"id": 197701710,
			"lat": 13.6977587,
			"lon": -89.19301,
			"tags": {
				"name:eo": "San-Salvadoro"
			}
		},
		{
			"type": "node",
			"id": 198411639,
			"lat": -27.3664867,
			"lon": -55.8939677,
			"tags": {
				"name:eo": "Posadas"
			}
		},
		{
			"type": "node",
			"id": 198419670,
			"lat": -41.1334672,
			"lon": -71.3099936,
			"tags": {
				"name:eo": "Bariloĉe"
			}
		},
		{
			"type": "node",
			"id": 198493613,
			"lat": 14.5906216,
			"lon": 120.9799696,
			"tags": {
				"name:eo": "Manilo"
			}
		},
		{
			"type": "node",
			"id": 206136859,
			"lat": -25.4295697,
			"lon": -49.2712362,
			"tags": {
				"name:eo": "Kuritibo"
			}
		},
		{
			"type": "node",
			"id": 206292236,
			"lat": 47.7857051,
			"lon": 18.7403659,
			"tags": {
				"name:eo": "Esztergom"
			}
		},
		{
			"type": "node",
			"id": 208501048,
			"lat": 25.3726249,
			"lon": 49.586973,
			"tags": {
				"name:eo": "Hofufo"
			}
		},
		{
			"type": "node",
			"id": 210731106,
			"lat": -5.805398,
			"lon": -35.2080905,
			"tags": {
				"name:eo": "Natalo"
			}
		},
		{
			"type": "node",
			"id": 210738427,
			"lat": -3.7304512,
			"lon": -38.5217989,
			"tags": {
				"name:eo": "Fortalezo"
			}
		},
		{
			"type": "node",
			"id": 214202817,
			"lat": -37.4707455,
			"lon": -72.351686,
			"tags": {
				"name:eo": "Los Anĝeleso"
			}
		},
		{
			"type": "node",
			"id": 218730242,
			"lat": 42.271584,
			"lon": 42.705359,
			"tags": {
				"name:eo": "Kutaiso"
			}
		},
		{
			"type": "node",
			"id": 226881400,
			"lat": 23.5997857,
			"lon": 58.5451305,
			"tags": {
				"name:eo": "Maskato"
			}
		},
		{
			"type": "node",
			"id": 230628786,
			"lat": -9.4743301,
			"lon": 147.1599504,
			"tags": {
				"name:eo": "Port-Moresbo"
			}
		},
		{
			"type": "node",
			"id": 238927834,
			"lat": 15.2984622,
			"lon": -61.3875049,
			"tags": {
				"name:eo": "Roseo"
			}
		},
		{
			"type": "node",
			"id": 240025182,
			"lat": 47.3723957,
			"lon": 8.5423216,
			"tags": {
				"name:eo": "Zuriko"
			}
		},
		{
			"type": "node",
			"id": 240034850,
			"lat": 51.9863077,
			"lon": 9.8247473,
			"tags": {
				"name:eo": "Alfeld (Leine)"
			}
		},
		{
			"type": "node",
			"id": 240038130,
			"lat": 50.9777974,
			"lon": 11.0287364,
			"tags": {
				"name:eo": "Erfurto"
			}
		},
		{
			"type": "node",
			"id": 240038229,
			"lat": 54.3690547,
			"lon": 12.7258585,
			"tags": {
				"name:eo": "Barth"
			}
		},
		{
			"type": "node",
			"id": 240041315,
			"lat": 50.776351,
			"lon": 6.083862,
			"tags": {
				"name:eo": "Aĥeno"
			}
		},
		{
			"type": "node",
			"id": 240092010,
			"lat": 47.9960901,
			"lon": 7.8494005,
			"tags": {
				"name:eo": "Freiburg"
			}
		},
		{
			"type": "node",
			"id": 240109189,
			"lat": 52.5170365,
			"lon": 13.3888599,
			"tags": {
				"name:eo": "Berlino"
			}
		},
		{
			"type": "node",
			"id": 240120582,
			"lat": 49.014068,
			"lon": 8.404437,
			"tags": {
				"name:eo": "Karlsruhe"
			}
		},
		{
			"type": "node",
			"id": 242978887,
			"lat": 55.1930197,
			"lon": 30.2070437,
			"tags": {
				"name:eo": "Vicebsko"
			}
		},
		{
			"type": "node",
			"id": 242978894,
			"lat": 52.2085858,
			"lon": 24.3542923,
			"tags": {
				"name:eo": "Kobrin"
			}
		},
		{
			"type": "node",
			"id": 242978903,
			"lat": 53.8949515,
			"lon": 25.295719,
			"tags": {
				"name:eo": "Lida"
			}
		},
		{
			"type": "node",
			"id": 242978904,
			"lat": 53.0927071,
			"lon": 25.3193209,
			"tags": {
				"name:eo": "Slonim"
			}
		},
		{
			"type": "node",
			"id": 242978909,
			"lat": 53.5942131,
			"lon": 25.8217516,
			"tags": {
				"name:eo": "Navahrudak"
			}
		},
		{
			"type": "node",
			"id": 242978911,
			"lat": 53.1322925,
			"lon": 26.0184156,
			"tags": {
				"name:eo": "Baranaviĉi"
			}
		},
		{
			"type": "node",
			"id": 242978912,
			"lat": 52.1114306,
			"lon": 26.1026086,
			"tags": {
				"name:eo": "Pinsk"
			}
		},
		{
			"type": "node",
			"id": 242978914,
			"lat": 54.4817188,
			"lon": 26.4016684,
			"tags": {
				"name:eo": "Smarhon"
			}
		},
		{
			"type": "node",
			"id": 242978930,
			"lat": 52.7893039,
			"lon": 27.5318168,
			"tags": {
				"name:eo": "Salihorsk"
			}
		},
		{
			"type": "node",
			"id": 242978952,
			"lat": 54.2240665,
			"lon": 28.5117849,
			"tags": {
				"name:eo": "Borisov"
			}
		},
		{
			"type": "node",
			"id": 242978971,
			"lat": 53.0820031,
			"lon": 30.0531983,
			"tags": {
				"name:eo": "Rahaĉoŭ"
			}
		},
		{
			"type": "node",
			"id": 242978985,
			"lat": 52.3717518,
			"lon": 30.3860239,
			"tags": {
				"name:eo": "Reĉica"
			}
		},
		{
			"type": "node",
			"id": 242978991,
			"lat": 54.289463,
			"lon": 30.9810782,
			"tags": {
				"name:eo": "Horki"
			}
		},
		{
			"type": "node",
			"id": 242979047,
			"lat": 54.0989214,
			"lon": 28.3413754,
			"tags": {
				"name:eo": "Ĵodzina"
			}
		},
		{
			"type": "node",
			"id": 243198608,
			"lat": -20.2996826,
			"lon": -40.3016327,
			"tags": {
				"name:eo": "Vitorio"
			}
		},
		{
			"type": "node",
			"id": 243682125,
			"lat": 47.7848912,
			"lon": 18.9705776,
			"tags": {
				"name:eo": "Visegrád"
			}
		},
		{
			"type": "node",
			"id": 243819778,
			"lat": -20.1637281,
			"lon": 57.5045331,
			"tags": {
				"name:eo": "Port-Luiso"
			}
		},
		{
			"type": "node",
			"id": 243837793,
			"lat": -26.325745,
			"lon": 31.144663,
			"tags": {
				"name:eo": "Mbabano"
			}
		},
		{
			"type": "node",
			"id": 243850406,
			"lat": -10.9162061,
			"lon": -37.0774655,
			"tags": {
				"name:eo": "Arakaĵuo"
			}
		},
		{
			"type": "node",
			"id": 243850911,
			"lat": -9.6476843,
			"lon": -35.7339264,
			"tags": {
				"name:eo": "Maceioo"
			}
		},
		{
			"type": "node",
			"id": 244075908,
			"lat": 30.5119718,
			"lon": 117.0429659,
			"tags": {
				"name:eo": "Ankingo"
			}
		},
		{
			"type": "node",
			"id": 244076913,
			"lat": 32.9181597,
			"lon": 117.3678101,
			"tags": {
				"name:eo": "Bengbu"
			}
		},
		{
			"type": "node",
			"id": 244077464,
			"lat": 31.6270906,
			"lon": 117.8847158,
			"tags": {
				"name:eo": "Chaohu Urbo"
			}
		},
		{
			"type": "node",
			"id": 244078987,
			"lat": 31.0855894,
			"lon": 118.2000683,
			"tags": {
				"name:eo": "Fanchang Graflando"
			}
		},
		{
			"type": "node",
			"id": 244080421,
			"lat": 33.3205095,
			"lon": 117.3091682,
			"tags": {
				"name:eo": "Guzhen Graflando"
			}
		},
		{
			"type": "node",
			"id": 244080443,
			"lat": 23.1387267,
			"lon": 113.319321,
			"tags": {
				"name:eo": "Kantono"
			}
		},
		{
			"type": "node",
			"id": 244080620,
			"lat": 40.8337963,
			"lon": 111.6730788,
			"tags": {
				"name:eo": "Hoĥoto"
			}
		},
		{
			"type": "node",
			"id": 244081289,
			"lat": 31.669966,
			"lon": 118.502048,
			"tags": {
				"name:eo": "Maanŝan"
			}
		},
		{
			"type": "node",
			"id": 244081476,
			"lat": 30.9150329,
			"lon": 118.3288821,
			"tags": {
				"name:eo": "Nanling Graflado"
			}
		},
		{
			"type": "node",
			"id": 244081839,
			"lat": 36.2002968,
			"lon": 117.0809316,
			"tags": {
				"name:eo": "Tajan"
			}
		},
		{
			"type": "node",
			"id": 244081874,
			"lat": 44.298891,
			"lon": 86.0528381,
			"tags": {
				"name:eo": "Ŝihezi"
			}
		},
		{
			"type": "node",
			"id": 244081999,
			"lat": 43.8058709,
			"lon": 87.6064713,
			"tags": {
				"name:eo": "Urumĉio"
			}
		},
		{
			"type": "node",
			"id": 244082212,
			"lat": 31.3536127,
			"lon": 118.427635,
			"tags": {
				"name:eo": "Vuĥu"
			}
		},
		{
			"type": "node",
			"id": 244082766,
			"lat": 40.2916528,
			"lon": 97.0448526,
			"tags": {
				"name:eo": "Jumen"
			}
		},
		{
			"type": "node",
			"id": 244083225,
			"lat": 32.945992,
			"lon": 117.3621199,
			"tags": {
				"name:eo": "Bengshan Distrikto"
			}
		},
		{
			"type": "node",
			"id": 244083228,
			"lat": 32.9672034,
			"lon": 117.353831,
			"tags": {
				"name:eo": "Huaishang Distrikto"
			}
		},
		{
			"type": "node",
			"id": 244083236,
			"lat": 32.9318356,
			"lon": 117.336544,
			"tags": {
				"name:eo": "Yuhui Distrikto"
			}
		},
		{
			"type": "node",
			"id": 244083251,
			"lat": 31.7020193,
			"lon": 118.5058733,
			"tags": {
				"name:eo": "Huashan Distrikto"
			}
		},
		{
			"type": "node",
			"id": 244083257,
			"lat": 31.3422958,
			"lon": 118.3797326,
			"tags": {
				"name:eo": "Jinghu Distrikto"
			}
		},
		{
			"type": "node",
			"id": 244083594,
			"lat": 32.9448624,
			"lon": 117.3881282,
			"tags": {
				"name:eo": "Longzihu Distrikto"
			}
		},
		{
			"type": "node",
			"id": 245385393,
			"lat": 41.4769621,
			"lon": 69.5915399,
			"tags": {
				"name:eo": "Chirchiq"
			}
		},
		{
			"type": "node",
			"id": 245531332,
			"lat": 40.4966983,
			"lon": 68.776055,
			"tags": {
				"name:eo": "Gulistan"
			}
		},
		{
			"type": "node",
			"id": 245542318,
			"lat": 39.6547869,
			"lon": 66.9758026,
			"tags": {
				"name:eo": "Samarkando"
			}
		},
		{
			"type": "node",
			"id": 245707150,
			"lat": 22.5677459,
			"lon": 88.3476023,
			"tags": {
				"name:eo": "Kolkato"
			}
		},
		{
			"type": "node",
			"id": 246514396,
			"lat": 12.0535331,
			"lon": -61.751805,
			"tags": {
				"name:eo": "Sankta Georgo"
			}
		},
		{
			"type": "node",
			"id": 246514507,
			"lat": 13.1561864,
			"lon": -61.2279621,
			"tags": {
				"name:eo": "Kingstaŭno"
			}
		},
		{
			"type": "node",
			"id": 246671856,
			"lat": -19.9227318,
			"lon": -43.9450948,
			"tags": {
				"name:eo": "Bel-Horizonto"
			}
		},
		{
			"type": "node",
			"id": 246842649,
			"lat": 46.7774872,
			"lon": -56.1767706,
			"tags": {
				"name:eo": "Sanktpiero"
			}
		},
		{
			"type": "node",
			"id": 247172937,
			"lat": 40.8785346,
			"lon": 69.0443667,
			"tags": {
				"name:eo": "Oqqurgan"
			}
		},
		{
			"type": "node",
			"id": 247173413,
			"lat": 41.3873284,
			"lon": 69.4641139,
			"tags": {
				"name:eo": "Kibray"
			}
		},
		{
			"type": "node",
			"id": 247446451,
			"lat": 27.5489882,
			"lon": 90.753264,
			"tags": {
				"name:eo": "Jakaro"
			}
		},
		{
			"type": "node",
			"id": 247880583,
			"lat": 49.255875,
			"lon": 23.8530863,
			"tags": {
				"name:eo": "Strij"
			}
		},
		{
			"type": "node",
			"id": 248777764,
			"lat": 48.7440014,
			"lon": 30.2237716,
			"tags": {
				"name:eo": "Uman"
			}
		},
		{
			"type": "node",
			"id": 249166495,
			"lat": 18.0792379,
			"lon": -15.9780071,
			"tags": {
				"name:eo": "Nuakŝoto"
			}
		},
		{
			"type": "node",
			"id": 249167555,
			"lat": 13.45535,
			"lon": -16.575646,
			"tags": {
				"name:eo": "Banĵulo"
			}
		},
		{
			"type": "node",
			"id": 249748477,
			"lat": 49.2320162,
			"lon": 28.467975,
			"tags": {
				"name:eo": "Vinico"
			}
		},
		{
			"type": "node",
			"id": 249854726,
			"lat": -25.2959916,
			"lon": -57.6311196,
			"tags": {
				"name:eo": "Asunciono"
			}
		},
		{
			"type": "node",
			"id": 250880648,
			"lat": 34.4505521,
			"lon": 40.9170636,
			"tags": {
				"name:eo": "Abu Kamal"
			}
		},
		{
			"type": "node",
			"id": 251073791,
			"lat": 44.6054434,
			"lon": 33.5220842,
			"tags": {
				"name:eo": "Sebastopolo"
			}
		},
		{
			"type": "node",
			"id": 251223522,
			"lat": 49.4196404,
			"lon": 26.9793793,
			"tags": {
				"name:eo": "Ĥmelnicko"
			}
		},
		{
			"type": "node",
			"id": 252098339,
			"lat": 50.2598298,
			"lon": 28.6692345,
			"tags": {
				"name:eo": "Ĵitomiro"
			}
		},
		{
			"type": "node",
			"id": 252546931,
			"lat": 55.7043101,
			"lon": 38.9569091,
			"tags": {
				"name:eo": "Likino-Dulovo"
			}
		},
		{
			"type": "node",
			"id": 253006651,
			"lat": 48.7199609,
			"lon": 32.6659476,
			"tags": {
				"name:eo": "Znamjanka"
			}
		},
		{
			"type": "node",
			"id": 253016504,
			"lat": 55.3829765,
			"lon": 39.0356223,
			"tags": {
				"name:eo": "Jegorjevsk"
			}
		},
		{
			"type": "node",
			"id": 253315888,
			"lat": 46.6153998,
			"lon": 31.5457415,
			"tags": {
				"name:eo": "Oĉakovo"
			}
		},
		{
			"type": "node",
			"id": 253338950,
			"lat": 55.7293613,
			"lon": 36.8585382,
			"tags": {
				"name:eo": "Zvenigorod"
			}
		},
		{
			"type": "node",
			"id": 253438546,
			"lat": 55.821744,
			"lon": 37.3404142,
			"tags": {
				"name:eo": "Krasnogorsk"
			}
		},
		{
			"type": "node",
			"id": 253732932,
			"lat": 55.4219938,
			"lon": 38.2590612,
			"tags": {
				"name:eo": "Bronnici"
			}
		},
		{
			"type": "node",
			"id": 253814474,
			"lat": 45.613029,
			"lon": 38.95089,
			"tags": {
				"name:eo": "Timaŝovsk"
			}
		},
		{
			"type": "node",
			"id": 253874196,
			"lat": 48.5674507,
			"lon": 39.2912928,
			"tags": {
				"name:eo": "Lugansko"
			}
		},
		{
			"type": "node",
			"id": 253877159,
			"lat": 48.4693266,
			"lon": 38.803538,
			"tags": {
				"name:eo": "Alĉevsk"
			}
		},
		{
			"type": "node",
			"id": 254262743,
			"lat": 49.2783459,
			"lon": 23.5064459,
			"tags": {
				"name:eo": "Truskavec"
			}
		},
		{
			"type": "node",
			"id": 254275595,
			"lat": 48.2050985,
			"lon": 22.6453246,
			"tags": {
				"name:eo": "Berehove"
			}
		},
		{
			"type": "node",
			"id": 254372964,
			"lat": 41.4254935,
			"lon": 76.0057796,
			"tags": {
				"name:eo": "Narin"
			}
		},
		{
			"type": "node",
			"id": 254525765,
			"lat": 11.861324,
			"lon": -15.583055,
			"tags": {
				"name:eo": "Bisaŭo"
			}
		},
		{
			"type": "node",
			"id": 255259998,
			"lat": 49.8038191,
			"lon": 30.1116924,
			"tags": {
				"name:eo": "Bila-Cerkva"
			}
		},
		{
			"type": "node",
			"id": 255260767,
			"lat": 50.3242036,
			"lon": 29.0399759,
			"tags": {
				"name:eo": "Korostiŝiv"
			}
		},
		{
			"type": "node",
			"id": 255466573,
			"lat": 46.640176,
			"lon": 32.6145315,
			"tags": {
				"name:eo": "Ĥersono"
			}
		},
		{
			"type": "node",
			"id": 256304928,
			"lat": -8.7494525,
			"lon": -63.8735438,
			"tags": {
				"name:eo": "Porto-Veljo"
			}
		},
		{
			"type": "node",
			"id": 256361817,
			"lat": 55.5069136,
			"lon": 37.5673544,
			"tags": {
				"name:eo": "Ŝĉerbinka"
			}
		},
		{
			"type": "node",
			"id": 256361843,
			"lat": 55.5709361,
			"lon": 38.2282099,
			"tags": {
				"name:eo": "Ramenskoje"
			}
		},
		{
			"type": "node",
			"id": 256361847,
			"lat": 55.8792983,
			"lon": 38.7858721,
			"tags": {
				"name:eo": "Elektrogorsk"
			}
		},
		{
			"type": "node",
			"id": 256361848,
			"lat": 55.7448093,
			"lon": 38.8491341,
			"tags": {
				"name:eo": "Drezna"
			}
		},
		{
			"type": "node",
			"id": 256361850,
			"lat": 55.578403,
			"lon": 39.5437584,
			"tags": {
				"name:eo": "Ŝatura"
			}
		},
		{
			"type": "node",
			"id": 256361852,
			"lat": 55.6603765,
			"lon": 39.8776533,
			"tags": {
				"name:eo": "Roŝal"
			}
		},
		{
			"type": "node",
			"id": 256361853,
			"lat": 55.9310313,
			"lon": 39.4599489,
			"tags": {
				"name:eo": "Petuŝki"
			}
		},
		{
			"type": "node",
			"id": 256361854,
			"lat": 55.9186169,
			"lon": 39.1705507,
			"tags": {
				"name:eo": "Pokrov"
			}
		},
		{
			"type": "node",
			"id": 256361869,
			"lat": 54.886598,
			"lon": 38.0772589,
			"tags": {
				"name:eo": "Stupino"
			}
		},
		{
			"type": "node",
			"id": 256361870,
			"lat": 54.837449,
			"lon": 38.1505119,
			"tags": {
				"name:eo": "Kaŝira"
			}
		},
		{
			"type": "node",
			"id": 256361872,
			"lat": 54.479279,
			"lon": 37.693329,
			"tags": {
				"name:eo": "Jasnogorsk"
			}
		},
		{
			"type": "node",
			"id": 256361873,
			"lat": 54.854209,
			"lon": 38.5598853,
			"tags": {
				"name:eo": "Ozjori"
			}
		},
		{
			"type": "node",
			"id": 256361874,
			"lat": 54.7585694,
			"lon": 38.8818137,
			"tags": {
				"name:eo": "Zarajsk"
			}
		},
		{
			"type": "node",
			"id": 256361887,
			"lat": 55.7184467,
			"lon": 38.2228192,
			"tags": {
				"name:eo": "Elektrougli"
			}
		},
		{
			"type": "node",
			"id": 256579283,
			"lat": 45.7093755,
			"lon": 34.3899131,
			"tags": {
				"name:eo": "Ĝankojo"
			}
		},
		{
			"type": "node",
			"id": 256613679,
			"lat": 48.5915754,
			"lon": 37.9837099,
			"tags": {
				"name:eo": "Baĥmut"
			}
		},
		{
			"type": "node",
			"id": 256613740,
			"lat": 48.3058686,
			"lon": 38.0027664,
			"tags": {
				"name:eo": "Horlivka"
			}
		},
		{
			"type": "node",
			"id": 256613834,
			"lat": 48.6198614,
			"lon": 37.524945,
			"tags": {
				"name:eo": "Druĵkivka"
			}
		},
		{
			"type": "node",
			"id": 256613898,
			"lat": 48.5255996,
			"lon": 37.7120012,
			"tags": {
				"name:eo": "Kostjantinivka"
			}
		},
		{
			"type": "node",
			"id": 256613916,
			"lat": 48.2771086,
			"lon": 37.1772482,
			"tags": {
				"name:eo": "Pokrovsk"
			}
		},
		{
			"type": "node",
			"id": 256613930,
			"lat": 48.0448144,
			"lon": 37.9635093,
			"tags": {
				"name:eo": "Makijivka"
			}
		},
		{
			"type": "node",
			"id": 256613986,
			"lat": 48.8522691,
			"lon": 37.6058241,
			"tags": {
				"name:eo": "Slovjansko"
			}
		},
		{
			"type": "node",
			"id": 256614136,
			"lat": 48.1247511,
			"lon": 37.8512479,
			"tags": {
				"name:eo": "Jasinuvata"
			}
		},
		{
			"type": "node",
			"id": 257363453,
			"lat": 35.8494916,
			"lon": 128.5599518,
			"tags": {
				"name:eo": "Taeguo"
			}
		},
		{
			"type": "node",
			"id": 257363455,
			"lat": 36.3326329,
			"lon": 127.3845762,
			"tags": {
				"name:eo": "Deĝon"
			}
		},
		{
			"type": "node",
			"id": 258013552,
			"lat": 15.342101,
			"lon": 44.2005197,
			"tags": {
				"name:eo": "Sanao"
			}
		},
		{
			"type": "node",
			"id": 258834478,
			"lat": 55.5825823,
			"lon": 37.9084815,
			"tags": {
				"name:eo": "Litkarino"
			}
		},
		{
			"type": "node",
			"id": 259862730,
			"lat": 53.811798,
			"lon": 36.137001,
			"tags": {
				"name:eo": "Belov"
			}
		},
		{
			"type": "node",
			"id": 259980476,
			"lat": 50.7224829,
			"lon": 24.1648399,
			"tags": {
				"name:eo": "Novovolinsk"
			}
		},
		{
			"type": "node",
			"id": 259984311,
			"lat": 50.8474669,
			"lon": 24.319319,
			"tags": {
				"name:eo": "Volodimir-Volinskij"
			}
		},
		{
			"type": "node",
			"id": 260342645,
			"lat": 51.2169499,
			"lon": 24.0386003,
			"tags": {
				"name:eo": "Ljuboml"
			}
		},
		{
			"type": "node",
			"id": 260715532,
			"lat": 26.5897046,
			"lon": 12.7694188,
			"tags": {
				"name:eo": "Aŭbari"
			}
		},
		{
			"type": "node",
			"id": 260720826,
			"lat": 32.3744501,
			"lon": 15.0905413,
			"tags": {
				"name:eo": "Misrata"
			}
		},
		{
			"type": "node",
			"id": 260893514,
			"lat": 51.4909494,
			"lon": 23.9219323,
			"tags": {
				"name:eo": "Ŝacko"
			}
		},
		{
			"type": "node",
			"id": 260943265,
			"lat": 50.3892068,
			"lon": 24.2287906,
			"tags": {
				"name:eo": "Ĉervonohrad"
			}
		},
		{
			"type": "node",
			"id": 261611194,
			"lat": 24.4747961,
			"lon": 54.3705762,
			"tags": {
				"name:eo": "Abu-Dabio"
			}
		},
		{
			"type": "node",
			"id": 261709042,
			"lat": 49.7831792,
			"lon": 23.6479323,
			"tags": {
				"name:eo": "Horodok"
			}
		},
		{
			"type": "node",
			"id": 263946020,
			"lat": 15.338997,
			"lon": 38.9326719,
			"tags": {
				"name:eo": "Asmaro"
			}
		},
		{
			"type": "node",
			"id": 264881676,
			"lat": 33.4570853,
			"lon": 9.0250214,
			"tags": {
				"name:eo": "Douz"
			}
		},
		{
			"type": "node",
			"id": 265018692,
			"lat": 35.6828378,
			"lon": 139.7589667,
			"tags": {
				"name:eo": "Tokio"
			}
		},
		{
			"type": "node",
			"id": 265057614,
			"lat": 50.9133081,
			"lon": 34.7947025,
			"tags": {
				"name:eo": "Sumio"
			}
		},
		{
			"type": "node",
			"id": 265058407,
			"lat": 47.5692061,
			"lon": 34.3917272,
			"tags": {
				"name:eo": "Nikopol"
			}
		},
		{
			"type": "node",
			"id": 265059962,
			"lat": 48.5317201,
			"lon": 35.8703535,
			"tags": {
				"name:eo": "Pavlohrad"
			}
		},
		{
			"type": "node",
			"id": 265958490,
			"lat": 38.7077926,
			"lon": -9.1365061,
			"tags": {
				"name:eo": "Lisbono"
			}
		},
		{
			"type": "node",
			"id": 266318137,
			"lat": 44.5092913,
			"lon": 33.6002588,
			"tags": {
				"name:eo": "Balaklavo"
			}
		},
		{
			"type": "node",
			"id": 266714836,
			"lat": 54.638054,
			"lon": 21.80892,
			"tags": {
				"name:eo": "Ĉernjaĥovsk"
			}
		},
		{
			"type": "node",
			"id": 266727954,
			"lat": -21.2074736,
			"lon": -159.7708145,
			"tags": {
				"name:eo": "Avaruo"
			}
		},
		{
			"type": "node",
			"id": 267121995,
			"lat": 31.8228094,
			"lon": 117.2218033,
			"tags": {
				"name:eo": "Hefejo"
			}
		},
		{
			"type": "node",
			"id": 267622126,
			"lat": 55.089725,
			"lon": 36.6613397,
			"tags": {
				"name:eo": "Belousovo"
			}
		},
		{
			"type": "node",
			"id": 268081010,
			"lat": 48.6784597,
			"lon": 26.5852225,
			"tags": {
				"name:eo": "Kamjanec-Podilskij"
			}
		},
		{
			"type": "node",
			"id": 268396336,
			"lat": 52.3727598,
			"lon": 4.8936041,
			"tags": {
				"name:eo": "Amsterdamo"
			}
		},
		{
			"type": "node",
			"id": 268459612,
			"lat": 48.9225224,
			"lon": 24.7103188,
			"tags": {
				"name:eo": "Ivano-Frankivsk"
			}
		},
		{
			"type": "node",
			"id": 269665736,
			"lat": 51.3484609,
			"lon": 25.8496537,
			"tags": {
				"name:eo": "Varaŝ"
			}
		},
		{
			"type": "node",
			"id": 270420987,
			"lat": 55.3879906,
			"lon": 36.7399678,
			"tags": {
				"name:eo": "Naro-Fominsk"
			}
		},
		{
			"type": "node",
			"id": 270875270,
			"lat": 58.842407,
			"lon": 57.555058,
			"tags": {
				"name:eo": "Gubaĥa"
			}
		},
		{
			"type": "node",
			"id": 271231306,
			"lat": 55.1426603,
			"lon": 37.4545328,
			"tags": {
				"name:eo": "Ĉeĥov"
			}
		},
		{
			"type": "node",
			"id": 271283522,
			"lat": 54.7293536,
			"lon": 37.1815538,
			"tags": {
				"name:eo": "Tarusa"
			}
		},
		{
			"type": "node",
			"id": 271613766,
			"lat": 30.048819,
			"lon": 31.243666,
			"tags": {
				"name:eo": "Kairo"
			}
		},
		{
			"type": "node",
			"id": 271789530,
			"lat": 51.2534475,
			"lon": 32.4263156,
			"tags": {
				"name:eo": "Borzna"
			}
		},
		{
			"type": "node",
			"id": 273488676,
			"lat": 43.7001477,
			"lon": 28.0362083,
			"tags": {
				"name:eo": "General Toŝevo"
			}
		},
		{
			"type": "node",
			"id": 273488837,
			"lat": 42.6232531,
			"lon": 25.3967476,
			"tags": {
				"name:eo": "Kazanlako"
			}
		},
		{
			"type": "node",
			"id": 273488962,
			"lat": 42.6375324,
			"lon": 24.3577991,
			"tags": {
				"name:eo": "Koprivŝtico"
			}
		},
		{
			"type": "node",
			"id": 274929523,
			"lat": 48.7387442,
			"lon": 37.5827086,
			"tags": {
				"name:eo": "Kramatorsko"
			}
		},
		{
			"type": "node",
			"id": 276708567,
			"lat": 43.2712716,
			"lon": 26.9360254,
			"tags": {
				"name:eo": "Ŝumen"
			}
		},
		{
			"type": "node",
			"id": 277399357,
			"lat": 32.652183,
			"lon": 14.26801,
			"tags": {
				"name:eo": "Al Ĥums"
			}
		},
		{
			"type": "node",
			"id": 277491317,
			"lat": 52.047562,
			"lon": 29.2665915,
			"tags": {
				"name:eo": "Mazir"
			}
		},
		{
			"type": "node",
			"id": 278473852,
			"lat": 32.9281747,
			"lon": 35.0756366,
			"tags": {
				"name:eo": "Akko"
			}
		},
		{
			"type": "node",
			"id": 280028528,
			"lat": 53.9090245,
			"lon": 30.3429838,
			"tags": {
				"name:eo": "Mahilovo"
			}
		},
		{
			"type": "node",
			"id": 280304251,
			"lat": 54.75795,
			"lon": 83.1068095,
			"tags": {
				"name:eo": "Berdsk"
			}
		},
		{
			"type": "node",
			"id": 280972174,
			"lat": 18.4257128,
			"lon": -64.6232227,
			"tags": {
				"name:eo": "Rod-Taŭno"
			}
		},
		{
			"type": "node",
			"id": 280978108,
			"lat": 18.341137,
			"lon": -64.932789,
			"tags": {
				"name:eo": "Ĉarlotamalio"
			}
		},
		{
			"type": "node",
			"id": 280982720,
			"lat": 43.9363996,
			"lon": 12.4466991,
			"tags": {
				"name:eo": "San-Marino"
			}
		},
		{
			"type": "node",
			"id": 282294082,
			"lat": 17.250199,
			"lon": -88.770018,
			"tags": {
				"name:eo": "Belmopano"
			}
		},
		{
			"type": "node",
			"id": 282335934,
			"lat": -17.831773,
			"lon": 31.045686,
			"tags": {
				"name:eo": "Harareo"
			}
		},
		{
			"type": "node",
			"id": 283030477,
			"lat": 47.1065585,
			"lon": 39.4176939,
			"tags": {
				"name:eo": "Azov"
			}
		},
		{
			"type": "node",
			"id": 283581865,
			"lat": 58.4534571,
			"lon": 56.4245447,
			"tags": {
				"name:eo": "Dobrjanka"
			}
		},
		{
			"type": "node",
			"id": 284716726,
			"lat": 48.5259211,
			"lon": 25.0380538,
			"tags": {
				"name:eo": "Kolomeo"
			}
		},
		{
			"type": "node",
			"id": 285734826,
			"lat": 60.4017837,
			"lon": 57.0767045,
			"tags": {
				"name:eo": "Krasnoviŝersk"
			}
		},
		{
			"type": "node",
			"id": 286523928,
			"lat": 54.084549,
			"lon": 61.551991,
			"tags": {
				"name:eo": "Troick"
			}
		},
		{
			"type": "node",
			"id": 287001619,
			"lat": 34.739739,
			"lon": 10.7598516,
			"tags": {
				"name:eo": "Sfakso"
			}
		},
		{
			"type": "node",
			"id": 287411141,
			"lat": 43.7587545,
			"lon": 44.0149008,
			"tags": {
				"name:eo": "Proĥladnij"
			}
		},
		{
			"type": "node",
			"id": 287543373,
			"lat": 35.828829,
			"lon": 10.640525,
			"tags": {
				"name:eo": "Sousse"
			}
		},
		{
			"type": "node",
			"id": 287543904,
			"lat": 35.6775263,
			"lon": 10.1006205,
			"tags": {
				"name:eo": "Kajruano"
			}
		},
		{
			"type": "node",
			"id": 287554239,
			"lat": 36.859939,
			"lon": 10.190973,
			"tags": {
				"name:eo": "Arjana"
			}
		},
		{
			"type": "node",
			"id": 287660963,
			"lat": 42.8881414,
			"lon": 47.6424676,
			"tags": {
				"name:eo": "Kaspijsk"
			}
		},
		{
			"type": "node",
			"id": 287670803,
			"lat": 42.8231634,
			"lon": 47.1286143,
			"tags": {
				"name:eo": "Bujnaksko"
			}
		},
		{
			"type": "node",
			"id": 287686736,
			"lat": 43.1999049,
			"lon": 46.8713343,
			"tags": {
				"name:eo": "Kizilurt"
			}
		},
		{
			"type": "node",
			"id": 289141966,
			"lat": 18.547327,
			"lon": -72.3395928,
			"tags": {
				"name:eo": "Portoprinco"
			}
		},
		{
			"type": "node",
			"id": 289346590,
			"lat": 33.8959203,
			"lon": 35.47843,
			"tags": {
				"name:eo": "Bejruto"
			}
		},
		{
			"type": "node",
			"id": 291727016,
			"lat": 42.2910523,
			"lon": 43.2866046,
			"tags": {
				"name:eo": "Ĉiatura"
			}
		},
		{
			"type": "node",
			"id": 291987644,
			"lat": -22.2745264,
			"lon": 166.442419,
			"tags": {
				"name:eo": "Noumeo"
			}
		},
		{
			"type": "node",
			"id": 292226474,
			"lat": 69.400925,
			"lon": 32.441334,
			"tags": {
				"name:eo": "Zaozjorsk"
			}
		},
		{
			"type": "node",
			"id": 293789508,
			"lat": 6.8025766,
			"lon": -58.1628612,
			"tags": {
				"name:eo": "Ĝorĝtaŭno"
			}
		},
		{
			"type": "node",
			"id": 294001443,
			"lat": 53.4791301,
			"lon": -2.2441009,
			"tags": {
				"name:eo": "Manĉestro"
			}
		},
		{
			"type": "node",
			"id": 295029548,
			"lat": 31.4167427,
			"lon": 31.8213657,
			"tags": {
				"name:eo": "Dumjat"
			}
		},
		{
			"type": "node",
			"id": 295342933,
			"lat": 0.3389242,
			"lon": 6.7313031,
			"tags": {
				"name:eo": "Sao-Tomeo"
			}
		},
		{
			"type": "node",
			"id": 296255680,
			"lat": 21.4607723,
			"lon": -71.1399956,
			"tags": {
				"name:eo": "Kokburno"
			}
		},
		{
			"type": "node",
			"id": 296410521,
			"lat": 56.500682,
			"lon": 56.0762788,
			"tags": {
				"name:eo": "Ĉernuŝka"
			}
		},
		{
			"type": "node",
			"id": 298019989,
			"lat": 33.7058066,
			"lon": 8.9705891,
			"tags": {
				"name:eo": "Kebili"
			}
		},
		{
			"type": "node",
			"id": 298352406,
			"lat": 44.4618046,
			"lon": 39.741048,
			"tags": {
				"name:eo": "Apŝeronsk"
			}
		},
		{
			"type": "node",
			"id": 298455987,
			"lat": 44.8833775,
			"lon": 39.1909625,
			"tags": {
				"name:eo": "Adigejsk"
			}
		},
		{
			"type": "node",
			"id": 299120862,
			"lat": 34.022405,
			"lon": -6.834543,
			"tags": {
				"name:eo": "Rabato"
			}
		},
		{
			"type": "node",
			"id": 299498464,
			"lat": 30.5853431,
			"lon": 31.5035127,
			"tags": {
				"name:eo": "Zagazig"
			}
		},
		{
			"type": "node",
			"id": 299501065,
			"lat": 26.1615051,
			"lon": 32.7182974,
			"tags": {
				"name:eo": "Kina"
			}
		},
		{
			"type": "node",
			"id": 299523927,
			"lat": 29.9723458,
			"lon": 30.9409205,
			"tags": {
				"name:eo": "Urbo 6-a de Oktobro"
			}
		},
		{
			"type": "node",
			"id": 299527803,
			"lat": 30.5545106,
			"lon": 31.0097923,
			"tags": {
				"name:eo": "Ŝibin al-Kaum"
			}
		},
		{
			"type": "node",
			"id": 299546351,
			"lat": 31.3528567,
			"lon": 27.2395262,
			"tags": {
				"name:eo": "Marsa Matruh"
			}
		},
		{
			"type": "node",
			"id": 299617915,
			"lat": 36.775348,
			"lon": 3.060065,
			"tags": {
				"name:eo": "Alĝero"
			}
		},
		{
			"type": "node",
			"id": 300086614,
			"lat": 19.2653107,
			"lon": 101.7059229,
			"tags": {
				"name:eo": "Sainjabuli"
			}
		},
		{
			"type": "node",
			"id": 300156975,
			"lat": 54.35392,
			"lon": 41.926643,
			"tags": {
				"name:eo": "Sasovo"
			}
		},
		{
			"type": "node",
			"id": 300906140,
			"lat": 49.6607393,
			"lon": 25.7768485,
			"tags": {
				"name:eo": "Zbaraĵo"
			}
		},
		{
			"type": "node",
			"id": 305138115,
			"lat": 14.0931919,
			"lon": -87.2012631,
			"tags": {
				"name:eo": "Tegucigalpo"
			}
		},
		{
			"type": "node",
			"id": 307965249,
			"lat": 58.566597,
			"lon": 57.833389,
			"tags": {
				"name:eo": "Gremjaĉinsk"
			}
		},
		{
			"type": "node",
			"id": 309353206,
			"lat": 54.230217,
			"lon": 39.027538,
			"tags": {
				"name:eo": "Miĥajlov"
			}
		},
		{
			"type": "node",
			"id": 310022311,
			"lat": 43.735584,
			"lon": 44.653614,
			"tags": {
				"name:eo": "Mozdoko"
			}
		},
		{
			"type": "node",
			"id": 312230548,
			"lat": 48.8025557,
			"lon": 26.0401871,
			"tags": {
				"name:eo": "Borŝĉivo"
			}
		},
		{
			"type": "node",
			"id": 312235616,
			"lat": 49.0630503,
			"lon": 25.389969,
			"tags": {
				"name:eo": "Buĉaĉo"
			}
		},
		{
			"type": "node",
			"id": 312238259,
			"lat": 48.6402658,
			"lon": 25.735898,
			"tags": {
				"name:eo": "Zaliŝĉiki"
			}
		},
		{
			"type": "node",
			"id": 312247291,
			"lat": 50.0962339,
			"lon": 25.7258837,
			"tags": {
				"name:eo": "Kremenec"
			}
		},
		{
			"type": "node",
			"id": 312255547,
			"lat": 49.2960742,
			"lon": 25.692491,
			"tags": {
				"name:eo": "Terebovlja"
			}
		},
		{
			"type": "node",
			"id": 312257558,
			"lat": 49.0160555,
			"lon": 25.7925191,
			"tags": {
				"name:eo": "Ĉortkivo"
			}
		},
		{
			"type": "node",
			"id": 312263993,
			"lat": 49.2516597,
			"lon": 24.633877,
			"tags": {
				"name:eo": "Burŝtin"
			}
		},
		{
			"type": "node",
			"id": 312276821,
			"lat": 48.4523142,
			"lon": 25.5518046,
			"tags": {
				"name:eo": "Snjatin"
			}
		},
		{
			"type": "node",
			"id": 313201927,
			"lat": 49.1652124,
			"lon": 26.5865127,
			"tags": {
				"name:eo": "Horodok"
			}
		},
		{
			"type": "node",
			"id": 313246159,
			"lat": 49.2887965,
			"lon": 23.4175813,
			"tags": {
				"name:eo": "Borislavo"
			}
		},
		{
			"type": "node",
			"id": 313248206,
			"lat": 49.3513996,
			"lon": 23.5061662,
			"tags": {
				"name:eo": "Drohobiĉo"
			}
		},
		{
			"type": "node",
			"id": 313426755,
			"lat": 51.3259771,
			"lon": 28.8026718,
			"tags": {
				"name:eo": "Ovruĉ"
			}
		},
		{
			"type": "node",
			"id": 313557783,
			"lat": -30.033,
			"lon": -51.2305,
			"tags": {
				"name:eo": "Porto-Alegro"
			}
		},
		{
			"type": "node",
			"id": 313670944,
			"lat": 47.5679582,
			"lon": 31.3338636,
			"tags": {
				"name:eo": "Voznesensko"
			}
		},
		{
			"type": "node",
			"id": 313764484,
			"lat": -19.047862,
			"lon": -65.2596023,
			"tags": {
				"name:eo": "Sukro"
			}
		},
		{
			"type": "node",
			"id": 314222364,
			"lat": 49.4696071,
			"lon": 24.1386133,
			"tags": {
				"name:eo": "Novi-Rozdil"
			}
		},
		{
			"type": "node",
			"id": 314794893,
			"lat": 55.6149968,
			"lon": 40.6708665,
			"tags": {
				"name:eo": "Gusj-Ĥrustalnij"
			}
		},
		{
			"type": "node",
			"id": 315342451,
			"lat": 18.4801972,
			"lon": -69.942111,
			"tags": {
				"name:eo": "Sankta Domingo"
			}
		},
		{
			"type": "node",
			"id": 315358390,
			"lat": 24.6319692,
			"lon": 46.7150648,
			"tags": {
				"name:eo": "Riado"
			}
		},
		{
			"type": "node",
			"id": 316186974,
			"lat": 48.0556765,
			"lon": 24.2057063,
			"tags": {
				"name:eo": "Raĥiv"
			}
		},
		{
			"type": "node",
			"id": 317989136,
			"lat": 44.1717856,
			"lon": 28.6319765,
			"tags": {
				"name:eo": "Konstanco"
			}
		},
		{
			"type": "node",
			"id": 319225774,
			"lat": 6.809107,
			"lon": -5.273263,
			"tags": {
				"name:eo": "Jamusukro"
			}
		},
		{
			"type": "node",
			"id": 327364412,
			"lat": 49.7488623,
			"lon": 18.6334308,
			"tags": {
				"name:eo": "Teŝino"
			}
		},
		{
			"type": "node",
			"id": 330171451,
			"lat": 50.9377744,
			"lon": 31.5812258,
			"tags": {
				"name:eo": "Nosivka"
			}
		},
		{
			"type": "node",
			"id": 331136682,
			"lat": 3.8689867,
			"lon": 11.5213344,
			"tags": {
				"name:eo": "Jaundeo"
			}
		},
		{
			"type": "node",
			"id": 332181950,
			"lat": 33.2639134,
			"lon": 130.3008378,
			"tags": {
				"name:eo": "Saga"
			}
		},
		{
			"type": "node",
			"id": 332349574,
			"lat": 53.773571,
			"lon": 38.126965,
			"tags": {
				"name:eo": "Bogorodick"
			}
		},
		{
			"type": "node",
			"id": 332350145,
			"lat": 53.141834,
			"lon": 38.116188,
			"tags": {
				"name:eo": "Jefremov"
			}
		},
		{
			"type": "node",
			"id": 332353039,
			"lat": 52.387798,
			"lon": 38.92672,
			"tags": {
				"name:eo": "Zadonsk"
			}
		},
		{
			"type": "node",
			"id": 332371954,
			"lat": 48.3210807,
			"lon": 40.2650679,
			"tags": {
				"name:eo": "Kamensk-Ŝaĥtinskij"
			}
		},
		{
			"type": "node",
			"id": 333892583,
			"lat": 53.92099,
			"lon": 40.019211,
			"tags": {
				"name:eo": "Korablino"
			}
		},
		{
			"type": "node",
			"id": 336140276,
			"lat": 52.49612,
			"lon": 39.955162,
			"tags": {
				"name:eo": "Grjazi"
			}
		},
		{
			"type": "node",
			"id": 336140811,
			"lat": 50.864902,
			"lon": 39.077244,
			"tags": {
				"name:eo": "Ostrogoĵsk"
			}
		},
		{
			"type": "node",
			"id": 336141081,
			"lat": 50.4837728,
			"lon": 35.6712018,
			"tags": {
				"name:eo": "Grajvoron"
			}
		},
		{
			"type": "node",
			"id": 336215777,
			"lat": 25.4522583,
			"lon": 30.5416007,
			"tags": {
				"name:eo": "Ĥarga"
			}
		},
		{
			"type": "node",
			"id": 336306335,
			"lat": 53.9699,
			"lon": 38.5327,
			"tags": {
				"name:eo": "Kimovsk"
			}
		},
		{
			"type": "node",
			"id": 336306337,
			"lat": 54.004465,
			"lon": 37.5179079,
			"tags": {
				"name:eo": "Ŝĉjokino"
			}
		},
		{
			"type": "node",
			"id": 336306378,
			"lat": 54.011013,
			"lon": 38.290943,
			"tags": {
				"name:eo": "Novomoskovsk"
			}
		},
		{
			"type": "node",
			"id": 336306458,
			"lat": 53.926712,
			"lon": 37.929916,
			"tags": {
				"name:eo": "Kirejevsk"
			}
		},
		{
			"type": "node",
			"id": 336306490,
			"lat": 53.708599,
			"lon": 37.289799,
			"tags": {
				"name:eo": "Plavsk"
			}
		},
		{
			"type": "node",
			"id": 336523790,
			"lat": 55.8636579,
			"lon": 48.3618598,
			"tags": {
				"name:eo": "Volĵsk"
			}
		},
		{
			"type": "node",
			"id": 336524051,
			"lat": 55.8477605,
			"lon": 48.5097031,
			"tags": {
				"name:eo": "Zelenodolsk"
			}
		},
		{
			"type": "node",
			"id": 337503361,
			"lat": 52.004259,
			"lon": 33.2779899,
			"tags": {
				"name:eo": "Novhorod-Siverskij"
			}
		},
		{
			"type": "node",
			"id": 337504066,
			"lat": 51.8915393,
			"lon": 31.595545,
			"tags": {
				"name:eo": "Horodnja"
			}
		},
		{
			"type": "node",
			"id": 337505025,
			"lat": 51.77444,
			"lon": 32.2514,
			"tags": {
				"name:eo": "Korjukivka"
			}
		},
		{
			"type": "node",
			"id": 337506245,
			"lat": 51.6271153,
			"lon": 24.961357,
			"tags": {
				"name:eo": "Kamin-Kaŝirskij"
			}
		},
		{
			"type": "node",
			"id": 337506833,
			"lat": 51.57051,
			"lon": 26.56632,
			"tags": {
				"name:eo": "Dubrovicja"
			}
		},
		{
			"type": "node",
			"id": 337507351,
			"lat": 51.52279,
			"lon": 32.21638,
			"tags": {
				"name:eo": "Mena"
			}
		},
		{
			"type": "node",
			"id": 337509542,
			"lat": 51.31782,
			"lon": 26.62262,
			"tags": {
				"name:eo": "Sarni"
			}
		},
		{
			"type": "node",
			"id": 337509799,
			"lat": 51.2908106,
			"lon": 25.537878,
			"tags": {
				"name:eo": "Maneviĉi"
			}
		},
		{
			"type": "node",
			"id": 337510526,
			"lat": 51.2397495,
			"lon": 33.206675,
			"tags": {
				"name:eo": "Konotop"
			}
		},
		{
			"type": "node",
			"id": 337510555,
			"lat": 51.22272,
			"lon": 27.64881,
			"tags": {
				"name:eo": "Olevsk"
			}
		},
		{
			"type": "node",
			"id": 337513526,
			"lat": 50.9508278,
			"lon": 30.8782419,
			"tags": {
				"name:eo": "Oster"
			}
		},
		{
			"type": "node",
			"id": 337513583,
			"lat": 50.9492852,
			"lon": 28.6416207,
			"tags": {
				"name:eo": "Korosten"
			}
		},
		{
			"type": "node",
			"id": 337514044,
			"lat": 50.916354,
			"lon": 25.271556,
			"tags": {
				"name:eo": "Roĵiŝĉe"
			}
		},
		{
			"type": "node",
			"id": 337514561,
			"lat": 50.88283,
			"lon": 26.4513,
			"tags": {
				"name:eo": "Kostopil"
			}
		},
		{
			"type": "node",
			"id": 337514854,
			"lat": 50.8623444,
			"lon": 32.3910082,
			"tags": {
				"name:eo": "Iĉnja"
			}
		},
		{
			"type": "node",
			"id": 337515438,
			"lat": 50.8312306,
			"lon": 25.4565259,
			"tags": {
				"name:eo": "Kiverci"
			}
		},
		{
			"type": "node",
			"id": 337516727,
			"lat": 50.7415033,
			"lon": 31.3860852,
			"tags": {
				"name:eo": "Bobrovicja"
			}
		},
		{
			"type": "node",
			"id": 337516855,
			"lat": 50.74207,
			"lon": 33.4877,
			"tags": {
				"name:eo": "Romni"
			}
		},
		{
			"type": "node",
			"id": 337520736,
			"lat": 50.50175,
			"lon": 29.24252,
			"tags": {
				"name:eo": "Radomiŝl"
			}
		},
		{
			"type": "node",
			"id": 337520759,
			"lat": 50.518994,
			"lon": 26.2431096,
			"tags": {
				"name:eo": "Zdolbuniv"
			}
		},
		{
			"type": "node",
			"id": 337522487,
			"lat": 50.4187452,
			"lon": 25.7454622,
			"tags": {
				"name:eo": "Dubno"
			}
		},
		{
			"type": "node",
			"id": 337524419,
			"lat": 50.329021,
			"lon": 26.5203627,
			"tags": {
				"name:eo": "Ostroh"
			}
		},
		{
			"type": "node",
			"id": 337524775,
			"lat": 50.3087362,
			"lon": 34.8937695,
			"tags": {
				"name:eo": "Oĥtirka"
			}
		},
		{
			"type": "node",
			"id": 337533363,
			"lat": 50.1276642,
			"lon": 25.2490036,
			"tags": {
				"name:eo": "Radiviliv"
			}
		},
		{
			"type": "node",
			"id": 337535126,
			"lat": 50.0763242,
			"lon": 29.9214275,
			"tags": {
				"name:eo": "Fastiv"
			}
		},
		{
			"type": "node",
			"id": 337535557,
			"lat": 50.0643984,
			"lon": 31.4447327,
			"tags": {
				"name:eo": "Perejaslav-Ĥmelnickij"
			}
		},
		{
			"type": "node",
			"id": 337538836,
			"lat": 49.9658333,
			"lon": 33.6113889,
			"tags": {
				"name:eo": "Mirhorodo"
			}
		},
		{
			"type": "node",
			"id": 337540194,
			"lat": 49.9316152,
			"lon": 23.5661291,
			"tags": {
				"name:eo": "Novojavorivsk"
			}
		},
		{
			"type": "node",
			"id": 337541446,
			"lat": 49.8940442,
			"lon": 28.5814912,
			"tags": {
				"name:eo": "Berdiĉiv"
			}
		},
		{
			"type": "node",
			"id": 337543666,
			"lat": 49.8284745,
			"lon": 30.4197205,
			"tags": {
				"name:eo": "Uzin"
			}
		},
		{
			"type": "node",
			"id": 337556154,
			"lat": 49.5253714,
			"lon": 23.9788155,
			"tags": {
				"name:eo": "Mikolaiv"
			}
		},
		{
			"type": "node",
			"id": 337556659,
			"lat": 49.5182487,
			"lon": 23.1969805,
			"tags": {
				"name:eo": "Sambir"
			}
		},
		{
			"type": "node",
			"id": 337563707,
			"lat": 49.2940892,
			"lon": 23.5646648,
			"tags": {
				"name:eo": "Stebniko"
			}
		},
		{
			"type": "node",
			"id": 337566618,
			"lat": 49.2335549,
			"lon": 31.8827069,
			"tags": {
				"name:eo": "Smila"
			}
		},
		{
			"type": "node",
			"id": 337574997,
			"lat": 49.0367148,
			"lon": 28.1138519,
			"tags": {
				"name:eo": "Ĵmerinka"
			}
		},
		{
			"type": "node",
			"id": 337575116,
			"lat": 49.0140647,
			"lon": 33.6330875,
			"tags": {
				"name:eo": "Horiŝni-Plavni"
			}
		},
		{
			"type": "node",
			"id": 337581265,
			"lat": 48.88985,
			"lon": 22.45812,
			"tags": {
				"name:eo": "Velikij Bereznij"
			}
		},
		{
			"type": "node",
			"id": 337582086,
			"lat": 48.8943809,
			"lon": 38.4432589,
			"tags": {
				"name:eo": "Lisiĉansk"
			}
		},
		{
			"type": "node",
			"id": 337586485,
			"lat": 48.77243,
			"lon": 22.9796199,
			"tags": {
				"name:eo": "Ĵdenijevo"
			}
		},
		{
			"type": "node",
			"id": 337588084,
			"lat": 48.7146406,
			"lon": 23.1888322,
			"tags": {
				"name:eo": "Volovec"
			}
		},
		{
			"type": "node",
			"id": 337589660,
			"lat": 48.6810505,
			"lon": 29.2567642,
			"tags": {
				"name:eo": "Ladiĵin"
			}
		},
		{
			"type": "node",
			"id": 337589760,
			"lat": 48.67596,
			"lon": 33.11623,
			"tags": {
				"name:eo": "Oleksandrija"
			}
		},
		{
			"type": "node",
			"id": 337591160,
			"lat": 48.6358512,
			"lon": 35.2595541,
			"tags": {
				"name:eo": "Novomoskovsk"
			}
		},
		{
			"type": "node",
			"id": 337594479,
			"lat": 48.5460735,
			"lon": 22.9895489,
			"tags": {
				"name:eo": "Svaljava"
			}
		},
		{
			"type": "node",
			"id": 337594685,
			"lat": 48.5413858,
			"lon": 22.5043823,
			"tags": {
				"name:eo": "Seredne"
			}
		},
		{
			"type": "node",
			"id": 337598184,
			"lat": 48.4470419,
			"lon": 27.8061264,
			"tags": {
				"name:eo": "Mogiliv-Podilskij"
			}
		},
		{
			"type": "node",
			"id": 337598436,
			"lat": 48.4418574,
			"lon": 22.71786,
			"tags": {
				"name:eo": "Mukaĉeve"
			}
		},
		{
			"type": "node",
			"id": 337598439,
			"lat": 48.44078,
			"lon": 38.74981,
			"tags": {
				"name:eo": "Kipuĉe"
			}
		},
		{
			"type": "node",
			"id": 337603049,
			"lat": 48.30757,
			"lon": 39.72004,
			"tags": {
				"name:eo": "Sorokine"
			}
		},
		{
			"type": "node",
			"id": 337604455,
			"lat": 48.27255,
			"lon": 24.3611499,
			"tags": {
				"name:eo": "Jasina"
			}
		},
		{
			"type": "node",
			"id": 337657274,
			"lat": 48.1764917,
			"lon": 23.291166,
			"tags": {
				"name:eo": "Ĥust"
			}
		},
		{
			"type": "node",
			"id": 337658507,
			"lat": 48.1403967,
			"lon": 23.036008,
			"tags": {
				"name:eo": "Vinohradiv"
			}
		},
		{
			"type": "node",
			"id": 337661270,
			"lat": 48.045745,
			"lon": 30.8475997,
			"tags": {
				"name:eo": "Pervomajsko"
			}
		},
		{
			"type": "node",
			"id": 337662678,
			"lat": 48.01163,
			"lon": 23.5783799,
			"tags": {
				"name:eo": "Taĉiv"
			}
		},
		{
			"type": "node",
			"id": 337663241,
			"lat": 47.9978901,
			"lon": 23.6995699,
			"tags": {
				"name:eo": "Teresva"
			}
		},
		{
			"type": "node",
			"id": 337664476,
			"lat": 47.973549,
			"lon": 24.0147396,
			"tags": {
				"name:eo": "Velikij Biĉkiv"
			}
		},
		{
			"type": "node",
			"id": 337665478,
			"lat": 47.93644,
			"lon": 29.62017,
			"tags": {
				"name:eo": "Balta"
			}
		},
		{
			"type": "node",
			"id": 337668729,
			"lat": 47.8283702,
			"lon": 31.1675163,
			"tags": {
				"name:eo": "Juĵnoukrainsk"
			}
		},
		{
			"type": "node",
			"id": 337675469,
			"lat": 47.4970865,
			"lon": 34.6487214,
			"tags": {
				"name:eo": "Enerhodaro"
			}
		},
		{
			"type": "node",
			"id": 337686273,
			"lat": 46.8357749,
			"lon": 33.416743,
			"tags": {
				"name:eo": "Berislav"
			}
		},
		{
			"type": "node",
			"id": 337686681,
			"lat": 46.8054626,
			"lon": 33.4817825,
			"tags": {
				"name:eo": "Kaĥovka"
			}
		},
		{
			"type": "node",
			"id": 337687341,
			"lat": 46.7549303,
			"lon": 33.3741329,
			"tags": {
				"name:eo": "Nov-Kaĥovka"
			}
		},
		{
			"type": "node",
			"id": 337688735,
			"lat": 46.6249473,
			"lon": 32.7251086,
			"tags": {
				"name:eo": "Oleŝki"
			}
		},
		{
			"type": "node",
			"id": 337689476,
			"lat": 46.5320381,
			"lon": 32.5345028,
			"tags": {
				"name:eo": "Hola Pristanj"
			}
		},
		{
			"type": "node",
			"id": 337690843,
			"lat": 46.3020943,
			"lon": 30.653466,
			"tags": {
				"name:eo": "Ĉornomorsk"
			}
		},
		{
			"type": "node",
			"id": 337692021,
			"lat": 46.1203932,
			"lon": 32.910339,
			"tags": {
				"name:eo": "Skadovsk"
			}
		},
		{
			"type": "node",
			"id": 337693965,
			"lat": 45.6909766,
			"lon": 28.608542,
			"tags": {
				"name:eo": "Bolhrad"
			}
		},
		{
			"type": "node",
			"id": 337696139,
			"lat": 45.3421228,
			"lon": 28.8359886,
			"tags": {
				"name:eo": "Ismajil"
			}
		},
		{
			"type": "node",
			"id": 339722677,
			"lat": 0.0460699,
			"lon": -51.0693238,
			"tags": {
				"name:eo": "Makapao"
			}
		},
		{
			"type": "node",
			"id": 340962185,
			"lat": 54.759121,
			"lon": 61.313198,
			"tags": {
				"name:eo": "Jemanĵelinsk"
			}
		},
		{
			"type": "node",
			"id": 342263289,
			"lat": 56.3350632,
			"lon": 29.3684565,
			"tags": {
				"name:eo": "Pustoŝka"
			}
		},
		{
			"type": "node",
			"id": 355144185,
			"lat": 54.889923,
			"lon": 61.407963,
			"tags": {
				"name:eo": "Korkino"
			}
		},
		{
			"type": "node",
			"id": 355945765,
			"lat": 54.3506275,
			"lon": 38.266561,
			"tags": {
				"name:eo": "Venjov"
			}
		},
		{
			"type": "node",
			"id": 356482553,
			"lat": 58.381382,
			"lon": 42.347916,
			"tags": {
				"name:eo": "Galiĉ"
			}
		},
		{
			"type": "node",
			"id": 356482920,
			"lat": 56.258968,
			"lon": 32.085865,
			"tags": {
				"name:eo": "Zapadnaja Dvina"
			}
		},
		{
			"type": "node",
			"id": 356772892,
			"lat": 47.268696,
			"lon": 39.861362,
			"tags": {
				"name:eo": "Aksaj"
			}
		},
		{
			"type": "node",
			"id": 358015143,
			"lat": 35.1799528,
			"lon": 129.0752365,
			"tags": {
				"name:eo": "Pusano"
			}
		},
		{
			"type": "node",
			"id": 358015168,
			"lat": 35.1491083,
			"lon": 126.8634645,
			"tags": {
				"name:eo": "Gŭangĝu"
			}
		},
		{
			"type": "node",
			"id": 359535254,
			"lat": 55.8051388,
			"lon": 37.9505325,
			"tags": {
				"name:eo": "Balaŝiĥa"
			}
		},
		{
			"type": "node",
			"id": 360001149,
			"lat": 55.9094928,
			"lon": 37.7339358,
			"tags": {
				"name:eo": "Mitiŝĉi"
			}
		},
		{
			"type": "node",
			"id": 360001895,
			"lat": 55.4308841,
			"lon": 37.5453056,
			"tags": {
				"name:eo": "Podolsk"
			}
		},
		{
			"type": "node",
			"id": 369469617,
			"lat": 19.811719,
			"lon": 105.7745698,
			"tags": {
				"name:eo": "Thanh Hoa"
			}
		},
		{
			"type": "node",
			"id": 369486734,
			"lat": 10.7758439,
			"lon": 106.7017555,
			"tags": {
				"name:eo": "Ho-Ĉi-Min-urbo"
			}
		},
		{
			"type": "node",
			"id": 369487010,
			"lat": 13.770409,
			"lon": 109.232667,
			"tags": {
				"name:eo": "Qui Nhơn"
			}
		},
		{
			"type": "node",
			"id": 369487094,
			"lat": 17.4695049,
			"lon": 106.6177781,
			"tags": {
				"name:eo": "Dong Hoi"
			}
		},
		{
			"type": "node",
			"id": 369487099,
			"lat": 16.4690912,
			"lon": 107.5777611,
			"tags": {
				"name:eo": "Hue"
			}
		},
		{
			"type": "node",
			"id": 370757335,
			"lat": -1.45056,
			"lon": -48.4682453,
			"tags": {
				"name:eo": "Belemo"
			}
		},
		{
			"type": "node",
			"id": 381155248,
			"lat": 56.015093,
			"lon": 39.946558,
			"tags": {
				"name:eo": "Lakinsk"
			}
		},
		{
			"type": "node",
			"id": 388977545,
			"lat": -13.8343691,
			"lon": -171.7692793,
			"tags": {
				"name:eo": "Apio"
			}
		},
		{
			"type": "node",
			"id": 389681534,
			"lat": 42.585344,
			"lon": 43.4427287,
			"tags": {
				"name:eo": "Oni"
			}
		},
		{
			"type": "node",
			"id": 393764498,
			"lat": 54.9459226,
			"lon": 31.0805113,
			"tags": {
				"name:eo": "Rudnja"
			}
		},
		{
			"type": "node",
			"id": 415150369,
			"lat": 35.5487857,
			"lon": 129.252024,
			"tags": {
				"name:eo": "Ulsan"
			}
		},
		{
			"type": "node",
			"id": 415521357,
			"lat": -7.2246743,
			"lon": -35.8771292,
			"tags": {
				"name:eo": "Kampinagrando"
			}
		},
		{
			"type": "node",
			"id": 415523514,
			"lat": -24.0028977,
			"lon": -53.147239,
			"tags": {
				"name:eo": "Mariluz"
			}
		},
		{
			"type": "node",
			"id": 418392093,
			"lat": 51.1089776,
			"lon": 17.0326689,
			"tags": {
				"name:eo": "Vroclavo"
			}
		},
		{
			"type": "node",
			"id": 425219949,
			"lat": 51.659466,
			"lon": 35.658863,
			"tags": {
				"name:eo": "Kurĉatov"
			}
		},
		{
			"type": "node",
			"id": 425746989,
			"lat": 17.1184569,
			"lon": -61.8448509,
			"tags": {
				"name:eo": "Santjonso"
			}
		},
		{
			"type": "node",
			"id": 428339450,
			"lat": 27.8669082,
			"lon": 34.3014551,
			"tags": {
				"name:eo": "Ŝarm el Ŝeiĥ"
			}
		},
		{
			"type": "node",
			"id": 428339505,
			"lat": 48.2864702,
			"lon": 25.9376532,
			"tags": {
				"name:eo": "Ĉernivco"
			}
		},
		{
			"type": "node",
			"id": 428339511,
			"lat": 53.6834599,
			"lon": 23.8342648,
			"tags": {
				"name:eo": "Grodno"
			}
		},
		{
			"type": "node",
			"id": 428339515,
			"lat": 52.2319237,
			"lon": 21.0067265,
			"tags": {
				"name:eo": "Varsovio"
			}
		},
		{
			"type": "node",
			"id": 435903633,
			"lat": -4.2694407,
			"lon": 15.2712256,
			"tags": {
				"name:eo": "Brazavilo"
			}
		},
		{
			"type": "node",
			"id": 442012721,
			"lat": 55.9846135,
			"lon": 22.2490753,
			"tags": {
				"name:eo": "Telŝiao"
			}
		},
		{
			"type": "node",
			"id": 448768937,
			"lat": -19.0534159,
			"lon": -169.9191992,
			"tags": {
				"name:eo": "Alofo"
			}
		},
		{
			"type": "node",
			"id": 462089127,
			"lat": 55.954618,
			"lon": 38.0567691,
			"tags": {
				"name:eo": "Frjazino"
			}
		},
		{
			"type": "node",
			"id": 472114145,
			"lat": 14.6417889,
			"lon": -90.5132239,
			"tags": {
				"name:eo": "Gvatemalurbo"
			}
		},
		{
			"type": "node",
			"id": 478908972,
			"lat": 36.4836036,
			"lon": 59.5183609,
			"tags": {
				"name:eo": "Tuso"
			}
		},
		{
			"type": "node",
			"id": 496475615,
			"lat": 52.1286204,
			"lon": 29.3314442,
			"tags": {
				"name:eo": "Kalinkaviĉi"
			}
		},
		{
			"type": "node",
			"id": 501540880,
			"lat": 11.9918671,
			"lon": 8.5303654,
			"tags": {
				"name:eo": "Kano"
			}
		},
		{
			"type": "node",
			"id": 505035532,
			"lat": 31.4183455,
			"lon": 34.3502476,
			"tags": {
				"name:eo": "Deir el-Balah"
			}
		},
		{
			"type": "node",
			"id": 508040941,
			"lat": 31.6259901,
			"lon": -7.9886083,
			"tags": {
				"name:eo": "Marakeŝo"
			}
		},
		{
			"type": "node",
			"id": 513363722,
			"lat": 42.7121136,
			"lon": 41.4721354,
			"tags": {
				"name:eo": "Oĉamĉira"
			}
		},
		{
			"type": "node",
			"id": 530544342,
			"lat": 48.1535383,
			"lon": 17.1096711,
			"tags": {
				"name:eo": "Bratislavo"
			}
		},
		{
			"type": "node",
			"id": 531668011,
			"lat": 1.2904753,
			"lon": 103.8520359,
			"tags": {
				"name:eo": "Singapuro"
			}
		},
		{
			"type": "node",
			"id": 544060405,
			"lat": 29.3797091,
			"lon": 47.9735629,
			"tags": {
				"name:eo": "Kuvajturbo"
			}
		},
		{
			"type": "node",
			"id": 560229438,
			"lat": 11.568271,
			"lon": 104.9224426,
			"tags": {
				"name:eo": "Pnom-Peno"
			}
		},
		{
			"type": "node",
			"id": 560719199,
			"lat": 47.0505452,
			"lon": 8.3054682,
			"tags": {
				"name:eo": "Lucerno"
			}
		},
		{
			"type": "node",
			"id": 602527728,
			"lat": 35.634023,
			"lon": 139.575977,
			"tags": {
				"name:eo": "Komae"
			}
		},
		{
			"type": "node",
			"id": 603066977,
			"lat": -7.1215981,
			"lon": -34.882028,
			"tags": {
				"name:eo": "Ĵoan-Pesoo"
			}
		},
		{
			"type": "node",
			"id": 619091882,
			"lat": 19.0184785,
			"lon": 73.0401168,
			"tags": {
				"name:eo": "Novmumbajo"
			}
		},
		{
			"type": "node",
			"id": 621890744,
			"lat": 35.661089,
			"lon": 139.473429,
			"tags": {
				"name:eo": "Fuĉu"
			}
		},
		{
			"type": "node",
			"id": 622423997,
			"lat": 35.660175,
			"lon": 139.283071,
			"tags": {
				"name:eo": "Haĉioĵi"
			}
		},
		{
			"type": "node",
			"id": 622424880,
			"lat": 35.6610715,
			"lon": 139.4147051,
			"tags": {
				"name:eo": "Hino"
			}
		},
		{
			"type": "node",
			"id": 622640333,
			"lat": 35.638229,
			"lon": 139.507776,
			"tags": {
				"name:eo": "Inagi"
			}
		},
		{
			"type": "node",
			"id": 623801472,
			"lat": 35.709674,
			"lon": 139.454224,
			"tags": {
				"name:eo": "Kokubunĵi"
			}
		},
		{
			"type": "node",
			"id": 623805032,
			"lat": 35.681991,
			"lon": 139.43624,
			"tags": {
				"name:eo": "Kunitaĉi"
			}
		},
		{
			"type": "node",
			"id": 654179991,
			"lat": 47.138527,
			"lon": 39.742348,
			"tags": {
				"name:eo": "Batajsk"
			}
		},
		{
			"type": "node",
			"id": 655122109,
			"lat": -8.0641931,
			"lon": -34.8781517,
			"tags": {
				"name:eo": "Recifo"
			}
		},
		{
			"type": "node",
			"id": 671806634,
			"lat": 4.5980478,
			"lon": -74.0760867,
			"tags": {
				"name:eo": "Bogoto"
			}
		},
		{
			"type": "node",
			"id": 679031958,
			"lat": 43.8437724,
			"lon": 46.7124847,
			"tags": {
				"name:eo": "Kizlar"
			}
		},
		{
			"type": "node",
			"id": 703225446,
			"lat": 5.1535058,
			"lon": -75.0371423,
			"tags": {
				"name:eo": "Fresno"
			}
		},
		{
			"type": "node",
			"id": 703902171,
			"lat": 6.920744,
			"lon": 158.1627143,
			"tags": {
				"name:eo": "Palikiro"
			}
		},
		{
			"type": "node",
			"id": 703928722,
			"lat": 7.4954144,
			"lon": 134.636753,
			"tags": {
				"name:eo": "Melekeoko"
			}
		},
		{
			"type": "node",
			"id": 734098547,
			"lat": 29.5585712,
			"lon": 106.5492822,
			"tags": {
				"name:eo": "Ĉongĉingo"
			}
		},
		{
			"type": "node",
			"id": 738536340,
			"lat": 46.1909823,
			"lon": 30.345784,
			"tags": {
				"name:eo": "Bilhorod-Dnistrovskij"
			}
		},
		{
			"type": "node",
			"id": 738885245,
			"lat": 51.4816546,
			"lon": -3.1791934,
			"tags": {
				"name:eo": "Kardifo"
			}
		},
		{
			"type": "node",
			"id": 764019333,
			"lat": 55.5771391,
			"lon": 38.9225824,
			"tags": {
				"name:eo": "Kurovskoje"
			}
		},
		{
			"type": "node",
			"id": 768032316,
			"lat": 28.096828,
			"lon": 30.757578,
			"tags": {
				"name:eo": "Minja"
			}
		},
		{
			"type": "node",
			"id": 768555545,
			"lat": 29.3073841,
			"lon": 30.8398896,
			"tags": {
				"name:eo": "Fajumo"
			}
		},
		{
			"type": "node",
			"id": 768582192,
			"lat": 28.241667,
			"lon": 33.623611,
			"tags": {
				"name:eo": "At-Tur"
			}
		},
		{
			"type": "node",
			"id": 768586066,
			"lat": 29.073067,
			"lon": 31.0978714,
			"tags": {
				"name:eo": "Beni Suef"
			}
		},
		{
			"type": "node",
			"id": 768595872,
			"lat": 30.6043775,
			"lon": 32.2770825,
			"tags": {
				"name:eo": "Ismailija"
			}
		},
		{
			"type": "node",
			"id": 768597777,
			"lat": 31.1272509,
			"lon": 33.8045859,
			"tags": {
				"name:eo": "El Ariŝ"
			}
		},
		{
			"type": "node",
			"id": 768775606,
			"lat": 29.8500001,
			"lon": 31.333333,
			"tags": {
				"name:eo": "Helŭan"
			}
		},
		{
			"type": "node",
			"id": 771323155,
			"lat": 35.72522,
			"lon": 139.476606,
			"tags": {
				"name:eo": "Kodaira"
			}
		},
		{
			"type": "node",
			"id": 773119937,
			"lat": 0.3177137,
			"lon": 32.5813539,
			"tags": {
				"name:eo": "Kampalo"
			}
		},
		{
			"type": "node",
			"id": 776951938,
			"lat": 19.2953549,
			"lon": -81.3807776,
			"tags": {
				"name:eo": "Ĝorĝtaŭno"
			}
		},
		{
			"type": "node",
			"id": 778910398,
			"lat": 31.2253441,
			"lon": 121.4888922,
			"tags": {
				"name:eo": "Ŝanhajo"
			}
		},
		{
			"type": "node",
			"id": 790807049,
			"lat": -9.4312971,
			"lon": 159.9552773,
			"tags": {
				"name:eo": "Honiaro"
			}
		},
		{
			"type": "node",
			"id": 854916003,
			"lat": 47.9626388,
			"lon": 23.8647474,
			"tags": {
				"name:eo": "Solotvino"
			}
		},
		{
			"type": "node",
			"id": 864242816,
			"lat": 36.034913,
			"lon": 139.754941,
			"tags": {
				"name:eo": "Sugito"
			}
		},
		{
			"type": "node",
			"id": 873099231,
			"lat": 43.0349931,
			"lon": -87.922497,
			"tags": {
				"name:eo": "Milvokio"
			}
		},
		{
			"type": "node",
			"id": 914310439,
			"lat": 10.506098,
			"lon": -66.9146017,
			"tags": {
				"name:eo": "Karakaso"
			}
		},
		{
			"type": "node",
			"id": 941125358,
			"lat": -34.9274284,
			"lon": 138.599899,
			"tags": {
				"name:eo": "Adelajdo"
			}
		},
		{
			"type": "node",
			"id": 959199214,
			"lat": 51.4538022,
			"lon": -2.5972985,
			"tags": {
				"name:eo": "Bristolo"
			}
		},
		{
			"type": "node",
			"id": 992046822,
			"lat": 64.175029,
			"lon": -51.7355386,
			"tags": {
				"name:eo": "Nuko"
			}
		},
		{
			"type": "node",
			"id": 1026705983,
			"lat": 43.5644236,
			"lon": 43.5902937,
			"tags": {
				"name:eo": "Ĉegem"
			}
		},
		{
			"type": "node",
			"id": 1033896207,
			"lat": 49.7178387,
			"lon": 28.8322522,
			"tags": {
				"name:eo": "Kozjatin"
			}
		},
		{
			"type": "node",
			"id": 1046100133,
			"lat": 5.320357,
			"lon": -4.016107,
			"tags": {
				"name:eo": "Abiĝano"
			}
		},
		{
			"type": "node",
			"id": 1054320920,
			"lat": 35.70248,
			"lon": 139.350065,
			"tags": {
				"name:eo": "Akiŝima"
			}
		},
		{
			"type": "node",
			"id": 1082208696,
			"lat": -21.1343401,
			"lon": -175.2018085,
			"tags": {
				"name:eo": "Nukualofo"
			}
		},
		{
			"type": "node",
			"id": 1091272140,
			"lat": 33.5130695,
			"lon": 36.3095814,
			"tags": {
				"name:eo": "Damasko"
			}
		},
		{
			"type": "node",
			"id": 1105432954,
			"lat": 50.5957548,
			"lon": 32.3867593,
			"tags": {
				"name:eo": "Priluki"
			}
		},
		{
			"type": "node",
			"id": 1128089200,
			"lat": 27.180178,
			"lon": 31.187651,
			"tags": {
				"name:eo": "Asjut"
			}
		},
		{
			"type": "node",
			"id": 1147314253,
			"lat": 25.0375167,
			"lon": 121.5637,
			"tags": {
				"name:eo": "Tajpeo"
			}
		},
		{
			"type": "node",
			"id": 1153145528,
			"lat": 53.1539638,
			"lon": 24.4489454,
			"tags": {
				"name:eo": "Vaŭkavisk"
			}
		},
		{
			"type": "node",
			"id": 1168567868,
			"lat": 43.024593,
			"lon": 44.68211,
			"tags": {
				"name:eo": "Vladikavkaz"
			}
		},
		{
			"type": "node",
			"id": 1186506546,
			"lat": 51.0035653,
			"lon": 26.7524487,
			"tags": {
				"name:eo": "Berezne"
			}
		},
		{
			"type": "node",
			"id": 1235110932,
			"lat": 43.3712091,
			"lon": -8.3958768,
			"tags": {
				"name:eo": "Korunjo"
			}
		},
		{
			"type": "node",
			"id": 1242998122,
			"lat": 8.9714493,
			"lon": -79.5341802,
			"tags": {
				"name:eo": "Panamurbo"
			}
		},
		{
			"type": "node",
			"id": 1372477580,
			"lat": 60.1674086,
			"lon": 24.9425683,
			"tags": {
				"name:eo": "Helsinko"
			}
		},
		{
			"type": "node",
			"id": 1376501203,
			"lat": 27.4727617,
			"lon": 89.629548,
			"tags": {
				"name:eo": "Timbuo"
			}
		},
		{
			"type": "node",
			"id": 1418701024,
			"lat": 54.5969869,
			"lon": -5.9300992,
			"tags": {
				"name:eo": "Belfasto"
			}
		},
		{
			"type": "node",
			"id": 1440354068,
			"lat": 35.803601,
			"lon": 139.238128,
			"tags": {
				"name:eo": "Ome"
			}
		},
		{
			"type": "node",
			"id": 1463122111,
			"lat": 55.070232,
			"lon": 57.547676,
			"tags": {
				"name:eo": "Minjar"
			}
		},
		{
			"type": "node",
			"id": 1487757399,
			"lat": 31.8882874,
			"lon": 54.3642876,
			"tags": {
				"name:eo": "Jazdo"
			}
		},
		{
			"type": "node",
			"id": 1493423723,
			"lat": 53.978512,
			"lon": 38.160255,
			"tags": {
				"name:eo": "Uzlovaja"
			}
		},
		{
			"type": "node",
			"id": 1501909943,
			"lat": 35.8989818,
			"lon": 14.5136759,
			"tags": {
				"name:eo": "La-Valeto"
			}
		},
		{
			"type": "node",
			"id": 1513663376,
			"lat": 35.731042,
			"lon": 139.217028,
			"tags": {
				"name:eo": "Akiruno"
			}
		},
		{
			"type": "node",
			"id": 1513663390,
			"lat": 35.737188,
			"lon": 139.334682,
			"tags": {
				"name:eo": "Fussa"
			}
		},
		{
			"type": "node",
			"id": 1513663393,
			"lat": 35.764833,
			"lon": 139.307862,
			"tags": {
				"name:eo": "Hamura"
			}
		},
		{
			"type": "node",
			"id": 1532708613,
			"lat": 47.9102734,
			"lon": 33.3917703,
			"tags": {
				"name:eo": "Krivij-Rih"
			}
		},
		{
			"type": "node",
			"id": 1546628274,
			"lat": -27.4689682,
			"lon": 153.0234991,
			"tags": {
				"name:eo": "Brisbano"
			}
		},
		{
			"type": "node",
			"id": 1551865419,
			"lat": 45.813177,
			"lon": 15.977048,
			"tags": {
				"name:eo": "Zagrebo"
			}
		},
		{
			"type": "node",
			"id": 1577255384,
			"lat": 46.855515,
			"lon": 9.5254066,
			"tags": {
				"name:eo": "Koiro"
			}
		},
		{
			"type": "node",
			"id": 1583294719,
			"lat": 51.3090209,
			"lon": 9.4762981,
			"tags": {
				"name:eo": "Kaselo"
			}
		},
		{
			"type": "node",
			"id": 1589227483,
			"lat": 50.409153,
			"lon": 36.894012,
			"tags": {
				"name:eo": "Ŝebekino"
			}
		},
		{
			"type": "node",
			"id": 1590291928,
			"lat": 34.3916058,
			"lon": 132.4518156,
			"tags": {
				"name:eo": "Hiroŝimo"
			}
		},
		{
			"type": "node",
			"id": 1600720972,
			"lat": 19.2334875,
			"lon": 73.1182464,
			"tags": {
				"name:eo": "Kaljan-Dombivali"
			}
		},
		{
			"type": "node",
			"id": 1601837931,
			"lat": 50.0874654,
			"lon": 14.4212535,
			"tags": {
				"name:eo": "Prago"
			}
		},
		{
			"type": "node",
			"id": 1614277087,
			"lat": 41.6935247,
			"lon": 44.8015019,
			"tags": {
				"name:eo": "Tbiliso"
			}
		},
		{
			"type": "node",
			"id": 1619811558,
			"lat": 35.7041083,
			"lon": 139.5106759,
			"tags": {
				"name:eo": "Koganei"
			}
		},
		{
			"type": "node",
			"id": 1628109752,
			"lat": 50.5814148,
			"lon": 34.4761301,
			"tags": {
				"name:eo": "Lebedin"
			}
		},
		{
			"type": "node",
			"id": 1628207792,
			"lat": 13.7542529,
			"lon": 100.493087,
			"tags": {
				"name:eo": "Bankoko"
			}
		},
		{
			"type": "node",
			"id": 1635651356,
			"lat": 50.8465573,
			"lon": 4.351697,
			"tags": {
				"name:eo": "Bruselo"
			}
		},
		{
			"type": "node",
			"id": 1636218447,
			"lat": 26.547748,
			"lon": 31.699263,
			"tags": {
				"name:eo": "Saŭhaĝ"
			}
		},
		{
			"type": "node",
			"id": 1636999091,
			"lat": 47.659216,
			"lon": 9.1750718,
			"tags": {
				"name:eo": "Konstanco"
			}
		},
		{
			"type": "node",
			"id": 1639099539,
			"lat": -12.46044,
			"lon": 130.8410469,
			"tags": {
				"name:eo": "Darvino"
			}
		},
		{
			"type": "node",
			"id": 1643504896,
			"lat": 31.9515694,
			"lon": 35.9239625,
			"tags": {
				"name:eo": "Amano"
			}
		},
		{
			"type": "node",
			"id": 1643945522,
			"lat": 49.5557716,
			"lon": 25.591886,
			"tags": {
				"name:eo": "Ternopilo"
			}
		},
		{
			"type": "node",
			"id": 1651558422,
			"lat": 51.2082905,
			"lon": 3.2261497,
			"tags": {
				"name:eo": "Bruĝo"
			}
		},
		{
			"type": "node",
			"id": 1651888734,
			"lat": 52.3744779,
			"lon": 9.7385532,
			"tags": {
				"name:eo": "Hanovro"
			}
		},
		{
			"type": "node",
			"id": 1664142674,
			"lat": 42.6953868,
			"lon": 2.8844713,
			"tags": {
				"name:eo": "Perpinjano"
			}
		},
		{
			"type": "node",
			"id": 1667005776,
			"lat": 51.4825041,
			"lon": 11.9705452,
			"tags": {
				"name:eo": "Halle ĉe Saale"
			}
		},
		{
			"type": "node",
			"id": 1667671341,
			"lat": 24.091071,
			"lon": 32.897306,
			"tags": {
				"name:eo": "Asuano"
			}
		},
		{
			"type": "node",
			"id": 1667671370,
			"lat": 25.702096,
			"lon": 32.647186,
			"tags": {
				"name:eo": "Luksoro"
			}
		},
		{
			"type": "node",
			"id": 1668655163,
			"lat": 51.0538286,
			"lon": 3.7250121,
			"tags": {
				"name:eo": "Gento"
			}
		},
		{
			"type": "node",
			"id": 1669135487,
			"lat": 50.8276199,
			"lon": 3.2659948,
			"tags": {
				"name:eo": "Kortrejko"
			}
		},
		{
			"type": "node",
			"id": 1669842684,
			"lat": 6.4990718,
			"lon": 2.6253361,
			"tags": {
				"name:eo": "Porto-Novo"
			}
		},
		{
			"type": "node",
			"id": 1673414233,
			"lat": 35.785483,
			"lon": 139.531253,
			"tags": {
				"name:eo": "Kijose"
			}
		},
		{
			"type": "node",
			"id": 1676664890,
			"lat": 25.2856329,
			"lon": 51.5264162,
			"tags": {
				"name:eo": "Doho"
			}
		},
		{
			"type": "node",
			"id": 1681538643,
			"lat": 54.6478265,
			"lon": 21.0719431,
			"tags": {
				"name:eo": "Gvardejsk"
			}
		},
		{
			"type": "node",
			"id": 1684082165,
			"lat": 55.9206499,
			"lon": 37.9915576,
			"tags": {
				"name:eo": "Ŝĉjolkovo"
			}
		},
		{
			"type": "node",
			"id": 1684321651,
			"lat": 54.0924445,
			"lon": 12.1286127,
			"tags": {
				"name:eo": "Rostoko"
			}
		},
		{
			"type": "node",
			"id": 1686293227,
			"lat": 55.7507178,
			"lon": 37.6176606,
			"tags": {
				"name:eo": "Moskvo"
			}
		},
		{
			"type": "node",
			"id": 1689207163,
			"lat": 50.6451381,
			"lon": 5.5734203,
			"tags": {
				"name:eo": "Lieĝo"
			}
		},
		{
			"type": "node",
			"id": 1695218178,
			"lat": 52.4009309,
			"lon": 13.0591397,
			"tags": {
				"name:eo": "Potsdamo"
			}
		},
		{
			"type": "node",
			"id": 1697487051,
			"lat": 53.0210671,
			"lon": 18.618612,
			"tags": {
				"name:eo": "Toruno"
			}
		},
		{
			"type": "node",
			"id": 1697770807,
			"lat": 43.5426309,
			"lon": 10.3160295,
			"tags": {
				"name:eo": "Livorno"
			}
		},
		{
			"type": "node",
			"id": 1698668366,
			"lat": 42.1418541,
			"lon": 24.7499297,
			"tags": {
				"name:eo": "Plovdiv"
			}
		},
		{
			"type": "node",
			"id": 1699083598,
			"lat": 4.8895453,
			"lon": 114.9417574,
			"tags": {
				"name:eo": "Bandar-Seri-Begavano"
			}
		},
		{
			"type": "node",
			"id": 1699640925,
			"lat": 32.896672,
			"lon": 13.1777923,
			"tags": {
				"name:eo": "Tripolo"
			}
		},
		{
			"type": "node",
			"id": 1700083447,
			"lat": 42.6978151,
			"lon": 23.3221574,
			"tags": {
				"name:eo": "Sofio"
			}
		},
		{
			"type": "node",
			"id": 1700534808,
			"lat": 48.1371079,
			"lon": 11.5753822,
			"tags": {
				"name:eo": "Munkeno"
			}
		},
		{
			"type": "node",
			"id": 1723694093,
			"lat": 49.556175,
			"lon": 27.9491205,
			"tags": {
				"name:eo": "Ĥmilnik"
			}
		},
		{
			"type": "node",
			"id": 1741594835,
			"lat": 49.4718989,
			"lon": 8.6101969,
			"tags": {
				"name:eo": "Ladenburgo"
			}
		},
		{
			"type": "node",
			"id": 1756064259,
			"lat": 48.2305107,
			"lon": 38.185045,
			"tags": {
				"name:eo": "Jenakijeve"
			}
		},
		{
			"type": "node",
			"id": 1756064266,
			"lat": 46.8487478,
			"lon": 35.3676448,
			"tags": {
				"name:eo": "Melitopolo"
			}
		},
		{
			"type": "node",
			"id": 1765500676,
			"lat": 50.4665284,
			"lon": 4.8661892,
			"tags": {
				"name:eo": "Namuro"
			}
		},
		{
			"type": "node",
			"id": 1790048269,
			"lat": 43.7311424,
			"lon": 7.4197576,
			"tags": {
				"name:eo": "Monako"
			}
		},
		{
			"type": "node",
			"id": 1791553385,
			"lat": -51.6950575,
			"lon": -57.8491693,
			"tags": {
				"name:eo": "Stanlejo"
			}
		},
		{
			"type": "node",
			"id": 1798809766,
			"lat": 54.8707703,
			"lon": 37.2188629,
			"tags": {
				"name:eo": "Protvino"
			}
		},
		{
			"type": "node",
			"id": 1801308037,
			"lat": 30.2711286,
			"lon": -97.7436995,
			"tags": {
				"name:eo": "Aŭstino"
			}
		},
		{
			"type": "node",
			"id": 1811650017,
			"lat": 37.9396678,
			"lon": 58.3874263,
			"tags": {
				"name:eo": "Aŝgabato"
			}
		},
		{
			"type": "node",
			"id": 1816928488,
			"lat": 54.3073587,
			"lon": 26.8390328,
			"tags": {
				"name:eo": "Maladzeĉna"
			}
		},
		{
			"type": "node",
			"id": 1830695012,
			"lat": 45.3534002,
			"lon": 36.4538645,
			"tags": {
				"name:eo": "Kerĉo"
			}
		},
		{
			"type": "node",
			"id": 1832288053,
			"lat": 41.3188294,
			"lon": 19.4451631,
			"tags": {
				"name:eo": "Duraso"
			}
		},
		{
			"type": "node",
			"id": 1835254686,
			"lat": 41.3279457,
			"lon": 19.8185323,
			"tags": {
				"name:eo": "Tirano"
			}
		},
		{
			"type": "node",
			"id": 1838666975,
			"lat": 50.0619474,
			"lon": 19.9368564,
			"tags": {
				"name:eo": "Krakovo"
			}
		},
		{
			"type": "node",
			"id": 1882099475,
			"lat": 41.0096334,
			"lon": 28.9651646,
			"tags": {
				"name:eo": "Istanbulo"
			}
		},
		{
			"type": "node",
			"id": 1889910974,
			"lat": 3.1570976,
			"lon": 101.7009528,
			"tags": {
				"name:eo": "Kuala-Lumpuro"
			}
		},
		{
			"type": "node",
			"id": 1893015330,
			"lat": 35.1739302,
			"lon": 33.364726,
			"tags": {
				"name:eo": "Nikozio"
			}
		},
		{
			"type": "node",
			"id": 1909836591,
			"lat": 49.4938975,
			"lon": 0.1079732,
			"tags": {
				"name:eo": "Havro"
			}
		},
		{
			"type": "node",
			"id": 1912365631,
			"lat": 37.5666791,
			"lon": 126.9782914,
			"tags": {
				"name:eo": "Seulo"
			}
		},
		{
			"type": "node",
			"id": 1932181216,
			"lat": 47.1392862,
			"lon": 9.5227962,
			"tags": {
				"name:eo": "Vaduzo"
			}
		},
		{
			"type": "node",
			"id": 1933393717,
			"lat": 21.5822247,
			"lon": 39.1640396,
			"tags": {
				"name:eo": "Ĝido"
			}
		},
		{
			"type": "node",
			"id": 1955178858,
			"lat": 19.4062487,
			"lon": -101.6391737,
			"tags": {
				"name:eo": "Salvador Escalante"
			}
		},
		{
			"type": "node",
			"id": 1975586073,
			"lat": 18.2145861,
			"lon": -63.0517759,
			"tags": {
				"name:eo": "La-Valo"
			}
		},
		{
			"type": "node",
			"id": 1975648720,
			"lat": -16.4956386,
			"lon": -68.1336346,
			"tags": {
				"name:eo": "La-Pazo"
			}
		},
		{
			"type": "node",
			"id": 1976443075,
			"lat": 41.6351442,
			"lon": 69.9400208,
			"tags": {
				"name:eo": "Charvak"
			}
		},
		{
			"type": "node",
			"id": 2003143522,
			"lat": 31.5648877,
			"lon": 118.8435896,
			"tags": {
				"name:eo": "Bowang Distrikto"
			}
		},
		{
			"type": "node",
			"id": 2095029787,
			"lat": 55.322518,
			"lon": 38.6816824,
			"tags": {
				"name:eo": "Voskresensk"
			}
		},
		{
			"type": "node",
			"id": 2115184105,
			"lat": 35.263676,
			"lon": 139.150229,
			"tags": {
				"name:eo": "Odaŭara"
			}
		},
		{
			"type": "node",
			"id": 2115184118,
			"lat": 35.400469,
			"lon": 139.198658,
			"tags": {
				"name:eo": "Hadano"
			}
		},
		{
			"type": "node",
			"id": 2127195931,
			"lat": 43.5566193,
			"lon": 43.8517142,
			"tags": {
				"name:eo": "Nartkala"
			}
		},
		{
			"type": "node",
			"id": 2195276463,
			"lat": 6.130419,
			"lon": 1.215829,
			"tags": {
				"name:eo": "Lomeo"
			}
		},
		{
			"type": "node",
			"id": 2271196833,
			"lat": 53.3084631,
			"lon": 28.6382068,
			"tags": {
				"name:eo": "Asipoviĉi"
			}
		},
		{
			"type": "node",
			"id": 2339172677,
			"lat": 46.8516737,
			"lon": 29.6349762,
			"tags": {
				"name:eo": "Tiraspolo"
			}
		},
		{
			"type": "node",
			"id": 2466067279,
			"lat": -31.4173391,
			"lon": -64.183319,
			"tags": {
				"name:eo": "Kordobo"
			}
		},
		{
			"type": "node",
			"id": 2518589521,
			"lat": 32.9729703,
			"lon": 117.1994547,
			"tags": {
				"name:eo": "Huaiyuan Graflando"
			}
		},
		{
			"type": "node",
			"id": 2616628792,
			"lat": 51.30905,
			"lon": 39.2160054,
			"tags": {
				"name:eo": "Novovoroneĵ"
			}
		},
		{
			"type": "node",
			"id": 2668706359,
			"lat": 62.2299808,
			"lon": -133.3540278,
			"tags": {
				"name:eo": "Faro"
			}
		},
		{
			"type": "node",
			"id": 2671392424,
			"lat": 31.7442532,
			"lon": 118.3481305,
			"tags": {
				"name:eo": "He Graflando"
			}
		},
		{
			"type": "node",
			"id": 2702400314,
			"lat": 28.6517178,
			"lon": 77.2219388,
			"tags": {
				"name:eo": "Delhio"
			}
		},
		{
			"type": "node",
			"id": 2967480392,
			"lat": 52.6330338,
			"lon": 29.7484282,
			"tags": {
				"name:eo": "Svetlahorsk"
			}
		},
		{
			"type": "node",
			"id": 3013751478,
			"lat": 31.8528732,
			"lon": 117.2552439,
			"tags": {
				"name:eo": "Shushan Distrikto"
			}
		},
		{
			"type": "node",
			"id": 3013754120,
			"lat": 31.7955295,
			"lon": 117.3052493,
			"tags": {
				"name:eo": "Baohe Distrikto"
			}
		},
		{
			"type": "node",
			"id": 3013754950,
			"lat": 31.8601612,
			"lon": 117.3037396,
			"tags": {
				"name:eo": "Yaohai Distrikto"
			}
		},
		{
			"type": "node",
			"id": 3019559323,
			"lat": 40.223173,
			"lon": 69.2583902,
			"tags": {
				"name:eo": "Bekabad"
			}
		},
		{
			"type": "node",
			"id": 3072758152,
			"lat": -13.973456,
			"lon": 33.7878122,
			"tags": {
				"name:eo": "Lilongvo"
			}
		},
		{
			"type": "node",
			"id": 3442474911,
			"lat": 23.7593572,
			"lon": 90.3788136,
			"tags": {
				"name:eo": "Dako"
			}
		},
		{
			"type": "node",
			"id": 3473474851,
			"lat": 53.3497645,
			"lon": -6.2602732,
			"tags": {
				"name:eo": "Dublino"
			}
		},
		{
			"type": "node",
			"id": 3510661780,
			"lat": 22.5442673,
			"lon": 114.0545327,
			"tags": {
				"name:eo": "Ŝenĵeno"
			}
		},
		{
			"type": "node",
			"id": 3578183534,
			"lat": 31.8805098,
			"lon": 117.2592534,
			"tags": {
				"name:eo": "Luyang Distrikto"
			}
		},
		{
			"type": "node",
			"id": 3673183717,
			"lat": 50.5111168,
			"lon": 30.7900482,
			"tags": {
				"name:eo": "Brovari"
			}
		},
		{
			"type": "node",
			"id": 3727888638,
			"lat": 33.1290757,
			"lon": 117.8759223,
			"tags": {
				"name:eo": "Wuhe Graflando"
			}
		},
		{
			"type": "node",
			"id": 3728599725,
			"lat": 31.7371931,
			"lon": 118.095999,
			"tags": {
				"name:eo": "Hanshan Graflando"
			}
		},
		{
			"type": "node",
			"id": 3728599726,
			"lat": 31.5722883,
			"lon": 118.4928233,
			"tags": {
				"name:eo": "Dangtu Graflanto"
			}
		},
		{
			"type": "node",
			"id": 3728599727,
			"lat": 31.1367282,
			"lon": 118.5705302,
			"tags": {
				"name:eo": "Wuhu Graflando"
			}
		},
		{
			"type": "node",
			"id": 3728619137,
			"lat": 31.8900729,
			"lon": 117.4636063,
			"tags": {
				"name:eo": "Feidong Graflando"
			}
		},
		{
			"type": "node",
			"id": 3771328057,
			"lat": 31.3005066,
			"lon": 117.9142088,
			"tags": {
				"name:eo": "Wuwei Graflando"
			}
		},
		{
			"type": "node",
			"id": 3799390398,
			"lat": 31.6842096,
			"lon": 118.4933555,
			"tags": {
				"name:eo": "Yushan Distrikto"
			}
		},
		{
			"type": "node",
			"id": 3824013267,
			"lat": 31.2218919,
			"lon": 118.262715,
			"tags": {
				"name:eo": "Sanshan Distrikto"
			}
		},
		{
			"type": "node",
			"id": 3824013480,
			"lat": 31.3155852,
			"lon": 118.3674047,
			"tags": {
				"name:eo": "Yijiang Distrikto"
			}
		},
		{
			"type": "node",
			"id": 3882986980,
			"lat": 31.7090349,
			"lon": 117.152533,
			"tags": {
				"name:eo": "Feixi Graflando"
			}
		},
		{
			"type": "node",
			"id": 3882987751,
			"lat": 31.2580989,
			"lon": 117.2817459,
			"tags": {
				"name:eo": "Lujiang Graflando"
			}
		},
		{
			"type": "node",
			"id": 3896048030,
			"lat": 32.482035,
			"lon": 117.160669,
			"tags": {
				"name:eo": "Changfeng Graflando"
			}
		},
		{
			"type": "node",
			"id": 3933776715,
			"lat": 38.3239411,
			"lon": 26.7673244,
			"tags": {
				"name:eo": "Urla"
			}
		},
		{
			"type": "node",
			"id": 4126283179,
			"lat": 48.5105805,
			"lon": 32.2656283,
			"tags": {
				"name:eo": "Kropivnicko"
			}
		},
		{
			"type": "node",
			"id": 4230154696,
			"lat": 54.5119008,
			"lon": 30.4254486,
			"tags": {
				"name:eo": "Orŝa"
			}
		},
		{
			"type": "node",
			"id": 4289361265,
			"lat": -12.0621065,
			"lon": -77.0365256,
			"tags": {
				"name:eo": "Limo"
			}
		},
		{
			"type": "node",
			"id": 4450437999,
			"lat": 6.2288772,
			"lon": 1.5938066,
			"tags": {
				"name:eo": "Aneho"
			}
		},
		{
			"type": "node",
			"id": 4559181618,
			"lat": 54.9655573,
			"lon": 39.0277188,
			"tags": {
				"name:eo": "Luĥovici"
			}
		},
		{
			"type": "node",
			"id": 4866202678,
			"lat": 31.3718147,
			"lon": 118.3860456,
			"tags": {
				"name:eo": "Jiujiang Distrikto"
			}
		}
	]
}